{
"type": "FeatureCollection",
"name": "CASTJ16_Pinang Ranti -Lebak Bulus via Pasar Rebo",
"crs": { "type": "name", "properties": { "name": "urn:ogc:def:crs:OGC:1.3:CRS84" } },
"features": [
{ "type": "Feature", "properties": { "id": 1 }, "geometry": { "type": "MultiLineString", "coordinates": [ [ [ 106.886015404099524, -6.291551907665633 ], [ 106.885472055970624, -6.291088985507307 ], [ 106.882677694164897, -6.290471755321471 ], [ 106.881280513262027, -6.290317447660484 ], [ 106.880814786294394, -6.290240293812811 ], [ 106.880892407455633, -6.291937675815907 ], [ 106.881823861390927, -6.295100963844355 ], [ 106.883376284616304, -6.299035758650029 ], [ 106.884385359712851, -6.303124827528565 ], [ 106.887490206163662, -6.305130774062555 ], [ 106.891836991194822, -6.305979441414213 ], [ 106.895795670419645, -6.307059561489061 ], [ 106.899288622676821, -6.308602586263343 ], [ 106.90138439403114, -6.310377059074349 ], [ 106.90348016538546, -6.311148567096723 ], [ 106.903557786546699, -6.311920073970136 ], [ 106.902160605643843, -6.311765772687376 ], [ 106.898512411064104, -6.309528398922857 ], [ 106.896727124354911, -6.30813967931338 ], [ 106.890983158420866, -6.306673804577804 ], [ 106.887723069647492, -6.306210895905404 ], [ 106.887102100357311, -6.306288047379508 ], [ 106.885782540615693, -6.307445318113258 ], [ 106.883531526938853, -6.307908225683359 ], [ 106.881979103713448, -6.306828107376751 ], [ 106.880737165133112, -6.306596653161107 ], [ 106.877477076359753, -6.307445318113258 ], [ 106.872354079715876, -6.30875688848812 ], [ 106.869404475587586, -6.308988341739143 ], [ 106.865057690556412, -6.306828107376751 ], [ 106.862729055718319, -6.305053622416255 ], [ 106.860167557396366, -6.303742042673045 ], [ 106.859391345783678, -6.302661915688243 ], [ 106.857295574429358, -6.302584763674692 ], [ 106.852871168236902, -6.302739067690315 ], [ 106.851163502688948, -6.304436408832644 ], [ 106.84914535249591, -6.304745015716277 ], [ 106.841848963336446, -6.304050649969859 ], [ 106.836570724370034, -6.302353307565205 ], [ 106.831835833532537, -6.299190063721007 ], [ 106.828653365920417, -6.297338399842027 ], [ 106.821900324889882, -6.293866512271244 ], [ 106.818484993793959, -6.292863518208108 ], [ 106.802572655733456, -6.292632057764717 ], [ 106.791860935478084, -6.292709211257303 ], [ 106.78960992180123, -6.292709211257303 ], [ 106.785884106060237, -6.292554904260672 ], [ 106.780916351738924, -6.291011831774165 ], [ 106.778587716900788, -6.28962306261917 ], [ 106.776880051352819, -6.289391600732607 ], [ 106.774706658837246, -6.289468754706248 ] ] ] } }
]
}
