{
"type": "FeatureCollection",
"name": "CASTJ22_SAWANGAN-BLOK M VIA UPN VETERAN",
"crs": { "type": "name", "properties": { "name": "urn:ogc:def:crs:OGC:1.3:CRS84" } },
"features": [
{ "type": "Feature", "properties": { "id": 1 }, "geometry": { "type": "MultiLineString", "coordinates": [ [ [ 106.77265570594399, -6.394563911083849 ], [ 106.770011192719622, -6.394038298741565 ], [ 106.767895582140142, -6.387205289136541 ], [ 106.770540095364495, -6.37669278857505 ], [ 106.774771316523513, -6.367756993599468 ], [ 106.776093573135697, -6.361712102912057 ], [ 106.775035767845935, -6.354615836163079 ], [ 106.776358024458133, -6.351987564373954 ], [ 106.777415829747895, -6.346205319202929 ], [ 106.782134269412083, -6.335797353184247 ], [ 106.78283195186718, -6.333320843130793 ], [ 106.785024668154634, -6.327773417505198 ], [ 106.784825330310326, -6.325891241704459 ], [ 106.783828641088746, -6.321928743932007 ], [ 106.789011425040997, -6.319650293963901 ], [ 106.789908445340416, -6.315192428050833 ], [ 106.791004803484157, -6.314498978791538 ], [ 106.791602817017107, -6.315588684353412 ], [ 106.793396857615988, -6.315192428050833 ], [ 106.793895202226778, -6.314003657323432 ], [ 106.793396857615988, -6.312319560788036 ], [ 106.793895202226778, -6.309248547127851 ], [ 106.793496526538121, -6.306672844218105 ], [ 106.794393546837583, -6.304097128511373 ], [ 106.794891891448358, -6.297558715817905 ], [ 106.795390236059148, -6.291713701428078 ], [ 106.795888580669953, -6.284976993126557 ], [ 106.796087918514246, -6.281410465172639 ], [ 106.797283945580148, -6.278042055221916 ], [ 106.797483283424484, -6.277051342266269 ], [ 106.797483283424484, -6.264766345161243 ], [ 106.796486594202918, -6.261397827674762 ], [ 106.797184276658015, -6.25604778465749 ], [ 106.798081296957449, -6.242573359697416 ], [ 106.798251808772179, -6.239935156943427 ], [ 106.798573046151645, -6.2396796895279 ], [ 106.798894283531112, -6.240446091400843 ], [ 106.798958531006988, -6.241851158589653 ], [ 106.798701541103441, -6.24261755728608 ], [ 106.799279768386441, -6.243256222009831 ], [ 106.801142945187365, -6.243511687681266 ] ] ] } }
]
}
