{
"type": "FeatureCollection",
"name": "CASTJ17_Pinang Ranti - Marunda Center (Via Pulo Gebang)",
"crs": { "type": "name", "properties": { "name": "urn:ogc:def:crs:OGC:1.3:CRS84" } },
"features": [
{ "type": "Feature", "properties": { "id": 1 }, "geometry": { "type": "MultiLineString", "coordinates": [ [ [ 106.886058141654019, -6.291606866038264 ], [ 106.886713785614631, -6.291155692360223 ], [ 106.888832019948893, -6.290604257332939 ], [ 106.893371093522347, -6.290002691181394 ], [ 106.89659887917459, -6.289501385523301 ], [ 106.898616245207208, -6.287245504080084 ], [ 106.899877098977612, -6.28549092285856 ], [ 106.905021382360829, -6.284889350791561 ], [ 106.910316968196526, -6.284287778028936 ], [ 106.910770875553879, -6.283184892824324 ], [ 106.911527387816122, -6.282884105544645 ], [ 106.912485636681637, -6.282683580594942 ], [ 106.913746490452013, -6.282633449345446 ], [ 106.913948227055272, -6.282934236769997 ], [ 106.913948227055272, -6.284087253620156 ], [ 106.914755173468322, -6.28468882661464 ], [ 106.91798295912055, -6.285340529907027 ], [ 106.919748154399102, -6.28634314876257 ], [ 106.920655969113781, -6.286844457465588 ], [ 106.922421164392347, -6.286192756057442 ], [ 106.924337662123349, -6.284738957666119 ], [ 106.925699384195411, -6.2841373847296 ], [ 106.926960237965815, -6.284187515834208 ], [ 106.928321960037849, -6.28338541758085 ], [ 106.929431511355787, -6.283235024020696 ], [ 106.931247140785146, -6.281129509615173 ], [ 106.933718414175132, -6.277820826915283 ], [ 106.935130570398016, -6.275113707253375 ], [ 106.93755140963718, -6.271955383205171 ], [ 106.940022683027166, -6.268997570317201 ], [ 106.941434839249993, -6.267944785410653 ], [ 106.94289742962367, -6.268045050731396 ], [ 106.943401771131818, -6.267744254711356 ], [ 106.944259151695704, -6.264836550910455 ], [ 106.946074781125091, -6.262981627952962 ], [ 106.947839976403642, -6.260725631690292 ], [ 106.949958210737918, -6.25826909134354 ], [ 106.951118196206693, -6.25731655218283 ], [ 106.95172340601647, -6.254809861884604 ], [ 106.952631220731192, -6.251701549222038 ], [ 106.953135562239353, -6.249746310823885 ], [ 106.954699020914646, -6.249545773139082 ], [ 106.960751119012542, -6.249495638705872 ], [ 106.963575431458253, -6.249094563067251 ], [ 106.96539106088764, -6.246988910921111 ], [ 106.96700495371374, -6.244482171131198 ], [ 106.96791276842842, -6.243379201821625 ], [ 106.971493593136373, -6.237713913769808 ], [ 106.973863998224729, -6.233753189293911 ], [ 106.975679627654088, -6.230343934148125 ], [ 106.97739438878186, -6.228438752508139 ], [ 106.979109149909576, -6.2275362956338 ], [ 106.979865662171846, -6.226333017388566 ], [ 106.979663925568559, -6.225631103805621 ], [ 106.978503940099785, -6.224728642106366 ], [ 106.977545691234312, -6.223725905066599 ], [ 106.975982232559019, -6.222372207027228 ], [ 106.972754446906791, -6.221720425246013 ], [ 106.964382377871303, -6.220868094004788 ], [ 106.955909440534214, -6.219815212328099 ], [ 106.952933825636066, -6.219614663198215 ], [ 106.952479918278726, -6.218561779011278 ], [ 106.952026010921372, -6.214951874367213 ], [ 106.950563420547738, -6.211843325520561 ], [ 106.949403435078963, -6.209787662167035 ], [ 106.945570439616901, -6.202417291025264 ], [ 106.943553073584283, -6.197603931797074 ], [ 106.943250468679395, -6.193241787066266 ], [ 106.943048732076122, -6.190885211124517 ], [ 106.942695693020411, -6.187224976582108 ], [ 106.942594824718768, -6.18180978857829 ], [ 106.942544390567974, -6.180155136739885 ], [ 106.941233102646734, -6.178751185667656 ], [ 106.938660960955119, -6.175993413790851 ], [ 106.936391424168363, -6.17479001792463 ], [ 106.936088819263475, -6.172383217989156 ], [ 106.934727097191427, -6.170176975109762 ], [ 106.934424492286553, -6.16872285546305 ], [ 106.934374058135745, -6.165162752596263 ], [ 106.932961901912876, -6.162354767281335 ], [ 106.931953218896567, -6.160850483321587 ], [ 106.930288891919631, -6.157340470838218 ], [ 106.928221091736177, -6.154131296267043 ], [ 106.926355028155996, -6.152125552317306 ], [ 106.924892437782319, -6.150320376291459 ], [ 106.924135925520062, -6.147211447659307 ], [ 106.922168993638238, -6.144202789748279 ], [ 106.922068125336608, -6.14319989999811 ], [ 106.921916822884199, -6.140692667357206 ], [ 106.92216899363828, -6.139689770995447 ], [ 106.921715086280926, -6.137182521830212 ], [ 106.92181595458257, -6.135678166668015 ], [ 106.921059442320342, -6.133070607662412 ], [ 106.920252495907263, -6.132268279248864 ], [ 106.919344681192584, -6.130112015656614 ], [ 106.918335998176275, -6.129159245246334 ], [ 106.917831656668085, -6.128808224139979 ], [ 106.918033393271372, -6.127755159435449 ], [ 106.918134261573002, -6.127153407242753 ], [ 106.918941207986009, -6.126000046977155 ], [ 106.920555100812152, -6.125649023793 ], [ 106.922723769297235, -6.124696245415482 ], [ 106.924135925520062, -6.122941122901341 ], [ 106.924741135329882, -6.121988339692552 ], [ 106.925951554949464, -6.121436727584402 ], [ 106.925901120798628, -6.120584235024275 ], [ 106.924741135329882, -6.116522340031927 ], [ 106.924337662123335, -6.114767190671506 ], [ 106.926001989100257, -6.114516454578353 ], [ 106.928725433244324, -6.114115276584814 ], [ 106.932054087198196, -6.112460414181124 ], [ 106.933768848325954, -6.111507612293357 ], [ 106.936794897374924, -6.110705251493046 ], [ 106.940274853781219, -6.110203775381984 ], [ 106.945469571315272, -6.110253923014233 ], [ 106.951370366960745, -6.110203775381984 ], [ 106.956665952796428, -6.109150674019426 ], [ 106.959540699392932, -6.108298161875211 ], [ 106.961053723917431, -6.107295204673517 ], [ 106.964331943720453, -6.106944169209106 ], [ 106.967004953713726, -6.105991357502954 ], [ 106.96897188559555, -6.105339432727365 ], [ 106.97149359313633, -6.104587210846538 ], [ 106.97228488412847, -6.103842081597739 ], [ 106.973437487854113, -6.103029413586467 ], [ 106.973709921461975, -6.102550147258478 ], [ 106.97375183432473, -6.102216744342733 ], [ 106.974045224363977, -6.102258419718544 ], [ 106.974150006520844, -6.102445958869589 ], [ 106.973961398638465, -6.102633497955006 ], [ 106.973626095736492, -6.102800199309169 ] ] ] } }
]
}
