{
"type": "FeatureCollection",
"name": "CASTJ24_CBD CILEDUG - MONAS (VIA JOGLO)",
"crs": { "type": "name", "properties": { "name": "urn:ogc:def:crs:OGC:1.3:CRS84" } },
"features": [
{ "type": "Feature", "properties": { "id": 1 }, "geometry": { "type": "MultiLineString", "coordinates": [ [ [ 106.709058564568011, -6.223669972439349 ], [ 106.708903601932946, -6.224709804360699 ], [ 106.710027081037225, -6.224709804360699 ], [ 106.711305522776527, -6.225094926772209 ], [ 106.712235298586918, -6.225903682917251 ], [ 106.715063366676958, -6.227136070838694 ], [ 106.71684543698025, -6.227713751681246 ], [ 106.717813953449436, -6.227675239644848 ], [ 106.719169876506299, -6.228021847870725 ], [ 106.720138392975485, -6.228638039707284 ], [ 106.720099652316719, -6.22829143188821 ], [ 106.720138392975485, -6.226558389360616 ], [ 106.720796984174513, -6.224363193948934 ], [ 106.721223131420942, -6.2212051774428 ], [ 106.721571797349867, -6.220627489443331 ], [ 106.722772757771651, -6.220588976887459 ], [ 106.724671050051256, -6.220357901492974 ], [ 106.725445122190465, -6.220086934968817 ], [ 106.726171948821474, -6.219674050331371 ], [ 106.726794943076612, -6.219261165369666 ], [ 106.72985799816442, -6.219106333425434 ], [ 106.732298058997074, -6.21900311210395 ], [ 106.734063209386647, -6.219880492690629 ], [ 106.738424169172688, -6.220086934968817 ], [ 106.741019978569156, -6.220396598234096 ], [ 106.743719620341466, -6.219364386640491 ], [ 106.746107764986206, -6.217816065450476 ], [ 106.74844399344299, -6.217454789850175 ], [ 106.750141051236454, -6.217679363053 ], [ 106.752715239549943, -6.218578486515155 ], [ 106.754941564577834, -6.218578486515155 ], [ 106.756054727091779, -6.218578486515155 ], [ 106.758628915405268, -6.217886853219174 ], [ 106.75911592400513, -6.217610199646082 ], [ 106.761481394347257, -6.217471872804961 ], [ 106.763916437346523, -6.217195219013574 ], [ 106.766073189717275, -6.216849401569698 ], [ 106.771360711658517, -6.216641910994235 ], [ 106.775395925771548, -6.216365256766299 ], [ 106.776996096885355, -6.216088602392855 ], [ 106.777622250799453, -6.215604456889232 ], [ 106.777900541427954, -6.214981983444176 ], [ 106.777900541427954, -6.214013689954744 ], [ 106.778317977370676, -6.213460378589364 ], [ 106.779083276598996, -6.213460378589364 ], [ 106.780683447712804, -6.213529542541851 ], [ 106.782909772740695, -6.213322050657118 ], [ 106.783744644626154, -6.212422918211321 ], [ 106.783883789940376, -6.210693813037256 ], [ 106.783327208683417, -6.206889761667672 ], [ 106.783744644626154, -6.206682267166465 ], [ 106.786457978253893, -6.20675143200928 ], [ 106.787501568110713, -6.207166420875494 ], [ 106.788614730624673, -6.208411385512602 ], [ 106.790006183767076, -6.208273056253792 ], [ 106.790980200966786, -6.207443079938023 ], [ 106.792441226766329, -6.207858068259377 ], [ 106.795293705708318, -6.207719738855252 ], [ 106.796267722908041, -6.207373915186012 ], [ 106.796685158850764, -6.20592145329622 ], [ 106.798076611993167, -6.202739856119656 ], [ 106.799328919821392, -6.201633209122074 ], [ 106.800581227649559, -6.200042399994012 ], [ 106.803364133934409, -6.198797415590191 ], [ 106.804686014419715, -6.196999099597527 ], [ 106.805312168333813, -6.195339110164595 ], [ 106.805590458962314, -6.193194949420432 ], [ 106.806564476162023, -6.190289943555073 ], [ 106.807190630076121, -6.187454089086433 ], [ 106.809138664475512, -6.185794069653257 ], [ 106.812408579360223, -6.18351153442142 ], [ 106.814147895788253, -6.181851502610128 ], [ 106.815608921587838, -6.181436493843264 ], [ 106.818322255215563, -6.182474015149928 ], [ 106.821313879471774, -6.183234862814701 ], [ 106.822774905271359, -6.183373198636153 ], [ 106.822914050585581, -6.182889023102764 ], [ 106.823053195899803, -6.182059006871464 ], [ 106.82263575995708, -6.180883148314337 ], [ 106.822653153121394, -6.178323917715626 ], [ 106.82287926425704, -6.176231564585673 ] ] ] } }
]
}
