{
"type": "FeatureCollection",
"name": "CASTJ19_UI-Galunggung Via Pasar Minggu",
"crs": { "type": "name", "properties": { "name": "urn:ogc:def:crs:OGC:1.3:CRS84" } },
"features": [
{ "type": "Feature", "properties": { "id": 1 }, "geometry": { "type": "MultiLineString", "coordinates": [ [ [ 106.832013407390932, -6.353723485447164 ], [ 106.833014787902158, -6.345761586614269 ], [ 106.833571110408371, -6.34023241780083 ], [ 106.835017548924569, -6.333818507705448 ], [ 106.835017548924569, -6.332049139167732 ], [ 106.834016168413356, -6.330500936723357 ], [ 106.833014787902158, -6.327957451204078 ], [ 106.833014787902158, -6.326188062588008 ], [ 106.834683755420826, -6.323644555839858 ], [ 106.836018929435753, -6.321543388653261 ], [ 106.836909045445708, -6.319331624498046 ], [ 106.838021690458177, -6.312475095543477 ], [ 106.838578012964376, -6.308272661958869 ], [ 106.839579393475574, -6.303517235493224 ], [ 106.840024451480573, -6.300310062792406 ], [ 106.840135715981802, -6.296328717383417 ], [ 106.841470889996756, -6.292126153002694 ], [ 106.842806064011668, -6.288918909949135 ], [ 106.844808825034107, -6.281730189868287 ], [ 106.846032734547819, -6.274983762250391 ], [ 106.846589057054018, -6.270006833424893 ], [ 106.845253883039106, -6.267905449212654 ], [ 106.843473651019181, -6.265582856813916 ], [ 106.843251122016667, -6.262154249143105 ], [ 106.843473651019181, -6.256845392851385 ], [ 106.842249741505483, -6.252753112648345 ], [ 106.84269479951044, -6.250319849776683 ], [ 106.842917328512968, -6.245121477548263 ], [ 106.845253883039121, -6.240254869535829 ], [ 106.845476412041592, -6.239038210468913 ], [ 106.844252502527908, -6.236826095838717 ], [ 106.844252502527908, -6.23350790639369 ], [ 106.847034115059017, -6.229526051353946 ], [ 106.847924231068973, -6.226760856469933 ], [ 106.847256644061503, -6.223221385772145 ], [ 106.846255263550304, -6.221009204477371 ], [ 106.843918709024152, -6.216474203719895 ], [ 106.84358491552041, -6.214704436718899 ], [ 106.844586296031636, -6.211054273481256 ], [ 106.845587676542834, -6.20939510000616 ], [ 106.843918709024152, -6.208620817262067 ], [ 106.839134335470618, -6.206408574578616 ], [ 106.83134582038349, -6.204970611852978 ], [ 106.827562827341154, -6.204085709763836 ], [ 106.818439138239086, -6.202094674631563 ], [ 106.817994080234087, -6.202647740700396 ], [ 106.816992699722888, -6.202647740700396 ], [ 106.816102583712947, -6.202537127533046 ], [ 106.816881435221646, -6.204859999173092 ], [ 106.818884196244056, -6.204528160994132 ] ] ] } },
{ "type": "Feature", "properties": { "id": 1 }, "geometry": { "type": "MultiLineString", "coordinates": [ [ [ 106.819106725246527, -6.204638773743667 ], [ 106.821999602278908, -6.204306935425415 ], [ 106.823557305296347, -6.204528160994132 ] ] ] } }
]
}
