{
"type": "FeatureCollection",
"name": "CASTJ25_PURI BETA - MONAS (VIA MERUYA)",
"crs": { "type": "name", "properties": { "name": "urn:ogc:def:crs:OGC:1.3:CRS84" } },
"features": [
{ "type": "Feature", "properties": { "id": 1 }, "geometry": { "type": "MultiLineString", "coordinates": [ [ [ 106.70907390110213, -6.223539017595596 ], [ 106.708722287823107, -6.22493717993427 ], [ 106.706348898189773, -6.225286719937487 ], [ 106.705206155032997, -6.22537410490195 ], [ 106.705469864992253, -6.223364247041633 ], [ 106.7068763181083, -6.218907578278078 ], [ 106.708810191142874, -6.216897695690519 ], [ 106.710831967497185, -6.214013937693793 ], [ 106.713644873729265, -6.209906739932856 ], [ 106.714523906926786, -6.206586003426976 ], [ 106.715227133484817, -6.204401296941898 ], [ 106.715930360042847, -6.203702188953859 ], [ 106.717424716478646, -6.203527411811963 ], [ 106.718567459635423, -6.203527411811963 ], [ 106.71891907291446, -6.203265245990458 ], [ 106.719534396152739, -6.201517470515293 ], [ 106.720325526030521, -6.200556191534456 ], [ 106.722259399065067, -6.198633628316431 ], [ 106.724105368779888, -6.196448888881957 ], [ 106.72480859533789, -6.194089360133757 ], [ 106.724281175419392, -6.192341554261695 ], [ 106.724105368779888, -6.190855914722031 ], [ 106.724105368779888, -6.188583752049859 ], [ 106.724632788698401, -6.186573753849036 ], [ 106.726478758413236, -6.186049405235146 ], [ 106.728236824808278, -6.184651139722102 ], [ 106.729731181244091, -6.18430157276603 ], [ 106.730170697842823, -6.185175489722871 ], [ 106.730786021081116, -6.185525056101143 ], [ 106.731665054278636, -6.1853502729409 ], [ 106.73315941071445, -6.184651139722102 ], [ 106.738961029818128, -6.185088098092191 ], [ 106.739136836457675, -6.186661145234116 ], [ 106.742037646009493, -6.186835927960923 ], [ 106.74326829248605, -6.186748536604744 ], [ 106.743004582526808, -6.188583752049859 ], [ 106.742477162608267, -6.190855914722031 ], [ 106.742477162608267, -6.192778506272103 ], [ 106.74326829248605, -6.193390238479219 ], [ 106.743795712404577, -6.194176750275478 ], [ 106.744323132323075, -6.195662380471227 ], [ 106.744323132323075, -6.197584954516862 ], [ 106.746344908677415, -6.197497564939481 ], [ 106.750036848107058, -6.197410175347622 ], [ 106.752410237740378, -6.197672344079775 ], [ 106.754783627373712, -6.196885837492532 ], [ 106.756717500408271, -6.19679844779936 ], [ 106.759090890041605, -6.197934512681657 ], [ 106.761288473035421, -6.199070575117678 ], [ 106.761991699593452, -6.199245353736834 ], [ 106.763222346070009, -6.198371460061958 ], [ 106.765156219104568, -6.197584954516862 ], [ 106.76761751205764, -6.197235396120486 ], [ 106.768848158534212, -6.196973227171227 ], [ 106.769038107756856, -6.197634605274497 ], [ 106.769244731410296, -6.198250852990592 ], [ 106.770966595188924, -6.19790849323718 ], [ 106.77344607903018, -6.197497661239838 ], [ 106.775099068257703, -6.197223773063891 ], [ 106.775787813769142, -6.19784002125984 ], [ 106.776752057485197, -6.19790849323718 ], [ 106.776958681138638, -6.198867099986853 ], [ 106.781435526963122, -6.198798628133928 ], [ 106.782262021576884, -6.198730156272116 ], [ 106.782193147025723, -6.196333635510267 ], [ 106.782399770679177, -6.193663213841713 ], [ 106.782124272474576, -6.192567652326413 ], [ 106.78267526888375, -6.190308049523013 ], [ 106.783432888946351, -6.188185383539363 ], [ 106.785085878173888, -6.188253856768716 ], [ 106.79025146950984, -6.189897211611116 ], [ 106.795623684499219, -6.189760265569483 ], [ 106.801271397693199, -6.189417900310088 ], [ 106.80988071658642, -6.188870115433597 ], [ 106.811464831262796, -6.189075534828837 ], [ 106.811809204018502, -6.188527749597395 ], [ 106.813070972621119, -6.188414090639544 ], [ 106.813245172691182, -6.188972050359695 ], [ 106.813245172691182, -6.189817044909386 ], [ 106.812961856372766, -6.190267708116594 ], [ 106.812735203318041, -6.190831036584944 ], [ 106.81358515227322, -6.192070357100461 ], [ 106.815625029765656, -6.193647669913788 ], [ 106.818401529685858, -6.194154662317368 ], [ 106.822311294879654, -6.194661654234053 ], [ 106.822934590780108, -6.194436324553418 ], [ 106.82316124383479, -6.193140677023353 ], [ 106.822934590780108, -6.189760711981452 ], [ 106.823217907098496, -6.184634390401601 ], [ 106.822707937725397, -6.180803700068919 ], [ 106.822877927516416, -6.178381337454296 ], [ 106.822934590780108, -6.176353304413253 ] ] ] } }
]
}
