{
"type": "FeatureCollection",
"name": "CASTJ07_PERPANJANGAN KORIDOR 7 HALTE TRIKORA - UI VIA KELAPA DUA DEPOK,",
"crs": { "type": "name", "properties": { "name": "urn:ogc:def:crs:OGC:1.3:CRS84" } },
"features": [
{ "type": "Feature", "properties": { "id": 1 }, "geometry": { "type": "MultiLineString", "coordinates": [ [ [ 106.865510301797897, -6.262189617054657 ], [ 106.864585647829472, -6.262419401179334 ], [ 106.865047974813706, -6.26301683943021 ], [ 106.865695232591577, -6.263200666446784 ], [ 106.865926396083694, -6.263844060495027 ], [ 106.865880163385285, -6.265314672484434 ], [ 106.866065094178964, -6.267750364475664 ], [ 106.867035980845799, -6.269542658866813 ], [ 106.867452075131581, -6.270002220539118 ], [ 106.867220911639478, -6.271702595204997 ], [ 106.867174678941069, -6.273035317417719 ], [ 106.867452075131581, -6.274597814982695 ], [ 106.868191798306327, -6.275976485414025 ], [ 106.869301383068418, -6.277584929639404 ], [ 106.870827062116291, -6.279928653761106 ], [ 106.87165925068787, -6.281169444613379 ], [ 106.872075344973652, -6.28181281648356 ], [ 106.871520552592614, -6.283651017444623 ], [ 106.871104458306803, -6.285856850025949 ], [ 106.8708732948147, -6.287327399883551 ], [ 106.87105822560838, -6.289257490260791 ], [ 106.871705483386293, -6.2910497106235 ], [ 106.872167810370485, -6.292887878934437 ], [ 106.871751716084674, -6.29582893470457 ], [ 106.870549665925736, -6.299045695381698 ], [ 106.869070219576273, -6.300700021682362 ], [ 106.866434955766294, -6.304008658460325 ], [ 106.865094207512072, -6.306582028029099 ], [ 106.864077088146814, -6.308144424749929 ], [ 106.862597641797365, -6.310625868684661 ], [ 106.862505176400532, -6.312463967640828 ], [ 106.86338359767052, -6.315358960268501 ], [ 106.864262018940494, -6.317702513872385 ], [ 106.865094207512072, -6.319908201687327 ], [ 106.865140440210496, -6.32137865500631 ], [ 106.864678113226304, -6.323216715776006 ], [ 106.863799691956302, -6.325973794678718 ], [ 106.863892157353135, -6.32726042646703 ], [ 106.865972628782075, -6.329557975263128 ], [ 106.867267144337845, -6.331120302607348 ], [ 106.867683238623641, -6.333509735285038 ], [ 106.868053100211029, -6.336726261807949 ], [ 106.868885288782593, -6.339207568567871 ], [ 106.869255150369952, -6.340769866699924 ], [ 106.869208917671543, -6.341918612306507 ], [ 106.868561659893658, -6.344216095839909 ], [ 106.866481188464689, -6.348627235508491 ], [ 106.864909276718393, -6.350878740151086 ], [ 106.862181547511568, -6.352486951724197 ], [ 106.860702101162104, -6.353451876255965 ], [ 106.859916145288935, -6.354141106956586 ], [ 106.859684981796846, -6.355243874157152 ], [ 106.859500051003167, -6.356346638993761 ], [ 106.859361352907911, -6.357862936783452 ], [ 106.858390466241076, -6.357495349851033 ], [ 106.855940133224777, -6.356024999493966 ], [ 106.852935007827412, -6.355427668460762 ], [ 106.85076207100164, -6.355427668460762 ], [ 106.848034341794829, -6.355151976980721 ], [ 106.84660112814376, -6.354876285352938 ], [ 106.843272373857459, -6.354922233967828 ], [ 106.840221015761685, -6.354876285352938 ], [ 106.83795561353908, -6.354049209583177 ], [ 106.837308355761166, -6.353865414787123 ], [ 106.836245003697485, -6.354324901654161 ], [ 106.834534393855947, -6.355243874157152 ], [ 106.832546387823839, -6.355519565587939 ], [ 106.831298104966478, -6.355749308334065 ], [ 106.830743312585454, -6.355795256870976 ], [ 106.830419683696491, -6.356208793518477 ], [ 106.830373450998067, -6.356668278292417 ], [ 106.83088201068071, -6.356898020525454 ], [ 106.831344337664902, -6.356714226747235 ], [ 106.831714199252261, -6.3545546449338 ], [ 106.831806664649093, -6.353635671199732 ] ] ] } }
]
}
