{
"type": "FeatureCollection",
"name": "CASTJ18_Pinang Ranti - Tanjung Priok Via Jatiwaringin & Koja",
"crs": { "type": "name", "properties": { "name": "urn:ogc:def:crs:OGC:1.3:CRS84" } },
"features": [
{ "type": "Feature", "properties": { "id": 1 }, "geometry": { "type": "MultiLineString", "coordinates": [ [ [ 106.885851570242934, -6.291740023837766 ], [ 106.886201873245994, -6.291043637279852 ], [ 106.890639044617672, -6.290173152770295 ], [ 106.894317226149511, -6.289824958558284 ], [ 106.896594195669223, -6.289476764113042 ], [ 106.898929549022739, -6.286749232890944 ], [ 106.900213993367174, -6.285472511233395 ], [ 106.906402679754052, -6.284718083326462 ], [ 106.909788942116691, -6.284311852461887 ], [ 106.9108398511258, -6.283151191101158 ], [ 106.912357830805604, -6.282744959013285 ], [ 106.913817426651562, -6.282454793042088 ], [ 106.913116820645499, -6.277638014293109 ], [ 106.911773992467189, -6.269165018296949 ], [ 106.911306921796495, -6.265740960303742 ], [ 106.910956618793477, -6.263709728842334 ], [ 106.909905709784368, -6.255990977226819 ], [ 106.909146719944488, -6.251580210828084 ], [ 106.908621265439933, -6.249142666069124 ], [ 106.906519447421715, -6.246240812264694 ], [ 106.90470954857274, -6.245254178306395 ], [ 106.902607730554578, -6.243977355129856 ], [ 106.901731973046978, -6.242178189915403 ], [ 106.900389144868697, -6.240262942735423 ], [ 106.898345710684367, -6.236838695483493 ], [ 106.896710963336901, -6.234517159200761 ], [ 106.896477428001504, -6.233240309864821 ], [ 106.897353185509104, -6.231847379772001 ], [ 106.898404094518199, -6.228829351886308 ], [ 106.898871165188893, -6.225811306649563 ], [ 106.899571771194971, -6.221806566004925 ], [ 106.899571771194971, -6.220471645674307 ], [ 106.90085621553942, -6.212868339171715 ], [ 106.902140659883869, -6.20747050528327 ], [ 106.904476013237385, -6.202246742404085 ], [ 106.904767932406571, -6.200969814715232 ], [ 106.904884700074248, -6.199576799164561 ], [ 106.905702073748003, -6.193192097496487 ], [ 106.906285912086375, -6.189709500403836 ], [ 106.905877225249512, -6.187213625031186 ], [ 106.905993992917189, -6.186168836491541 ], [ 106.908095810935393, -6.184253385472437 ], [ 106.909847325950537, -6.182976414271413 ], [ 106.910250474700007, -6.182463106512838 ], [ 106.911495201873677, -6.17910580087687 ], [ 106.912698083095705, -6.176132221183828 ], [ 106.913803433407836, -6.173384877276958 ], [ 106.91474623220347, -6.171154669979789 ], [ 106.915396438269411, -6.169732503903392 ], [ 106.91634468641827, -6.167212715221646 ], [ 106.917052393700942, -6.16574685590405 ], [ 106.916904954683716, -6.164163723290519 ], [ 106.916639564452723, -6.16102676138 ], [ 106.916462637632037, -6.159326344370926 ], [ 106.915798911724423, -6.151065866068351 ], [ 106.915605464531808, -6.147710150649448 ], [ 106.915222123086991, -6.145892417753255 ], [ 106.914543903607793, -6.143781494339158 ], [ 106.914396464590567, -6.142256933333539 ], [ 106.914484928000903, -6.138152324314983 ], [ 106.915163147480143, -6.135630905951549 ], [ 106.915959318173137, -6.134077002647076 ], [ 106.917669610772947, -6.132493775754197 ], [ 106.918200391234947, -6.131379650308094 ], [ 106.918253012035905, -6.129367761079915 ], [ 106.917858743332658, -6.128797557421586 ], [ 106.918073798988956, -6.127336407766007 ], [ 106.918790651176707, -6.126195995499267 ], [ 106.91983008684889, -6.125732702319966 ], [ 106.921192106005535, -6.125447598625171 ], [ 106.922876708646697, -6.124307182323563 ], [ 106.924382098240883, -6.122667829623136 ], [ 106.924740524334737, -6.121990704213264 ], [ 106.925995015663275, -6.121384854434777 ], [ 106.925815802616327, -6.120315706090873 ], [ 106.925278163475525, -6.118640702717811 ], [ 106.924310413022127, -6.114898654944847 ], [ 106.923701088662582, -6.112867246616586 ], [ 106.923163449521795, -6.110693274773611 ], [ 106.922697495599749, -6.108982602196758 ], [ 106.92215985645899, -6.108269820342939 ], [ 106.920296040770893, -6.108234181225337 ], [ 106.917213576363721, -6.108234181225337 ], [ 106.91362931542514, -6.108626211388471 ], [ 106.909614943173906, -6.10891132405408 ], [ 106.903844283062782, -6.108519294099723 ], [ 106.899794068202169, -6.108020346469911 ], [ 106.896639918576213, -6.107592676702861 ], [ 106.894632732450589, -6.107628315863161 ], [ 106.89362913938777, -6.107913429060173 ], [ 106.893055657637632, -6.109232075621386 ], [ 106.893127342856374, -6.110158690180658 ], [ 106.892338805449882, -6.110158690180658 ], [ 106.891908694137271, -6.110158690180658 ], [ 106.888503646245596, -6.110087412194589 ], [ 106.885241968791505, -6.109909217187886 ], [ 106.883270625275259, -6.109873578179426 ], [ 106.882768828743835, -6.110016134199025 ], [ 106.882446245259374, -6.110408163057153 ], [ 106.882016133946735, -6.110336885104305 ], [ 106.881693550462288, -6.110158690180659 ], [ 106.881227596540242, -6.110265607141966 ], [ 106.880582429571291, -6.109837939168593 ], [ 106.880905013055795, -6.109552826996508 ], [ 106.881944448727978, -6.109481548929757 ], [ 106.882302874821832, -6.109731022121858 ] ] ] } }
]
}
