{
"type": "FeatureCollection",
"name": "CASTJ15_Petojo-Pulogebang Via BKT",
"crs": { "type": "name", "properties": { "name": "urn:ogc:def:crs:OGC:1.3:CRS84" } },
"features": [
{ "type": "Feature", "properties": { "id": 1 }, "geometry": { "type": "MultiLineString", "coordinates": [ [ [ 106.816959358382547, -6.170068878841215 ], [ 106.813459229367481, -6.170602081952028 ], [ 106.811709164859934, -6.170938841535077 ], [ 106.811257535309579, -6.171051094681871 ], [ 106.811116401075111, -6.171219474357475 ], [ 106.811342215850289, -6.172510383426137 ], [ 106.811709164859934, -6.174166110018261 ], [ 106.812160794410275, -6.175765705369451 ], [ 106.812499516573027, -6.176972414454282 ], [ 106.813374548826786, -6.180480274079218 ], [ 106.813600363601964, -6.182079850348501 ], [ 106.81453184954951, -6.184633549804913 ], [ 106.815576242884688, -6.185756051158515 ], [ 106.815689150272249, -6.186373425887065 ], [ 106.815576242884688, -6.188113296242333 ], [ 106.815293974415695, -6.18946028871227 ], [ 106.814644756937085, -6.192940003362522 ], [ 106.814475395855709, -6.195241092390661 ], [ 106.814362488468149, -6.197570233264137 ], [ 106.814390715315042, -6.198215656024364 ], [ 106.814927025406064, -6.199422313849295 ], [ 106.815519789190873, -6.201106017828986 ], [ 106.816253687210192, -6.203659625271218 ], [ 106.816620636219795, -6.205315254255342 ], [ 106.817185173157739, -6.207447921212932 ], [ 106.817608575861172, -6.208570374038606 ], [ 106.817806163789442, -6.209973436706703 ], [ 106.817777936942534, -6.211797412585979 ], [ 106.818088432258392, -6.213396893925256 ], [ 106.81859651550252, -6.215445345382799 ], [ 106.819273959828024, -6.217521849678564 ], [ 106.819753816225258, -6.219289677955756 ], [ 106.820374806856961, -6.220636590748793 ], [ 106.821165158570082, -6.222039621238225 ], [ 106.822153098211444, -6.222797256145112 ], [ 106.825709680920326, -6.224088039026048 ], [ 106.830395337505038, -6.225462999910833 ], [ 106.831863133543621, -6.22585584521685 ], [ 106.833641424898062, -6.225883905584607 ], [ 106.835758438415255, -6.225547181072571 ], [ 106.840444094999967, -6.225042093899765 ], [ 106.84332323338333, -6.224761489705009 ], [ 106.844452307259161, -6.224508945801572 ], [ 106.845666061675701, -6.22386355527455 ], [ 106.84637173284807, -6.22358295045029 ], [ 106.848234704743234, -6.22358295045029 ], [ 106.850097676638327, -6.223751313362829 ], [ 106.85108561627969, -6.223975797162287 ], [ 106.853682486194103, -6.224733429277286 ], [ 106.85678743935263, -6.225434939520587 ], [ 106.859271401879468, -6.225491060299576 ], [ 106.861868271793895, -6.225210456344665 ], [ 106.864069965851797, -6.225042093899761 ], [ 106.866582155225544, -6.224649247985134 ], [ 106.867993497570339, -6.224593127116206 ], [ 106.870082284240624, -6.224649247985134 ], [ 106.872086390370228, -6.224593127116206 ], [ 106.873384825327435, -6.224817610555951 ], [ 106.874118723346726, -6.224817610555951 ], [ 106.875953468394968, -6.224677308417353 ], [ 106.877138995964557, -6.224621187551421 ], [ 106.878296296687296, -6.225182395940926 ], [ 106.8811189813769, -6.226837957196301 ], [ 106.882304508946504, -6.227539464628507 ] ] ] } },
{ "type": "Feature", "properties": { "id": 1 }, "geometry": { "type": "MultiLineString", "coordinates": [ [ [ 106.882355958479394, -6.227616676921456 ], [ 106.883776493308176, -6.2279697147923 ], [ 106.887429297153645, -6.22902882698045 ], [ 106.88966156617029, -6.229331430070313 ], [ 106.893263636629001, -6.22953316536664 ], [ 106.898438442076767, -6.229785334378017 ], [ 106.902243446082437, -6.22953316536664 ], [ 106.906758717502527, -6.22963403298573 ], [ 106.910462254734711, -6.229734900585435 ], [ 106.912542323591154, -6.22963403298573 ], [ 106.916854661464242, -6.228574922018592 ], [ 106.91949279757489, -6.227868846853426 ], [ 106.922739734326399, -6.227667110917538 ], [ 106.926088137851409, -6.227868846853426 ], [ 106.929538008149876, -6.227969714792298 ], [ 106.934915747144586, -6.227566242920529 ], [ 106.938720751150285, -6.227061902644826 ], [ 106.941206687100689, -6.226053220640273 ], [ 106.943033089023388, -6.224540194001152 ], [ 106.944605824012413, -6.223228900722211 ], [ 106.9468380930291, -6.221362823875521 ], [ 106.94759909383022, -6.220505434994737 ], [ 106.948410828018112, -6.219194131648639 ], [ 106.949070362045759, -6.217681085262398 ], [ 106.950389430101083, -6.216218469617824 ], [ 106.951302631062418, -6.215108896415985 ], [ 106.951657764769621, -6.214453238424043 ], [ 106.951404097835933, -6.213444532225767 ], [ 106.95094749735523, -6.212435824094078 ], [ 106.950643097034771, -6.211628856196878 ], [ 106.950237229940825, -6.211427114029287 ], [ 106.950034296393881, -6.210973193869537 ], [ 106.950693830421528, -6.21036796638109 ], [ 106.951809964929836, -6.209813173905531 ], [ 106.952215832023782, -6.209914045308204 ], [ 106.952520232344256, -6.210519273318424 ], [ 106.952469498957512, -6.211376678475308 ] ] ] } }
]
}
