{
"type": "FeatureCollection",
"name": "CASTJ23_PONDOK LABU - KALIDERES (VIA PURI INDAH)",
"crs": { "type": "name", "properties": { "name": "urn:ogc:def:crs:OGC:1.3:CRS84" } },
"features": [
{ "type": "Feature", "properties": { "id": 1 }, "geometry": { "type": "MultiLineString", "coordinates": [ [ [ 106.793870850070306, -6.309203341031529 ], [ 106.795372661746228, -6.309134233819636 ], [ 106.795720303337859, -6.309092769488075 ], [ 106.796012322274848, -6.309410662611917 ], [ 106.796401680857471, -6.309700912685114 ], [ 106.796540737494112, -6.310143198198301 ], [ 106.796665888467132, -6.310405805043131 ], [ 106.796624171476111, -6.310654590352295 ], [ 106.796693699794446, -6.311000125305728 ], [ 106.796902284749422, -6.311387124179967 ], [ 106.797069152713433, -6.311539159372891 ], [ 106.797180398022732, -6.311857050995724 ], [ 106.796957907404092, -6.312244049229771 ], [ 106.796777133776445, -6.312492833656115 ], [ 106.796401680857471, -6.312603404473911 ], [ 106.795859359974514, -6.312534297715555 ], [ 106.795456095728213, -6.312423726883006 ], [ 106.795122359800231, -6.312299334668174 ], [ 106.794913774845256, -6.312092014243733 ], [ 106.794427076616941, -6.312050550148888 ], [ 106.793759604760979, -6.311898515106058 ], [ 106.793523208478689, -6.311829408253656 ], [ 106.793676170778994, -6.31109687505139 ], [ 106.793703982106308, -6.309770019821433 ], [ 106.793731793433665, -6.308885447780509 ], [ 106.793634453788002, -6.308083803064251 ], [ 106.793620548124352, -6.306480509912275 ], [ 106.794023812370639, -6.305720326081512 ], [ 106.794371453962285, -6.304904854914922 ], [ 106.794621755908281, -6.303163335926823 ], [ 106.794705189890252, -6.301684422353912 ], [ 106.794802529535929, -6.299777032269197 ], [ 106.794774718208572, -6.299072125463757 ], [ 106.794705189890252, -6.298671295676853 ], [ 106.794746906881258, -6.298090783022952 ], [ 106.79491377484527, -6.29739969568383 ], [ 106.795025020154569, -6.296653320324359 ], [ 106.795136265463896, -6.296211023308786 ], [ 106.795177982454902, -6.29405481996364 ], [ 106.795177982454902, -6.292949071186557 ], [ 106.794969397499898, -6.292617346094522 ], [ 106.794593944580924, -6.292479127243668 ], [ 106.793481491487668, -6.292520592902785 ], [ 106.790728170081877, -6.292548236673692 ], [ 106.789142924423999, -6.292575880443128 ], [ 106.787265659829117, -6.292575880443128 ], [ 106.786167112399525, -6.292410017804454 ], [ 106.784748734705644, -6.292105936162714 ], [ 106.782259620909457, -6.29133190936262 ], [ 106.780646563924265, -6.290820498165797 ], [ 106.779561922158322, -6.290239976737973 ], [ 106.778532903047079, -6.289258617611797 ], [ 106.777934959509437, -6.288996000066635 ], [ 106.777642940572463, -6.288968356106794 ], [ 106.776780789425175, -6.289230973665921 ], [ 106.775265072085631, -6.289479769125879 ], [ 106.774208241647017, -6.289452125191763 ], [ 106.772928920589763, -6.289369193380598 ], [ 106.771983335460519, -6.289230973665921 ], [ 106.771301957940892, -6.289134219843782 ], [ 106.770801354048942, -6.289065109959801 ], [ 106.771037750331232, -6.288304900629696 ], [ 106.771288052277228, -6.286397461417708 ], [ 106.771621788205209, -6.284545303604694 ], [ 106.771816467496535, -6.283439534602675 ], [ 106.772539562007154, -6.278629412106513 ], [ 106.772845486607778, -6.276929271974683 ], [ 106.773487193788384, -6.274976787781594 ], [ 106.7744576972798, -6.273812506656883 ], [ 106.773353331237843, -6.273113936733541 ], [ 106.771412324254982, -6.27318046724277 ], [ 106.767864966665698, -6.272648222931157 ], [ 106.766760600623712, -6.27271475349983 ], [ 106.766626738073185, -6.272980875689605 ], [ 106.764451471626913, -6.272215774027806 ], [ 106.764919990553807, -6.271151282891223 ], [ 106.765756631494654, -6.269421480159131 ], [ 106.765923959682823, -6.268090858768675 ], [ 106.766325547334475, -6.262934668827797 ], [ 106.76739644773879, -6.261071774775668 ], [ 106.767931897940969, -6.25974113209834 ], [ 106.767931897940969, -6.258410486031257 ], [ 106.766191684783934, -6.25794475910708 ], [ 106.762644327194621, -6.256680641077537 ], [ 106.763313639947299, -6.255582851886908 ], [ 106.763648296323666, -6.254019329968488 ], [ 106.764183746525845, -6.253886264057382 ], [ 106.764451471626913, -6.254351994598077 ], [ 106.764719196727981, -6.255150388845413 ], [ 106.764986921829049, -6.254917523982564 ], [ 106.764853059278551, -6.254085862911338 ], [ 106.76441800598927, -6.252156404131462 ], [ 106.76455186853984, -6.251158405417488 ], [ 106.76441800598927, -6.250426538483688 ], [ 106.763815624511835, -6.250027337906413 ], [ 106.763614830686052, -6.249428536469356 ], [ 106.763213243034414, -6.248463799379312 ], [ 106.762711258469878, -6.245902247441334 ], [ 106.763012449208588, -6.244704634442902 ], [ 106.763313639947341, -6.244039292704577 ], [ 106.76297898357096, -6.243174347180975 ], [ 106.76311284612153, -6.242109796883319 ], [ 106.762845121020419, -6.240113759244384 ], [ 106.763380571222598, -6.239381876871573 ], [ 106.763614830686066, -6.238217516444706 ], [ 106.76311284612153, -6.237918109059716 ], [ 106.761406098602137, -6.237518898947036 ], [ 106.760803717124716, -6.237552166468037 ], [ 106.760803717124716, -6.235289970231172 ], [ 106.760703320211789, -6.231663782376845 ], [ 106.760636388936547, -6.228536591074905 ], [ 106.760535992023648, -6.225974941766963 ], [ 106.760870648399958, -6.224544404897973 ], [ 106.76060292329889, -6.222348689567463 ], [ 106.760268266922552, -6.220552188382099 ], [ 106.760435595110707, -6.219088368061807 ], [ 106.760335198197836, -6.217491468519015 ], [ 106.759423150979174, -6.212828637167409 ], [ 106.758696324348165, -6.206428800595029 ], [ 106.757865665341313, -6.203951423627365 ], [ 106.756515844455123, -6.202506281685221 ], [ 106.755685185448272, -6.200441786324911 ], [ 106.756204347327568, -6.197861155759835 ], [ 106.755685185448272, -6.193422441664007 ], [ 106.755892850199999, -6.189706280232813 ], [ 106.755166023569004, -6.185577181318193 ], [ 106.754023867434569, -6.184235217225909 ], [ 106.750987068274441, -6.185987561017456 ], [ 106.746569604106597, -6.186652976175371 ], [ 106.739943407854838, -6.18671951764509 ], [ 106.738671713624697, -6.18671951764509 ], [ 106.738805576175253, -6.18558831152065 ], [ 106.738671713624697, -6.184789811622496 ], [ 106.73639605026554, -6.18465672818889 ], [ 106.73291562395147, -6.184989436710095 ], [ 106.731710860996628, -6.185521769908534 ], [ 106.730037579114878, -6.185521769908534 ], [ 106.729769854013767, -6.184523644721785 ], [ 106.728364297233099, -6.178801023957955 ], [ 106.727828847030963, -6.172279822541924 ], [ 106.727427259379311, -6.16848684193512 ], [ 106.727025671727688, -6.165226187790901 ], [ 106.727159534278243, -6.156109558645412 ], [ 106.727159534278243, -6.154645559816986 ], [ 106.726757946626634, -6.154113195606481 ], [ 106.724080695615825, -6.153514285232148 ], [ 106.720399475475944, -6.152848828469049 ], [ 106.71738756808881, -6.153913558890038 ], [ 106.714442591976891, -6.155311014330023 ], [ 106.712033066067193, -6.15571028663776 ], [ 106.709489677606911, -6.15571028663776 ], [ 106.707381399086529, -6.155883503147321 ], [ 106.706412383285112, -6.155772338333216 ], [ 106.706151494415494, -6.154883018982973 ], [ 106.70585333570736, -6.154401303713388 ] ] ] } }
]
}
