{
"type": "FeatureCollection",
"name": "CASTJ26_KOJA - CENGKARENG BUSINESS CITY (VIA PLUMPANG, KAPUK)",
"crs": { "type": "name", "properties": { "name": "urn:ogc:def:crs:OGC:1.3:CRS84" } },
"features": [
{ "type": "Feature", "properties": { "id": 1 }, "geometry": { "type": "MultiLineString", "coordinates": [ [ [ 106.917055847807006, -6.121849872564255 ], [ 106.916796903622242, -6.122579363361845 ], [ 106.916796903622242, -6.124038341968039 ], [ 106.916840060986388, -6.125282761746981 ], [ 106.91696953307877, -6.126613000372176 ], [ 106.917185319899389, -6.127814503377838 ], [ 106.917228477263492, -6.128543986025868 ], [ 106.917832680361258, -6.128586896738815 ], [ 106.917660050904772, -6.129144735693098 ], [ 106.917142162535242, -6.129616752814269 ], [ 106.916365329981005, -6.130174590691799 ], [ 106.915372710606078, -6.130689517445628 ], [ 106.91429377650293, -6.131247354201346 ], [ 106.913301157128046, -6.131418996162656 ], [ 106.912653796666177, -6.131376085677507 ], [ 106.911574862563029, -6.130732427986008 ], [ 106.910754872644631, -6.130045858925676 ], [ 106.909848567997955, -6.129616752814269 ], [ 106.908855948623085, -6.129230557018916 ], [ 106.90756122769929, -6.129273467676649 ], [ 106.90648229359617, -6.129402199629139 ], [ 106.905575988949508, -6.129702574064162 ], [ 106.905058100580021, -6.129831305913116 ], [ 106.903504435471476, -6.129917127128494 ], [ 106.901173937808665, -6.130045858925679 ], [ 106.899361328515369, -6.130131680106543 ], [ 106.897419247129704, -6.130517875249578 ], [ 106.895908739385305, -6.130946980636144 ], [ 106.89435507427676, -6.13077533852294 ], [ 106.893837185907273, -6.130732427986008 ], [ 106.893621399086641, -6.131376085677507 ], [ 106.893146668081258, -6.132792129864511 ], [ 106.893060353353007, -6.134122349766302 ], [ 106.892671937075875, -6.135967488005947 ], [ 106.892240363434624, -6.137855529824723 ], [ 106.891593002972712, -6.140387211762612 ], [ 106.891292937693237, -6.142617526739286 ], [ 106.889007944156475, -6.142204458481008 ], [ 106.886515223934552, -6.141171786433292 ], [ 106.880075696694533, -6.13910643633032 ], [ 106.87498639290807, -6.137867222424603 ], [ 106.872805262713882, -6.13745415048217 ], [ 106.869689362436461, -6.137970490360173 ], [ 106.86543096539063, -6.138590097553248 ], [ 106.859718481548711, -6.139726042202156 ], [ 106.855979401215777, -6.140345647353212 ], [ 106.852795974625252, -6.141152272580911 ], [ 106.847771595241127, -6.14204433367316 ], [ 106.845797731911659, -6.14204433367316 ], [ 106.845079963428233, -6.143114805010974 ], [ 106.843554705400905, -6.145612563094052 ], [ 106.842567773736178, -6.146504616711179 ], [ 106.840683631467101, -6.147218258528012 ], [ 106.839096590958277, -6.147610922427947 ], [ 106.838375577640022, -6.147790139144298 ], [ 106.83823137497636, -6.148291945628843 ], [ 106.83740220966034, -6.148076885764864 ], [ 106.835275220371486, -6.146571464282493 ], [ 106.834265801725934, -6.145818751943868 ], [ 106.834265801725934, -6.145496160615636 ], [ 106.833508737741724, -6.145460317122652 ], [ 106.831417799118782, -6.144062419013123 ], [ 106.82947106315946, -6.142807891942771 ], [ 106.827740631195638, -6.141589205672168 ], [ 106.827091719209193, -6.141159080440099 ], [ 106.825433388577224, -6.14087233009237 ], [ 106.82153991665858, -6.14011960969497 ], [ 106.819304775371975, -6.139653639392028 ], [ 106.817862748735479, -6.139366888233755 ], [ 106.817430140744491, -6.138470789869234 ], [ 106.817213836749033, -6.137861442120391 ], [ 106.817081638368961, -6.137753910092369 ], [ 106.815865620514288, -6.138019310649772 ], [ 106.814056423218375, -6.138461644618311 ], [ 106.81263279255927, -6.138933467113279 ], [ 106.811920977229732, -6.139110400441154 ], [ 106.811060867039842, -6.139051422671725 ], [ 106.810319392738236, -6.139051422671725 ], [ 106.809637236380752, -6.139139889323419 ], [ 106.808421218526078, -6.139641200072159 ], [ 106.807412813475906, -6.139995066198966 ], [ 106.806760316090475, -6.140496376142811 ], [ 106.806612021230166, -6.141292573319005 ], [ 106.806612021230166, -6.141852859507145 ], [ 106.805929864872681, -6.141941325693482 ], [ 106.803853736828145, -6.141970814418996 ], [ 106.801599654951247, -6.141941325693482 ], [ 106.799998070459736, -6.142088769304717 ], [ 106.798515121856525, -6.1422657015843 ], [ 106.797210127085691, -6.142501611198948 ], [ 106.793977299130603, -6.142855475424913 ], [ 106.791456286505138, -6.143120873440032 ], [ 106.788342094438349, -6.143386271322832 ], [ 106.786147330505557, -6.143563203171189 ], [ 106.784668542020171, -6.143700996471458 ], [ 106.783679909617987, -6.143757165285366 ], [ 106.783453936497523, -6.143504405576098 ], [ 106.783538676417706, -6.142661872345083 ], [ 106.783143223456847, -6.141791253272247 ], [ 106.78311497681679, -6.141229562792345 ], [ 106.782719523855903, -6.140527448859302 ], [ 106.782295824255002, -6.13946023390832 ], [ 106.782295824255002, -6.138701948301643 ], [ 106.782182837694762, -6.138168339264732 ], [ 106.780911738891987, -6.138196423964208 ], [ 106.779527653528945, -6.138364932129985 ], [ 106.777974088325593, -6.138589609601444 ], [ 106.777183182403846, -6.13873003297299 ], [ 106.776307536561944, -6.13881428697815 ], [ 106.775629617200465, -6.138758117642857 ], [ 106.77548838400017, -6.139095133565772 ], [ 106.775431890720029, -6.140302772205228 ], [ 106.775290657519747, -6.141313816402101 ], [ 106.775036437759169, -6.141482323581621 ], [ 106.77464098479831, -6.141285731866997 ], [ 106.774104298637127, -6.141341900935725 ], [ 106.773200406155169, -6.141482323581621 ], [ 106.77159034767169, -6.141285731866997 ], [ 106.770460482069211, -6.141061055532837 ], [ 106.769500096307127, -6.140948717330211 ], [ 106.76856795718507, -6.140695956287654 ], [ 106.767466338222675, -6.140443195125131 ], [ 106.766279979340112, -6.139993841651112 ], [ 106.76368128845445, -6.139179387513189 ], [ 106.761534543809773, -6.1383930168191 ], [ 106.759387799165111, -6.137606644964283 ], [ 106.757128067960181, -6.136876441488471 ], [ 106.755828722517336, -6.136314745826195 ], [ 106.754246910673899, -6.135724964743655 ], [ 106.753173538351575, -6.135303692142267 ], [ 106.752354385789758, -6.134826249458195 ], [ 106.751648219788237, -6.134629655287515 ], [ 106.750377120985476, -6.134236466728656 ], [ 106.749444981863434, -6.133506258635718 ], [ 106.749077775542617, -6.133028814341931 ], [ 106.748343362901053, -6.132495199625323 ], [ 106.745580363287914, -6.130587056838068 ], [ 106.744308495794513, -6.129717647907758 ], [ 106.742559677991053, -6.128927274923478 ], [ 106.739817213708406, -6.127465081816279 ], [ 106.737949158327453, -6.126398073507064 ], [ 106.735763136073146, -6.124896354495767 ], [ 106.733457876241303, -6.122959921115163 ], [ 106.732027025311226, -6.121734826983076 ], [ 106.730189085351697, -6.120141730816625 ], [ 106.728651853239526, -6.118664207098583 ], [ 106.727627031831403, -6.117798070606216 ], [ 106.726602210423266, -6.116549812604474 ], [ 106.725628630085552, -6.115097753711226 ], [ 106.724398844395793, -6.11372211533345 ], [ 106.723627344708632, -6.112706613263271 ], [ 106.721976183877857, -6.110482271144074 ], [ 106.719472811005403, -6.107516467271961 ], [ 106.718778847383703, -6.106378528583364 ], [ 106.717766845584208, -6.105425228967068 ], [ 106.716967896795111, -6.104260082687601 ], [ 106.715742841985204, -6.102300512776095 ], [ 106.715103682953924, -6.100817590242376 ], [ 106.714624313680488, -6.099652433945094 ], [ 106.714144944407025, -6.098963931306495 ], [ 106.713345995617928, -6.099811319043832 ], [ 106.712440520323668, -6.101029436569806 ], [ 106.711907887797594, -6.102300512776095 ], [ 106.710842622745503, -6.103730469904693 ], [ 106.709830620945979, -6.104154160172903 ], [ 106.707753354094351, -6.104207121432869 ], [ 106.706315246274031, -6.104736733744592 ], [ 106.704983664958903, -6.105584112354276 ], [ 106.703119451117686, -6.106060762233125 ], [ 106.70189439630775, -6.106537411687782 ], [ 106.700509551740041, -6.107384787448571 ], [ 106.699337760182701, -6.108655848575425 ], [ 106.698432284888412, -6.11008578873596 ], [ 106.697739862604536, -6.110933158880322 ], [ 106.696674597552416, -6.110562434607244 ], [ 106.696301754784173, -6.110032828057391 ], [ 106.694703857206022, -6.110032828057391 ] ] ] } }
]
}
