{
"type": "FeatureCollection",
"name": "KORIDOR 20 BLOK M PERKEMAHAN CIBUBUR & KORIDOR 21 JAGAKARSA GROGOL VIA SENAYAN CITY",
"crs": { "type": "name", "properties": { "name": "urn:ogc:def:crs:OGC:1.3:CRS84" } },
"features": [
{ "type": "Feature", "properties": { "id": 1 }, "geometry": { "type": "MultiLineString", "coordinates": [ [ [ 106.818960651824568, -6.305764357826463 ], [ 106.818044430069591, -6.30541020494337 ], [ 106.816619196228558, -6.305106645136766 ], [ 106.816313788976885, -6.305157238450207 ], [ 106.816568295019948, -6.306624442392581 ], [ 106.816873702271579, -6.306928001310543 ], [ 106.816822801062969, -6.30778808394611 ], [ 106.81595748051663, -6.308142235204776 ], [ 106.81590657930802, -6.308395200241384 ], [ 106.81590657930802, -6.308901129944187 ], [ 106.81590657930802, -6.309052908758717 ], [ 106.815753875682205, -6.309407059153083 ], [ 106.815702974473567, -6.309811802164554 ], [ 106.815804776890801, -6.31011535921569 ], [ 106.81585567809941, -6.31021654485988 ], [ 106.816059282933836, -6.310520101673889 ], [ 106.816110184142474, -6.310621287239035 ], [ 106.816211986559679, -6.311127214768342 ], [ 106.816211986559679, -6.311228400214916 ], [ 106.816211986559679, -6.31148136374488 ], [ 106.816211986559679, -6.312037883075978 ], [ 106.816211986559679, -6.312796772109325 ], [ 106.816313788976885, -6.313454475038767 ], [ 106.816313788976885, -6.314112177132905 ], [ 106.816313788976885, -6.314365139254368 ], [ 106.81651739381131, -6.314820470761569 ], [ 106.81651739381131, -6.314972247841651 ], [ 106.816466492602729, -6.315275801868336 ], [ 106.816466492602729, -6.315680540293712 ], [ 106.816313788976885, -6.315882909387739 ], [ 106.816313788976885, -6.315984093905085 ], [ 106.816364690185495, -6.31613587064402 ], [ 106.81651739381131, -6.316186462880441 ], [ 106.81651739381131, -6.316287647338452 ], [ 106.816364690185495, -6.316844161503947 ], [ 106.816211986559679, -6.316945345833388 ], [ 106.816008381725226, -6.317501859291711 ], [ 106.816008381725226, -6.317754819756758 ], [ 106.816008381725226, -6.318210148282249 ], [ 106.815804776890801, -6.318564292413973 ], [ 106.815397567221936, -6.318969028267722 ], [ 106.814786752718604, -6.319474947639686 ], [ 106.814328641841129, -6.3198290909057 ], [ 106.814175938215286, -6.32018323392929 ], [ 106.814125037006676, -6.32068915211385 ], [ 106.81407413579808, -6.321296253282156 ], [ 106.814277740632534, -6.322156312050732 ], [ 106.814684950301398, -6.322864594668506 ], [ 106.815092159970277, -6.323218735613586 ], [ 106.815702974473567, -6.32433174843325 ], [ 106.816110184142474, -6.325647124130677 ], [ 106.816262887768289, -6.326962496480547 ], [ 106.815244863596078, -6.327063678830322 ], [ 106.812547099539799, -6.327215452317836 ], [ 106.811223668115971, -6.327013087657909 ], [ 106.810103841526555, -6.327367225760772 ], [ 106.809493027023279, -6.328379047574367 ], [ 106.808373200433877, -6.331363910377732 ], [ 106.806846164175596, -6.33404521310088 ], [ 106.806184448463668, -6.336878272542905 ], [ 106.805319127917301, -6.338699516826939 ], [ 106.804657412205415, -6.340621934372285 ], [ 106.804199301327898, -6.343809084510205 ], [ 106.803588486824609, -6.34593384031941 ], [ 106.802366857817987, -6.347603285165066 ], [ 106.801450636063009, -6.3513974578698 ], [ 106.800992525185549, -6.35569748645915 ], [ 106.800534414308061, -6.358479838746514 ], [ 106.800941623976925, -6.360351594541617 ], [ 106.801806944523278, -6.362577457425706 ], [ 106.803079474738524, -6.363690385252156 ], [ 106.806082646046448, -6.36348803491757 ], [ 106.807202472635865, -6.36348803491757 ], [ 106.807609682304729, -6.36050335822631 ], [ 106.807100670218645, -6.360250418726933 ] ] ] } },
{ "type": "Feature", "properties": { "id": 1 }, "geometry": { "type": "MultiLineString", "coordinates": [ [ [ 106.897180963725177, -6.357527923307059 ], [ 106.897721180711187, -6.357366854841721 ], [ 106.898207375998567, -6.356883649143027 ], [ 106.899395853367764, -6.357205786325936 ], [ 106.900098135449539, -6.357098407287387 ], [ 106.900584330736947, -6.356883649143027 ], [ 106.903825632652911, -6.357044717759704 ], [ 106.905068131720682, -6.357205786325936 ], [ 106.905338240213666, -6.356991028226416 ], [ 106.905932478898265, -6.355970926029066 ], [ 106.906364652487056, -6.355917236383687 ], [ 106.907715194952047, -6.356829959592926 ], [ 106.908849650622628, -6.357044717759704 ], [ 106.909119759115612, -6.357205786325936 ], [ 106.909443889307227, -6.356991028226416 ], [ 106.909768019498827, -6.356829959592926 ], [ 106.910092149690428, -6.356937338687525 ], [ 106.910308236484809, -6.356937338687525 ], [ 106.910578344977793, -6.356561511758342 ], [ 106.911388670456773, -6.354306544416684 ], [ 106.911280627059583, -6.353662266217952 ], [ 106.911172583662392, -6.352910607299854 ], [ 106.912415082730192, -6.350440863125394 ], [ 106.914305842181136, -6.347434202052333 ], [ 106.914035733688138, -6.34711205875338 ], [ 106.912577147825957, -6.346736224649966 ], [ 106.912307039332987, -6.345930864933601 ], [ 106.911928887442798, -6.34523288549439 ], [ 106.911010518566599, -6.344964431612155 ], [ 106.910416279882, -6.344642286768852 ], [ 106.909876062896018, -6.344105378249146 ], [ 106.908957694019819, -6.343514778231387 ], [ 106.909443889307227, -6.343085250520652 ], [ 106.908147368540853, -6.342763104502699 ], [ 106.904581936433274, -6.34115237139311 ], [ 106.90215095999632, -6.340132237820908 ], [ 106.90042226564114, -6.339434250529748 ], [ 106.899882048655172, -6.338628879404573 ], [ 106.898369441094374, -6.337984581599001 ], [ 106.897667159012585, -6.336427525246673 ], [ 106.897505093916791, -6.33481677235139 ], [ 106.897126942026603, -6.334065085946443 ], [ 106.896154551451815, -6.333742934294924 ], [ 106.894641943891045, -6.333474474431744 ], [ 106.893075314631659, -6.332991246326194 ], [ 106.890266186304501, -6.33256170985265 ], [ 106.888753578743703, -6.331863712320963 ], [ 106.88686281929273, -6.331756328001569 ], [ 106.886700754196966, -6.330628791299688 ], [ 106.886538689101158, -6.32944755973358 ], [ 106.885674341923576, -6.329071712759681 ], [ 106.883351408883811, -6.328749557992974 ], [ 106.882649126802022, -6.328373710511237 ], [ 106.880257646504134, -6.328246628329276 ], [ 106.878123311902357, -6.328921596377598 ], [ 106.876668083764784, -6.32930729200926 ], [ 106.87657106855562, -6.329885834916777 ], [ 106.874630764372171, -6.330175106127525 ], [ 106.86978000391359, -6.330175106127525 ], [ 106.867451638893456, -6.330464377176263 ], [ 106.866675517220102, -6.330367953511352 ], [ 106.864153121781598, -6.327764507754868 ], [ 106.864056106572434, -6.324968199552921 ], [ 106.865511334709993, -6.321111197901955 ], [ 106.86434715219994, -6.317929149886808 ], [ 106.862794908853203, -6.312722120024892 ], [ 106.862600878434876, -6.310215012899389 ], [ 106.864832228245817, -6.30674361377612 ], [ 106.863765060944928, -6.305972188591545 ], [ 106.862309832807355, -6.305586475568835 ], [ 106.857168026721226, -6.305779332116058 ], [ 106.853287418354341, -6.304718620218702 ], [ 106.850862038125072, -6.304236477729941 ], [ 106.844282213229818, -6.303958763918855 ], [ 106.837135142505119, -6.302241996109637 ], [ 106.830107189625863, -6.297683654018032 ], [ 106.824329974123415, -6.294723670186773 ], [ 106.820815997683781, -6.293539671930779 ], [ 106.82105423337461, -6.293421271956758 ], [ 106.817599815857676, -6.292947671790854 ], [ 106.81652775524897, -6.292355670976394 ], [ 106.817421139089547, -6.290816465702431 ], [ 106.818552758620967, -6.287856442749249 ], [ 106.819267465693443, -6.283712382308642 ], [ 106.819684378152374, -6.280811520361283 ], [ 106.819863054920489, -6.279923498165846 ], [ 106.819148347848014, -6.279805095092011 ], [ 106.816885108785186, -6.279745893544997 ], [ 106.815693930331079, -6.279805095092011 ], [ 106.815157900026747, -6.279449885708955 ], [ 106.815634371408393, -6.279035474455793 ], [ 106.815932166021923, -6.277910642249081 ], [ 106.816349078480869, -6.274062513699336 ], [ 106.816587314171699, -6.273292884579046 ], [ 106.815455694640292, -6.273056075390314 ], [ 106.815038782181318, -6.272582456690083 ], [ 106.816110842790053, -6.265951749717015 ], [ 106.816110842790053, -6.263109992359219 ], [ 106.815157900026762, -6.258136879765503 ], [ 106.814919664335932, -6.256123939779876 ], [ 106.814383634031572, -6.251683603578694 ], [ 106.815038782181318, -6.247598460978336 ], [ 106.81652775524897, -6.242980435295213 ], [ 106.817540256934976, -6.24179631958572 ], [ 106.818254964007437, -6.239901728883505 ], [ 106.818254964007437, -6.239250461747472 ], [ 106.81730202124416, -6.238895224786691 ], [ 106.815396135717563, -6.238836018603148 ], [ 106.812656425273119, -6.238954430963542 ], [ 106.807891711456634, -6.239191255604064 ], [ 106.80622406162091, -6.239546492364186 ], [ 106.804437293939742, -6.240079347052856 ], [ 106.800565963963848, -6.239901728883505 ], [ 106.799196108741612, -6.239960934946644 ], [ 106.798362283823721, -6.239783316737155 ], [ 106.79824316597832, -6.237415068191854 ], [ 106.79848140166915, -6.23392188205998 ], [ 106.79871963735998, -6.230843122452565 ], [ 106.799315226587041, -6.229244528608732 ], [ 106.798838755205395, -6.228770870238523 ], [ 106.798362283823721, -6.228770870238523 ], [ 106.79824316597832, -6.222731688567764 ], [ 106.79824316597832, -6.2163963939861 ], [ 106.798004930287505, -6.213909621984152 ], [ 106.797111546446914, -6.212014930666077 ], [ 106.796501067489217, -6.209898197143835 ], [ 106.796369826281506, -6.208373317479556 ], [ 106.796082171547269, -6.207563075073254 ], [ 106.794979495066016, -6.207706059117871 ], [ 106.792774142103511, -6.207801381792719 ], [ 106.791000271242353, -6.207706059117871 ], [ 106.790281134406754, -6.207610736425772 ], [ 106.789705824938295, -6.208087349713766 ], [ 106.789034630558376, -6.208468640033651 ], [ 106.788267551267069, -6.20827799490821 ], [ 106.787596356887192, -6.207420090989824 ], [ 106.787356644608636, -6.2070864613109 ], [ 106.785774543570327, -6.206800492846509 ], [ 106.784000672709197, -6.206752831420685 ], [ 106.783233593417904, -6.206752831420685 ], [ 106.783041823595056, -6.205608955907464 ], [ 106.782490795062927, -6.197955848880023 ], [ 106.782129184460999, -6.192383617178367 ], [ 106.783394821567782, -6.188698721977419 ], [ 106.783394821567782, -6.185373306687175 ], [ 106.78375643216971, -6.181778239600372 ], [ 106.783575626868753, -6.176115959398769 ], [ 106.783575626868753, -6.17404876264602 ], [ 106.787191732888104, -6.173599370979882 ], [ 106.789632604451157, -6.173689249343612 ], [ 106.788457369994887, -6.171801800502934 ], [ 106.787734148791017, -6.168566158277338 ], [ 106.787914954091974, -6.167487606479638 ], [ 106.788638175295858, -6.16712808872617 ], [ 106.788999785897786, -6.168296520533617 ], [ 106.788818980596815, -6.170273860802503 ], [ 106.7895422018007, -6.172071436463302 ], [ 106.792977502519079, -6.175307057282638 ], [ 106.79596078998506, -6.178542658331727 ], [ 106.797136024441386, -6.180879469010486 ], [ 106.797226427091857, -6.185103677503494 ], [ 106.797497635043328, -6.193102618122402 ], [ 106.799486493353982, -6.201101437565103 ], [ 106.800119311907338, -6.201640679455892 ], [ 106.79931519005477, -6.201906592332846 ], [ 106.798000444156173, -6.20284019948964 ], [ 106.797098904111436, -6.204109902569483 ], [ 106.796422749077863, -6.206350547601353 ], [ 106.79608467156109, -6.207620242223236 ] ] ] } },
{ "type": "Feature", "properties": { "id": 1 }, "geometry": { "type": "MultiLineString", "coordinates": [ [ [ 106.819766856189915, -6.305953475342834 ], [ 106.820459268991542, -6.305953475342834 ], [ 106.821349514022174, -6.303003938135556 ], [ 106.821250597907664, -6.299562790197087 ], [ 106.821052765678616, -6.297891367251156 ], [ 106.822239759052863, -6.293958586154056 ] ] ] } }
]
}
