{
"type": "FeatureCollection",
"name": "KRL_TANGERANG_ARAH_UTARA_VIA_MAUK",
"crs": { "type": "name", "properties": { "name": "urn:ogc:def:crs:OGC:1.3:CRS84" } },
"features": [
{ "type": "Feature", "properties": { "id": 1 }, "geometry": { "type": "MultiLineString", "coordinates": [ [ [ 106.630393659270709, -6.176940072420067 ], [ 106.628433523025421, -6.176745196746142 ], [ 106.624643926284477, -6.176355445183098 ], [ 106.621638384041674, -6.175575941196289 ], [ 106.618632841798856, -6.174016929780286 ], [ 106.616672705553569, -6.171743363239846 ], [ 106.614973920807643, -6.16843043453125 ], [ 106.613209798186872, -6.164532844839584 ], [ 106.610530945318288, -6.161414752466607 ], [ 106.609158849946567, -6.160310423691215 ], [ 106.605316549810581, -6.157734300378152 ], [ 106.602522801337571, -6.154623346165571 ], [ 106.599505552986699, -6.151512373738338 ], [ 106.595147305368783, -6.150290201017572 ], [ 106.591347807445516, -6.149845773877122 ], [ 106.587883559338977, -6.149512453278026 ], [ 106.5853133107438, -6.147734739887914 ], [ 106.582296062392942, -6.142512672452263 ], [ 106.580619813309113, -6.135068360116698 ], [ 106.578496564469631, -6.127068386193792 ], [ 106.576485065569088, -6.121735003619677 ], [ 106.575255816240968, -6.116734909096383 ], [ 106.570227068989539, -6.110512503944888 ], [ 106.564639572043518, -6.104067793772765 ], [ 106.559275574975331, -6.09740077063691 ], [ 106.555699576929868, -6.093622754067841 ], [ 106.552011828945496, -6.091289259958648 ], [ 106.548518720588035, -6.089405812890267 ], [ 106.546622229999741, -6.086472354105558 ], [ 106.541354200587733, -6.078300491641078 ], [ 106.538005382074388, -6.073900206587914 ], [ 106.534473730595309, -6.070658511606419 ], [ 106.52890458787833, -6.06687650947539 ], [ 106.522384615916977, -6.063364626595096 ], [ 106.515864643955624, -6.061203456533701 ], [ 106.510431333987825, -6.059312425629248 ] ] ] } },
{ "type": "Feature", "properties": { "id": 1 }, "geometry": { "type": "MultiLineString", "coordinates": [ [ [ 106.510427582692714, -6.059105414926297 ], [ 106.505611837624244, -6.05875713538968 ], [ 106.500358297549511, -6.060324391534707 ], [ 106.49633058349221, -6.062239920641927 ], [ 106.493090900446134, -6.065722683410705 ], [ 106.490989484416204, -6.071120921239603 ], [ 106.485648385340269, -6.073471749840478 ], [ 106.475555828057395, -6.084663943018389 ], [ 106.465874004172079, -6.09108209128147 ], [ 106.452964905658334, -6.09696532646224 ], [ 106.438980048935079, -6.100709169802763 ], [ 106.425802010868949, -6.10044175328821 ], [ 106.408320939964923, -6.097232744710471 ], [ 106.394605022794067, -6.09188435442167 ], [ 106.377661830994754, -6.08279196866834 ], [ 106.358029243671751, -6.071292554744647 ], [ 106.338934535453518, -6.053909253880608 ], [ 106.32602543693973, -6.038397528510563 ], [ 106.318495129473405, -6.022885358896924 ] ] ] } }
]
}
