{
"type": "FeatureCollection",
"name": "KRL_TANGERANG_ARAH_SELATAN_VIA_BITUNG",
"crs": { "type": "name", "properties": { "name": "urn:ogc:def:crs:OGC:1.3:CRS84" } },
"features": [
{ "type": "Feature", "properties": { "id": 1 }, "geometry": { "type": "MultiLineString", "coordinates": [ [ [ 106.630697091025326, -6.177084127247545 ], [ 106.628734656865603, -6.177084127247545 ], [ 106.627243206904225, -6.177084127247545 ], [ 106.625830254309236, -6.17716216885872 ], [ 106.623161343852004, -6.178176708757002 ], [ 106.619079480799797, -6.180049700383051 ], [ 106.61436963881647, -6.182390930592114 ], [ 106.608325341604541, -6.184966271852608 ], [ 106.605734928513712, -6.187385520397616 ], [ 106.602752028590928, -6.188946320033724 ], [ 106.59937664183623, -6.189414559025541 ], [ 106.596158249814295, -6.190038877035756 ], [ 106.593018355158762, -6.190663194308147 ], [ 106.589014989472915, -6.192536141697638 ], [ 106.586032089550145, -6.195501628144214 ], [ 106.583049189627388, -6.197452596983486 ], [ 106.578139465493322, -6.198919925679815 ], [ 106.574428221931925, -6.200188204877252 ], [ 106.572572600151219, -6.201110587832499 ], [ 106.571180883815671, -6.203762429840783 ], [ 106.566541829363899, -6.206529555103386 ], [ 106.564106325776734, -6.210910807044153 ], [ 106.561670822189569, -6.214946138419005 ], [ 106.56027910585405, -6.220249669725556 ], [ 106.558423484073344, -6.22532256264835 ], [ 106.558655436795931, -6.232355355875225 ], [ 106.56097496402181, -6.23800458052329 ], [ 106.563266975406918, -6.242923245439205 ], [ 106.562254327999256, -6.249718036082322 ], [ 106.558203738368491, -6.255506121475087 ], [ 106.555165796145445, -6.266578801848935 ], [ 106.552887339478147, -6.276896315263191 ], [ 106.551874692070442, -6.286207066590899 ], [ 106.550608882810849, -6.292498020448217 ], [ 106.548077264291649, -6.306841110326475 ], [ 106.544532998364716, -6.322693537422944 ], [ 106.545409431104517, -6.326595671606512 ], [ 106.546652786433981, -6.334010317507669 ], [ 106.549916594173894, -6.341115919887477 ], [ 106.554890015491836, -6.344205281689087 ], [ 106.562816405717314, -6.344205281689087 ], [ 106.564215180462995, -6.343896346342192 ], [ 106.570587376526589, -6.344514216850779 ] ] ] } }
]
}
