{
"type": "FeatureCollection",
"name": "KRL_SENTUL_JASINGA_MAJA",
"crs": { "type": "name", "properties": { "name": "urn:ogc:def:crs:OGC:1.3:CRS84" } },
"features": [
{ "type": "Feature", "properties": { "id": 1 }, "geometry": { "type": "MultiLineString", "coordinates": [ [ [ 106.854945089931661, -6.532412937398791 ], [ 106.853869489924406, -6.536616145986938 ], [ 106.854084609925877, -6.541175518742917 ], [ 106.85351095658865, -6.544310063382232 ], [ 106.853224129920051, -6.545307414369652 ], [ 106.853582663255807, -6.54751582732415 ], [ 106.85351095658865, -6.549296798397008 ], [ 106.852578769915695, -6.550294139421776 ], [ 106.852507063248524, -6.551861385575907 ], [ 106.852291943247096, -6.554995863111923 ], [ 106.851431463241269, -6.557631658516293 ], [ 106.850857809904056, -6.559341356190769 ], [ 106.850069036565387, -6.561335996063358 ], [ 106.848778316556675, -6.564114231146986 ], [ 106.848061249885134, -6.566251324509482 ], [ 106.84734418321365, -6.567034923110275 ], [ 106.846770529876423, -6.567248631605469 ], [ 106.845910049870596, -6.567248631605469 ], [ 106.843973969857515, -6.566536269597961 ], [ 106.840173516498496, -6.56553896107466 ], [ 106.837735489815358, -6.565254015415299 ], [ 106.836157943138048, -6.565254015415299 ], [ 106.833935036456396, -6.565966379257888 ], [ 106.831783836441844, -6.567319867750145 ], [ 106.830062876430219, -6.568958296263156 ], [ 106.82848532975288, -6.569884362166639 ], [ 106.826477543072627, -6.570454248019653 ], [ 106.823752689720905, -6.570596719380895 ], [ 106.820239063030471, -6.570026833691097 ], [ 106.816295196337151, -6.56917200393234 ], [ 106.813283516316815, -6.566892450729166 ], [ 106.810845489633678, -6.565182778974977 ], [ 106.809339649623482, -6.563900521306202 ], [ 106.807331862943229, -6.56240454985268 ], [ 106.806184556268832, -6.561834654783643 ], [ 106.805467489597305, -6.561763417854166 ], [ 106.803961649587123, -6.561834654783643 ], [ 106.801882156239742, -6.56240454985268 ], [ 106.798009996213594, -6.563401864654353 ], [ 106.79471148952463, -6.562974444269619 ], [ 106.788329596148174, -6.560766099771791 ], [ 106.783883782784798, -6.559270118904777 ], [ 106.780800396097291, -6.557275470762552 ], [ 106.778936022751353, -6.55670556982715 ], [ 106.776784822736801, -6.556919282754283 ], [ 106.773773142716465, -6.557417945894595 ], [ 106.771263409366171, -6.55777413354652 ], [ 106.770259516026044, -6.558700220250204 ], [ 106.767893196010036, -6.560338677125281 ], [ 106.76538346265977, -6.562689497142668 ], [ 106.763447382646689, -6.564470414011127 ], [ 106.762156662637935, -6.565182778974978 ], [ 106.76122447596498, -6.566393797074115 ], [ 106.760507409293453, -6.56760481222687 ], [ 106.759646929287655, -6.568388408696593 ], [ 106.758069382610316, -6.569385711509727 ], [ 106.755631355927179, -6.571309075575001 ], [ 106.75312162257687, -6.572947490949384 ], [ 106.751687489233859, -6.573659843776225 ], [ 106.750611889226604, -6.573659843776225 ], [ 106.749536289219307, -6.572947490949384 ], [ 106.747958742541996, -6.572947490949384 ], [ 106.746237782530343, -6.573089961596397 ], [ 106.74379975584722, -6.573089961596397 ], [ 106.742222209169896, -6.573089961596397 ], [ 106.740357835823943, -6.572377607953142 ], [ 106.739425649151002, -6.5713803111383 ], [ 106.738350049143705, -6.569385711509725 ], [ 106.736557382464937, -6.566963686924819 ], [ 106.734693009119013, -6.56539648826537 ], [ 106.732756929105946, -6.563544338034406 ], [ 106.730964262427165, -6.562119602399671 ], [ 106.730390609089937, -6.5616921809145 ], [ 106.729530129084154, -6.561977128612035 ], [ 106.728526235744027, -6.563330627949039 ], [ 106.725442849056492, -6.563615574709147 ], [ 106.7217858090318, -6.563401864654353 ], [ 106.718917542345736, -6.563259391233536 ], [ 106.717339995668425, -6.563188154507841 ], [ 106.7157624489911, -6.56240454985268 ], [ 106.714256608980918, -6.560908573905803 ], [ 106.712033702299209, -6.559555067987644 ], [ 106.710886395624783, -6.558842694974948 ], [ 106.707372768934405, -6.557845371046358 ], [ 106.7036440222425, -6.556563094491492 ], [ 106.699771862216352, -6.555280814638277 ], [ 106.697620662201814, -6.555280814638277 ], [ 106.696043115524489, -6.556491856808396 ], [ 106.69432215551285, -6.557346708333663 ], [ 106.692816315502654, -6.557916608536016 ], [ 106.692027542164013, -6.559270118904776 ], [ 106.690378288819545, -6.56005372849055 ], [ 106.688011968803522, -6.561122285030422 ], [ 106.684785168781744, -6.562689497142665 ], [ 106.682777382101477, -6.563401864654352 ], [ 106.676897435395119, -6.564897833111746 ], [ 106.672164795363145, -6.567462340008901 ], [ 106.66943994201138, -6.568958296263156 ], [ 106.668005808668354, -6.571878959795705 ], [ 106.666141435322402, -6.574657136019137 ], [ 106.663918528640735, -6.575155781390346 ], [ 106.660476608617472, -6.575796896132601 ], [ 106.658899061940119, -6.577079123136136 ], [ 106.656102501921225, -6.578361346831181 ], [ 106.652373755229377, -6.577862704676288 ], [ 106.650652795217752, -6.577292827315083 ], [ 106.647497701863102, -6.576295540360407 ], [ 106.643697248504068, -6.575511956349243 ], [ 106.641330928488088, -6.575013311335326 ], [ 106.63932314180785, -6.574300960447754 ], [ 106.637028528458998, -6.573018726277994 ], [ 106.634733915110161, -6.571451546691396 ], [ 106.632152475092695, -6.56981312638911 ], [ 106.628997381738074, -6.567034923110275 ] ] ] } },
{ "type": "Feature", "properties": { "id": 1 }, "geometry": { "type": "MultiLineString", "coordinates": [ [ [ 106.62886122248463, -6.566809467359375 ], [ 106.624823831788746, -6.565437314748623 ], [ 106.615792826284789, -6.562798549098497 ], [ 106.60909925749948, -6.561109731744597 ], [ 106.60410564269138, -6.561531936619881 ], [ 106.595393378558157, -6.563009650865098 ], [ 106.590506010873654, -6.562904099992983 ], [ 106.583174959346891, -6.56132083422697 ], [ 106.577650108920906, -6.559632011863293 ], [ 106.573825212472187, -6.558787598534829 ], [ 106.567131643686864, -6.558048735698679 ], [ 106.558844368047943, -6.557098767585552 ], [ 106.550450845285411, -6.556043245336499 ], [ 106.541951075399339, -6.554354405089829 ], [ 106.539188650186333, -6.553193324102359 ], [ 106.53472627099616, -6.547915649191493 ], [ 106.529201420570175, -6.542954583894865 ], [ 106.521976616166995, -6.538732361853479 ], [ 106.516026777246751, -6.531765617526349 ], [ 106.50890821996714, -6.52416542218979 ], [ 106.502911104514226, -6.51592029087371 ], [ 106.499075658947405, -6.506774599593969 ], [ 106.493450338782708, -6.49635847062454 ], [ 106.48168830571106, -6.47908246442452 ], [ 106.470693361752765, -6.467395418792724 ], [ 106.46353386336132, -6.463330296072003 ], [ 106.4520275266608, -6.455708102918421 ], [ 106.44231106455814, -6.449610265777596 ], [ 106.431060424228718, -6.441479702146014 ], [ 106.422878140352807, -6.430808139719597 ], [ 106.416230034703588, -6.419374074234333 ], [ 106.408047750827691, -6.404128254303169 ], [ 106.400376859693992, -6.385324449387246 ], [ 106.40044252881826, -6.367645384048845 ], [ 106.399357718859164, -6.356729328907975 ], [ 106.40017132632849, -6.347160744328368 ], [ 106.401527338777399, -6.343117626984842 ], [ 106.401662940022277, -6.337187664183261 ], [ 106.400713731308045, -6.33557038976877 ], [ 106.396374491471605, -6.332335825735385 ] ] ] } }
]
}
