{
"type": "FeatureCollection",
"name": "LRT DUKUH ATAS BANDARA",
"crs": { "type": "name", "properties": { "name": "urn:ogc:def:crs:OGC:1.3:CRS84" } },
"features": [
{ "type": "Feature", "properties": { "id": 4 }, "geometry": { "type": "MultiLineString", "coordinates": [ [ [ 106.822945232086951, -6.204313461461918 ], [ 106.822151265989646, -6.204241705484004 ], [ 106.820707691267287, -6.204205827491388 ], [ 106.820021993274182, -6.204205827491388 ], [ 106.819697188961655, -6.204313461461918 ], [ 106.818939312232445, -6.204492851363955 ], [ 106.817928809926812, -6.204636363241626 ], [ 106.81681003951698, -6.204743997124229 ], [ 106.816485235204453, -6.204672241204936 ], [ 106.816340877732202, -6.204528729337037 ], [ 106.815907805315504, -6.203093608508874 ], [ 106.815258196690465, -6.201227945591441 ], [ 106.814536409329278, -6.199147006088669 ], [ 106.814103336912581, -6.197855384337029 ], [ 106.814211605016752, -6.196204974164035 ], [ 106.814387072426484, -6.193021391687801 ], [ 106.815045075212964, -6.189706956660689 ], [ 106.815396010032444, -6.187090282739842 ], [ 106.815396010032444, -6.185869163809651 ], [ 106.814650273541091, -6.185171380297334 ], [ 106.814255471869174, -6.18438637274515 ], [ 106.813071066853482, -6.181420778142581 ], [ 106.812456930919396, -6.177931822032165 ], [ 106.811579593870718, -6.175140640585065 ], [ 106.811097058493957, -6.172916407336283 ], [ 106.81070225682204, -6.171782480909293 ], [ 106.81070225682204, -6.171259129432174 ], [ 106.810570656264758, -6.170953840831817 ], [ 106.810263588297701, -6.170823002806393 ], [ 106.808947582724684, -6.171171904135734 ], [ 106.807850911413837, -6.17152080523535 ], [ 106.802806223383939, -6.175009803593709 ] ] ] } },
{ "type": "Feature", "properties": { "id": 1 }, "geometry": { "type": "MultiLineString", "coordinates": [ [ [ 106.802806223383939, -6.175009803593709 ], [ 106.800349679647653, -6.176797906344025 ], [ 106.798638872402719, -6.177931822032165 ], [ 106.797366733682139, -6.178673227130298 ], [ 106.7969280651578, -6.178716839162553 ], [ 106.796313929223714, -6.178673227130298 ], [ 106.795612059584784, -6.178106270383982 ], [ 106.79333098325823, -6.175707600507386 ], [ 106.792146578242495, -6.17479174186962 ], [ 106.791049906931676, -6.173657819457021 ], [ 106.789953235620843, -6.172480282074655 ], [ 106.788505629490516, -6.172087769032224 ], [ 106.787847626703993, -6.171041066164152 ], [ 106.787540558736936, -6.169209331170321 ], [ 106.787584425589401, -6.167900945156338 ], [ 106.787452825032091, -6.167290363911457 ], [ 106.787014156507752, -6.166985073025346 ], [ 106.786136819459074, -6.166592555913511 ], [ 106.785259482410396, -6.166069199312458 ], [ 106.782802938674109, -6.165458615958475 ], [ 106.780741196609682, -6.165066097716881 ], [ 106.779118123069651, -6.165196937163018 ], [ 106.779118123069651, -6.165196937163018 ] ] ] } },
{ "type": "Feature", "properties": { "id": 1 }, "geometry": { "type": "MultiLineString", "coordinates": [ [ [ 106.779052322791031, -6.165186033877073 ], [ 106.776332577940153, -6.164073897533349 ], [ 106.772757429466779, -6.162634658804238 ], [ 106.771309823336452, -6.162111298298493 ], [ 106.769840283779928, -6.161478903665422 ], [ 106.769467415534237, -6.161173609434938 ], [ 106.768831346173926, -6.159538101638774 ], [ 106.768590078485559, -6.158883897109502 ], [ 106.768239143666079, -6.158534987697631 ], [ 106.767120538928992, -6.157837168186116 ], [ 106.76687927124064, -6.157793554436199 ], [ 106.766550269847372, -6.157793554436199 ], [ 106.765278131126792, -6.158404146609072 ], [ 106.764181459815944, -6.158687635593536 ], [ 106.762580319702096, -6.158709442432226 ], [ 106.761768782932094, -6.158665828753948 ], [ 106.759597373736582, -6.157989816282616 ], [ 106.757382097688691, -6.157204768461769 ], [ 106.755079087935911, -6.156572367984414 ], [ 106.74863189508487, -6.155921675773571 ], [ 106.74789862662584, -6.155678662300178 ], [ 106.747654203806178, -6.15531414188166 ], [ 106.747470886691431, -6.154645853798136 ], [ 106.747776415216009, -6.152640984504655 ], [ 106.749731797773435, -6.149664043421295 ], [ 106.749731797773435, -6.146383313536711 ], [ 106.749854009183267, -6.142130485431132 ], [ 106.751015017576762, -6.138424421809988 ], [ 106.751748286035777, -6.136541002547572 ], [ 106.751992708855482, -6.135994202160004 ], [ 106.752176025970243, -6.135447401211441 ], [ 106.752848188724357, -6.132045071596004 ], [ 106.752603765904695, -6.128764233195465 ], [ 106.752114920265313, -6.124328993662199 ], [ 106.752053814560412, -6.12202022425558 ], [ 106.751564968921031, -6.116187499210167 ], [ 106.751320546101383, -6.114547033824628 ], [ 106.751320546101383, -6.113392629240742 ], [ 106.750953911871832, -6.112967321660784 ], [ 106.750342854822676, -6.112602772037423 ], [ 106.749487374953773, -6.112906563407474 ], [ 106.747959732330784, -6.112906563407474 ], [ 106.746798723937317, -6.112542013742711 ], [ 106.74624877259302, -6.112420497132592 ], [ 106.745698821248752, -6.112298980494873 ], [ 106.745209975609413, -6.112298980494873 ], [ 106.744598918560214, -6.112420497132592 ], [ 106.744232284330693, -6.112420497132592 ], [ 106.743926755806058, -6.112420497132592 ], [ 106.743560121576564, -6.112359738817183 ], [ 106.742887958822465, -6.111873672045523 ], [ 106.740932576264996, -6.110476227617587 ], [ 106.740321519215811, -6.1099294005438 ], [ 106.739832673576458, -6.109382572911357 ], [ 106.739832673576458, -6.108835744720312 ], [ 106.740077096396149, -6.107742086662608 ], [ 106.740871470560108, -6.106587667400503 ], [ 106.74099368196994, -6.104947172589561 ], [ 106.741971373248631, -6.0983851431207 ], [ 106.742338007478168, -6.096197782116587 ], [ 106.743560121576564, -6.094192693361276 ], [ 106.74453781285527, -6.092673681740727 ], [ 106.745393292724174, -6.092187597114238 ], [ 106.745759926953667, -6.091701512047606 ], [ 106.745759926953667, -6.091276187253276 ], [ 106.745454398429075, -6.090729340594053 ], [ 106.744843341379891, -6.090486297455628 ], [ 106.744171178625763, -6.090547058250547 ], [ 106.742704641707704, -6.089757167380344 ] ] ] } },
{ "type": "Feature", "properties": { "id": 1 }, "geometry": { "type": "MultiLineString", "coordinates": [ [ [ 106.742582430297887, -6.08974704056677 ], [ 106.739616766752462, -6.087737876977348 ], [ 106.737009590009222, -6.085372239248126 ], [ 106.736194847276963, -6.084950960203928 ], [ 106.735184566288964, -6.084918554109927 ], [ 106.734402413265954, -6.085663893777586 ], [ 106.733652849952293, -6.086376826405445 ], [ 106.732772927801463, -6.08728419383648 ], [ 106.731925595359911, -6.087899906577666 ], [ 106.731110852627623, -6.087964718404106 ], [ 106.728959931814444, -6.088515618613157 ], [ 106.725740988771008, -6.089045740121127 ], [ 106.723374694565294, -6.090516328199774 ], [ 106.721747867298902, -6.091545737458555 ], [ 106.717680799132893, -6.093604550054451 ], [ 106.714796878069706, -6.094707482125101 ], [ 106.711839010312588, -6.095810411928773 ], [ 106.708955089249429, -6.097133924700206 ], [ 106.705479594634824, -6.099560356298854 ], [ 106.696236257893858, -6.105295514600731 ], [ 106.690024735603942, -6.109560079689488 ], [ 106.687066867846809, -6.112059981361 ], [ 106.683295586456509, -6.114412819323599 ], [ 106.676714330696953, -6.117280326596261 ], [ 106.670059128243466, -6.119927242735118 ], [ 106.662812352238547, -6.123309394276521 ], [ 106.658375550602855, -6.12492693744317 ], [ 106.652607708476523, -6.127206194496673 ] ] ] } }
]
}
