{
"type": "FeatureCollection",
"name": "PERPANJANGAN KORIDOR 14 JIS-MARUNDA (VIA CILINCING)",
"crs": { "type": "name", "properties": { "name": "urn:ogc:def:crs:OGC:1.3:CRS84" } },
"features": [
{ "type": "Feature", "properties": { "id": 1 }, "geometry": { "type": "MultiLineString", "coordinates": [ [ [ 106.857143941413, -6.126476610226121 ], [ 106.855487615335122, -6.126998787108384 ], [ 106.854881642379809, -6.12717954052553 ], [ 106.854598855000631, -6.126777866182079 ], [ 106.854174673931908, -6.125693343944969 ], [ 106.853912085651274, -6.124910076514633 ], [ 106.855386619842548, -6.124227227048107 ], [ 106.85922444855963, -6.122479931790474 ], [ 106.86124435841073, -6.121455652602651 ], [ 106.861789734070541, -6.121033890013315 ], [ 106.862658295306517, -6.120893302409548 ], [ 106.862759290799062, -6.121515904373947 ], [ 106.862860286291607, -6.121676575730848 ], [ 106.863789444823084, -6.121254813315921 ], [ 106.86544577090099, -6.120491623337805 ], [ 106.86756667624465, -6.118945156092548 ], [ 106.869768377982339, -6.117117507215496 ], [ 106.87093992569595, -6.116113301876059 ], [ 106.873262822024728, -6.11422539073252 ], [ 106.875100939989224, -6.112638736851932 ], [ 106.876070496717759, -6.111935787425934 ], [ 106.877322840825414, -6.111373427220215 ], [ 106.879443746169102, -6.110409379778361 ], [ 106.880453701094638, -6.109746596154767 ], [ 106.880898081261876, -6.109505583724529 ], [ 106.881887837088911, -6.109445330600012 ], [ 106.882574606438254, -6.109525668097858 ], [ 106.883220977590611, -6.109585921213331 ], [ 106.884109737925101, -6.109847017968672 ], [ 106.887442589179386, -6.109947439763738 ], [ 106.889159512552808, -6.110047861539961 ], [ 106.890957232320318, -6.11004786153996 ], [ 106.892896345777359, -6.110128198947375 ], [ 106.893179133156508, -6.110108114596652 ], [ 106.893179133156508, -6.10892313657012 ], [ 106.893441721437142, -6.107878746982271 ], [ 106.894956653825474, -6.10755739593 ], [ 106.896572581706351, -6.107517227034909 ], [ 106.900228618536815, -6.107999253577153 ], [ 106.904733017504782, -6.108521448508208 ], [ 106.90640954268116, -6.108601786144702 ], [ 106.909621199344429, -6.108802630183194 ], [ 106.9156607297992, -6.108340688782018 ], [ 106.918104820719023, -6.108119760144908 ], [ 106.921558866564411, -6.108180013418615 ], [ 106.923316188134834, -6.107858662547156 ], [ 106.92533609798592, -6.107256129143349 ], [ 106.927073220457885, -6.106934777717431 ], [ 106.931880605903487, -6.105307933164731 ], [ 106.933799520262028, -6.104303705665822 ], [ 106.935758832817584, -6.102978122485036 ], [ 106.937435357994005, -6.102034144584505 ], [ 106.93846551201807, -6.10139143527531 ], [ 106.938465512018027, -6.101773044020596 ], [ 106.939010887677824, -6.10291786862617 ], [ 106.939839050716785, -6.104504551316203 ], [ 106.940243032686993, -6.105207510499553 ], [ 106.941252987612557, -6.106051060301876 ], [ 106.941454978597704, -6.10645275021699 ], [ 106.941414580400661, -6.107537311482834 ], [ 106.941353983105159, -6.108983389753416 ], [ 106.941434779499204, -6.109686343057382 ], [ 106.942666924508359, -6.110108114596653 ], [ 106.946221965846291, -6.110148283297347 ], [ 106.94953461800209, -6.110148283297347 ], [ 106.951039984651615, -6.11015854676878 ], [ 106.953279583323265, -6.110039249842535 ], [ 106.956558995663841, -6.109164404904325 ], [ 106.959358494003411, -6.108210026977518 ], [ 106.960013731474646, -6.107875040909323 ], [ 106.959993532376117, -6.107493436510642 ], [ 106.959528953110393, -6.106228114716613 ], [ 106.959023975647625, -6.10464143713134 ], [ 106.959084572943127, -6.104400422403431 ], [ 106.959932935080602, -6.104079069264222 ], [ 106.960781297218048, -6.103376108600234 ], [ 106.960862093612093, -6.102733400900408 ], [ 106.960740899021047, -6.102090692429759 ], [ 106.960579306232944, -6.100704849667332 ], [ 106.960498509838885, -6.100222816562299 ], [ 106.961306473779317, -6.099901460918158 ], [ 106.962276030507866, -6.09960018982684 ], [ 106.962356826901882, -6.09837501897823 ], [ 106.962154835916792, -6.096989166611842 ], [ 106.961791252143584, -6.095984923529217 ], [ 106.961286274680816, -6.096125517673957 ] ] ] } }
]
}
