{
"type": "FeatureCollection",
"name": "PERPANJANGAN KORIDOR 3 ARAH BANDARA 3B",
"crs": { "type": "name", "properties": { "name": "urn:ogc:def:crs:OGC:1.3:CRS84" } },
"features": [
{ "type": "Feature", "properties": { "id": 1 }, "geometry": { "type": "MultiLineString", "coordinates": [ [ [ 106.705873142301911, -6.1546428456459 ], [ 106.706533916611576, -6.156066269432083 ], [ 106.705542755147064, -6.156613739103512 ], [ 106.701853431918096, -6.157763423576738 ], [ 106.697943850585858, -6.159132092323445 ], [ 106.694309591882714, -6.159570065577282 ], [ 106.69216207537626, -6.159296332335973 ], [ 106.68885820382792, -6.159789052068711 ], [ 106.686986009950544, -6.159679558834289 ], [ 106.684287848186074, -6.160555504077347 ], [ 106.682140331679619, -6.161431447874945 ], [ 106.680047879699018, -6.162416882919214 ], [ 106.677625040563569, -6.163511808599926 ], [ 106.6758629757378, -6.163949778239548 ], [ 106.675312330479713, -6.164168762923774 ], [ 106.673990781860383, -6.163949778239548 ], [ 106.672448975137826, -6.163402316133531 ], [ 106.669585619795924, -6.163457062369552 ], [ 106.666006425618548, -6.163402316133531 ], [ 106.663971012859079, -6.163276245782892 ], [ 106.662662724923266, -6.162951064181248 ], [ 106.660809317014227, -6.163384639605818 ], [ 106.658465301129212, -6.163655624066251 ], [ 106.655412629278985, -6.16495634754959 ], [ 106.654594949319119, -6.166311264453021 ], [ 106.653831781356558, -6.169237873149457 ], [ 106.653559221369903, -6.171405721025964 ], [ 106.653831781356558, -6.173573560033387 ], [ 106.654213365337839, -6.176120759529935 ], [ 106.654213365337839, -6.17769242970218 ], [ 106.653777269359239, -6.180510585221175 ], [ 106.653068613393998, -6.18240741221532 ], [ 106.652468981423425, -6.184250037638952 ], [ 106.652468981423425, -6.184575206164865 ], [ 106.651978373447477, -6.184683595629065 ], [ 106.651596789466197, -6.184141648085875 ], [ 106.651923861450172, -6.182895166628708 ], [ 106.653123125391303, -6.17964346204454 ], [ 106.653613733367251, -6.178830532775959 ], [ 106.653886293353864, -6.17574139016866 ], [ 106.653123125391303, -6.171676701386983 ], [ 106.65334117338061, -6.168750106155286 ], [ 106.654104341343199, -6.166473854248824 ], [ 106.655521653273652, -6.164089198915054 ], [ 106.657920181155987, -6.161758729936976 ], [ 106.659882613059693, -6.159861829027761 ], [ 106.661027365003534, -6.157531341489292 ], [ 106.660972853006214, -6.155200843724174 ], [ 106.660700293019559, -6.152924533712481 ], [ 106.660918341008909, -6.149943636812036 ], [ 106.661463460982148, -6.14636653847408 ], [ 106.662444676934015, -6.143981792887028 ], [ 106.664243572845734, -6.141922231281392 ], [ 106.666478564736096, -6.140404654474026 ], [ 106.671112084508749, -6.139049671527511 ], [ 106.675364020300151, -6.13796568268871 ], [ 106.679179860112939, -6.136990090848125 ], [ 106.682341555957834, -6.135201501168285 ], [ 106.684467523853527, -6.132654105506136 ], [ 106.685721299791993, -6.128643287674504 ], [ 106.685448739805366, -6.12490344388664 ], [ 106.685285203813393, -6.121217775104756 ], [ 106.685721299791993, -6.118616111243321 ], [ 106.686593491749221, -6.116285443280085 ], [ 106.688010803679688, -6.115147206396245 ], [ 106.687901779685021, -6.1133043415434 ], [ 106.687356659711767, -6.112328704639266 ], [ 106.686484467754582, -6.112870725361219 ], [ 106.684958131829461, -6.114008967089808 ], [ 106.681905459979234, -6.115472417181709 ], [ 106.678253156158405, -6.116990064898697 ], [ 106.672365860447258, -6.1193207297898 ], [ 106.669095140607737, -6.120458957786981 ], [ 106.667677828677284, -6.120242152641108 ], [ 106.666587588730749, -6.120187951340895 ], [ 106.665061252805643, -6.120458957786981 ] ] ] } }
]
}
