{
"type": "FeatureCollection",
"name": "PERPANJANGAN KORIDOR 2 ARAH HARAPAN INDAH",
"crs": { "type": "name", "properties": { "name": "urn:ogc:def:crs:OGC:1.3:CRS84" } },
"features": [
{ "type": "Feature", "properties": { "id": 1 }, "geometry": { "type": "MultiLineString", "coordinates": [ [ [ 106.908854324342897, -6.183268774839326 ], [ 106.909778562448452, -6.18309207071125 ], [ 106.910276229120697, -6.182385253608562 ], [ 106.911129371987343, -6.182455935361335 ], [ 106.9121958005707, -6.182809343983526 ], [ 106.913724348206784, -6.182526617104664 ], [ 106.917172467292914, -6.182774003131933 ], [ 106.922255776873442, -6.18319809319518 ], [ 106.924601919756782, -6.183339456474024 ], [ 106.926272657870641, -6.183692864505818 ], [ 106.932635681751208, -6.182950707366277 ], [ 106.936368181792844, -6.182491276234179 ], [ 106.936972491323417, -6.182385253608562 ], [ 106.938607681817842, -6.183304115657855 ], [ 106.939958491356748, -6.1837988868693 ], [ 106.940704991365095, -6.183975590761203 ], [ 106.943122229487273, -6.184328998367859 ], [ 106.947316848581721, -6.185141834966747 ], [ 106.953146658170596, -6.186096032857795 ], [ 106.955101777240046, -6.18652012025651 ], [ 106.958834277281682, -6.187368294033155 ], [ 106.962175753509456, -6.188251806936365 ], [ 106.96708132499279, -6.190124849405498 ], [ 106.969676301212232, -6.191255739756534 ], [ 106.971098205989989, -6.192174586383819 ], [ 106.972768944103876, -6.193976934739589 ], [ 106.97355099173167, -6.193658873712105 ], [ 106.975150634606663, -6.192527988507087 ], [ 106.975612753659433, -6.191397100880167 ], [ 106.975043991748322, -6.190018828310958 ], [ 106.975008444128875, -6.188640552145809 ], [ 106.975079539367769, -6.18616671411454 ], [ 106.975101114845302, -6.184242979193086 ], [ 106.974918719367437, -6.183638532012159 ], [ 106.973763548007611, -6.182671415085658 ], [ 106.973459555544494, -6.181643851413621 ], [ 106.973459555544494, -6.17934693716502 ], [ 106.974310734441218, -6.178198476301897 ], [ 106.97455392841168, -6.170340519355181 ], [ 106.974675525396933, -6.164779433257237 ], [ 106.974841342388359, -6.159976630100606 ], [ 106.975568513858008, -6.157424954909143 ], [ 106.976552334081688, -6.155766359460064 ], [ 106.974841342388359, -6.154873267457885 ], [ 106.974670243219038, -6.154065230543299 ], [ 106.974713018011343, -6.152279039319605 ], [ 106.975782387819706, -6.152279039319605 ] ] ] } }
]
}
