{"type": "FeatureCollection", "features": [{"type": "Feature", "id": "ix-Parung_Panjang", "geometry": {"type": "Point", "coordinates": [106.568689, -6.3442507]}, "properties": {"id": "ix-Parung_Panjang", "node_id": "ix-Parung_Panjang", "name": "Parung Panjang", "connected_corridors": "KRL_PP_CITAYAM", "connected_modes": "krl", "source": "masterplan interchange reconstruction", "confidence": "MEDIUM", "color": "#E58A3A"}}, {"type": "Feature", "id": "ix-Citayam", "geometry": {"type": "Point", "coordinates": [106.8020558, -6.4500288]}, "properties": {"id": "ix-Citayam", "node_id": "ix-Citayam", "name": "Citayam", "connected_corridors": "KRL_PP_CITAYAM", "connected_modes": "krl", "source": "masterplan interchange reconstruction", "confidence": "MEDIUM", "color": "#E58A3A"}}, {"type": "Feature", "id": "ix-Nambo", "geometry": {"type": "Point", "coordinates": [106.9055193, -6.4668163]}, "properties": {"id": "ix-Nambo", "node_id": "ix-Nambo", "name": "Nambo", "connected_corridors": "OUTER_RING_RAIL", "connected_modes": "rail", "source": "masterplan interchange reconstruction", "confidence": "MEDIUM", "color": "#E58A3A"}}, {"type": "Feature", "id": "ix-Cileungsi", "geometry": {"type": "Point", "coordinates": [106.99047682037613, -6.400293448451638]}, "properties": {"id": "ix-Cileungsi", "node_id": "ix-Cileungsi", "name": "Cileungsi", "connected_corridors": "LRT_09,OUTER_RING_RAIL", "connected_modes": "lrt,rail", "source": "masterplan interchange reconstruction", "confidence": "MEDIUM", "color": "#E58A3A"}}, {"type": "Feature", "id": "ix-Cikarang", "geometry": {"type": "Point", "coordinates": [107.13864523412256, -6.251390670075598]}, "properties": {"id": "ix-Cikarang", "node_id": "ix-Cikarang", "name": "Cikarang", "connected_corridors": "MRT_3,OUTER_RING_RAIL", "connected_modes": "mrt,rail", "source": "masterplan interchange reconstruction", "confidence": "MEDIUM", "color": "#E58A3A"}}, {"type": "Feature", "id": "ix-Tanjung_Priok", "geometry": {"type": "Point", "coordinates": [106.8814496, -6.1106006]}, "properties": {"id": "ix-Tanjung_Priok", "node_id": "ix-Tanjung_Priok", "name": "Tanjung Priok", "connected_corridors": "OUTER_RING_RAIL", "connected_modes": "rail", "source": "masterplan interchange reconstruction", "confidence": "MEDIUM", "color": "#E58A3A"}}, {"type": "Feature", "id": "ix-Bundaran_HI", "geometry": {"type": "Point", "coordinates": [106.8230619, -6.1918487]}, "properties": {"id": "ix-Bundaran_HI", "node_id": "ix-Bundaran_HI", "name": "Bundaran HI", "connected_corridors": "MRT_2A", "connected_modes": "mrt", "source": "masterplan interchange reconstruction", "confidence": "MEDIUM", "color": "#E58A3A"}}, {"type": "Feature", "id": "ix-Thamrin", "geometry": {"type": "Point", "coordinates": [106.82283490482091, -6.186550648295413]}, "properties": {"id": "ix-Thamrin", "node_id": "ix-Thamrin", "name": "Thamrin", "connected_corridors": "MRT_2A,MRT_3", "connected_modes": "mrt", "source": "masterplan interchange reconstruction", "confidence": "MEDIUM", "color": "#E58A3A"}}, {"type": "Feature", "id": "ix-Kota", "geometry": {"type": "Point", "coordinates": [106.8148, -6.1377]}, "properties": {"id": "ix-Kota", "node_id": "ix-Kota", "name": "Kota", "connected_corridors": "MRT_2A,MRT_2B", "connected_modes": "mrt", "source": "masterplan interchange reconstruction", "confidence": "MEDIUM", "color": "#E58A3A"}}, {"type": "Feature", "id": "ix-Fatmawati", "geometry": {"type": "Point", "coordinates": [106.7924632, -6.2924711]}, "properties": {"id": "ix-Fatmawati", "node_id": "ix-Fatmawati", "name": "Fatmawati", "connected_corridors": "MRT_4", "connected_modes": "mrt", "source": "masterplan interchange reconstruction", "confidence": "MEDIUM", "color": "#E58A3A"}}, {"type": "Feature", "id": "ix-Kampung_Rambutan", "geometry": {"type": "Point", "coordinates": [106.88265934456784, -6.308149067765508]}, "properties": {"id": "ix-Kampung_Rambutan", "node_id": "ix-Kampung_Rambutan", "name": "Kampung Rambutan", "connected_corridors": "MRT_4", "connected_modes": "mrt", "source": "masterplan interchange reconstruction", "confidence": "MEDIUM", "color": "#E58A3A"}}, {"type": "Feature", "id": "ix-TMII", "geometry": {"type": "Point", "coordinates": [106.8805779, -6.2929044]}, "properties": {"id": "ix-TMII", "node_id": "ix-TMII", "name": "TMII", "connected_corridors": "MRT_4", "connected_modes": "mrt", "source": "masterplan interchange reconstruction", "confidence": "MEDIUM", "color": "#E58A3A"}}, {"type": "Feature", "id": "ix-Velodrome", "geometry": {"type": "Point", "coordinates": [106.891218, -6.1919263]}, "properties": {"id": "ix-Velodrome", "node_id": "ix-Velodrome", "name": "Velodrome", "connected_corridors": "LRT_JKT_1B,LRT_JKT_2B", "connected_modes": "lrt", "source": "masterplan interchange reconstruction", "confidence": "MEDIUM", "color": "#E58A3A"}}, {"type": "Feature", "id": "ix-Manggarai", "geometry": {"type": "Point", "coordinates": [106.8502457, -6.2110955]}, "properties": {"id": "ix-Manggarai", "node_id": "ix-Manggarai", "name": "Manggarai", "connected_corridors": "LRT_JKT_1B,LRT_JKT_1C", "connected_modes": "lrt", "source": "masterplan interchange reconstruction", "confidence": "MEDIUM", "color": "#E58A3A"}}, {"type": "Feature", "id": "ix-Dukuh_Atas_BNI", "geometry": {"type": "Point", "coordinates": [106.8255355, -6.2048049]}, "properties": {"id": "ix-Dukuh_Atas_BNI", "node_id": "ix-Dukuh_Atas_BNI", "name": "Dukuh Atas BNI", "connected_corridors": "LRT_JKT_1C", "connected_modes": "lrt", "source": "masterplan interchange reconstruction", "confidence": "MEDIUM", "color": "#E58A3A"}}, {"type": "Feature", "id": "ix-Kelapa_Gading", "geometry": {"type": "Point", "coordinates": [106.9141377, -6.1572054]}, "properties": {"id": "ix-Kelapa_Gading", "node_id": "ix-Kelapa_Gading", "name": "Kelapa Gading", "connected_corridors": "LRT_JKT_2A", "connected_modes": "lrt", "source": "masterplan interchange reconstruction", "confidence": "MEDIUM", "color": "#E58A3A"}}, {"type": "Feature", "id": "ix-JIS", "geometry": {"type": "Point", "coordinates": [106.86096, -6.12507]}, "properties": {"id": "ix-JIS", "node_id": "ix-JIS", "name": "JIS", "connected_corridors": "LRT_JKT_2A,LRT_JKT_3A", "connected_modes": "lrt", "source": "masterplan interchange reconstruction", "confidence": "MEDIUM", "color": "#E58A3A"}}, {"type": "Feature", "id": "ix-Klender", "geometry": {"type": "Point", "coordinates": [106.8986471, -6.2132396]}, "properties": {"id": "ix-Klender", "node_id": "ix-Klender", "name": "Klender", "connected_corridors": "LRT_JKT_2B,LRT_JKT_3B", "connected_modes": "lrt", "source": "masterplan interchange reconstruction", "confidence": "MEDIUM", "color": "#E58A3A"}}, {"type": "Feature", "id": "ix-Halim", "geometry": {"type": "Point", "coordinates": [106.8872795, -6.245852]}, "properties": {"id": "ix-Halim", "node_id": "ix-Halim", "name": "Halim", "connected_corridors": "LRT_JKT_3B", "connected_modes": "lrt", "source": "masterplan interchange reconstruction", "confidence": "MEDIUM", "color": "#E58A3A"}}, {"type": "Feature", "id": "ix-Harjamukti", "geometry": {"type": "Point", "coordinates": [106.8956864, -6.3738897]}, "properties": {"id": "ix-Harjamukti", "node_id": "ix-Harjamukti", "name": "Harjamukti", "connected_corridors": "LRT_09,LRT_BOGOR", "connected_modes": "lrt", "source": "masterplan interchange reconstruction", "confidence": "MEDIUM", "color": "#E58A3A"}}]}