{"type": "FeatureCollection", "features": [{"type": "Feature", "id": "krl-jakk", "geometry": {"type": "Point", "coordinates": [106.8161187, -6.1374675]}, "properties": {"id": "krl-jakk", "station_id": "krl-jakk", "station_name": "Jakarta Kota", "stop_name": "Jakarta Kota", "name": "Jakarta Kota", "station_code": "JAKK", "stop_code": "JAKK", "line_name": "Bogor / Tanjung Priok", "line_code": "B", "line_codes": ",B,TP,", "station_order": 1, "station_type": "terminus", "interchange": true, "interchange_label": "Simpul pertukaran", "branch": "", "active": true, "status": "existing", "status_label": "Jaringan saat ini", "mode": "KRL", "operator": "KAI Commuter", "latitude": -6.1374675, "longitude": 106.8161187, "source": "OpenStreetMap route relations KAI Commuter", "source_type": "osm", "source_url": "https://www.openstreetmap.org", "license": "ODbL", "geometry_source": "osm_station", "osm_id": 11455798861, "color": "#D83A72", "rail_dist_m": 0.0}}, {"type": "Feature", "id": "krl-jyk", "geometry": {"type": "Point", "coordinates": [106.8235244, -6.1420959]}, "properties": {"id": "krl-jyk", "station_id": "krl-jyk", "station_name": "Jayakarta", "stop_name": "Jayakarta", "name": "Jayakarta", "station_code": "JYK", "stop_code": "JYK", "line_name": "Bogor", "line_code": "B", "line_codes": ",B,", "station_order": 2, "station_type": "station", "interchange": false, "interchange_label": "", "branch": "", "active": true, "status": "existing", "status_label": "Jaringan saat ini", "mode": "KRL", "operator": "KAI Commuter", "latitude": -6.1420959, "longitude": 106.8235244, "source": "OpenStreetMap route relations KAI Commuter", "source_type": "osm", "source_url": "https://www.openstreetmap.org", "license": "ODbL", "geometry_source": "osm_station", "osm_id": 11455798864, "color": "#D83A72", "rail_dist_m": 0.0}}, {"type": "Feature", "id": "krl-mgb", "geometry": {"type": "Point", "coordinates": [106.8272222, -6.1512727]}, "properties": {"id": "krl-mgb", "station_id": "krl-mgb", "station_name": "Mangga Besar", "stop_name": "Mangga Besar", "name": "Mangga Besar", "station_code": "MGB", "stop_code": "MGB", "line_name": "Bogor", "line_code": "B", "line_codes": ",B,", "station_order": 3, "station_type": "station", "interchange": false, "interchange_label": "", "branch": "", "active": true, "status": "existing", "status_label": "Jaringan saat ini", "mode": "KRL", "operator": "KAI Commuter", "latitude": -6.1512727, "longitude": 106.8272222, "source": "OpenStreetMap route relations KAI Commuter", "source_type": "osm", "source_url": "https://www.openstreetmap.org", "license": "ODbL", "geometry_source": "osm_station", "osm_id": 116221355, "color": "#D83A72", "rail_dist_m": 0.0}}, {"type": "Feature", "id": "krl-swb", "geometry": {"type": "Point", "coordinates": [106.8280399, -6.1617916]}, "properties": {"id": "krl-swb", "station_id": "krl-swb", "station_name": "Sawah Besar", "stop_name": "Sawah Besar", "name": "Sawah Besar", "station_code": "SWB", "stop_code": "SWB", "line_name": "Bogor", "line_code": "B", "line_codes": ",B,", "station_order": 4, "station_type": "station", "interchange": false, "interchange_label": "", "branch": "", "active": true, "status": "existing", "status_label": "Jaringan saat ini", "mode": "KRL", "operator": "KAI Commuter", "latitude": -6.1617916, "longitude": 106.8280399, "source": "OpenStreetMap route relations KAI Commuter", "source_type": "osm", "source_url": "https://www.openstreetmap.org", "license": "ODbL", "geometry_source": "osm_station", "osm_id": 11292407283, "color": "#D83A72", "rail_dist_m": 0.0}}, {"type": "Feature", "id": "krl-jua", "geometry": {"type": "Point", "coordinates": [106.8304676, -6.1675618]}, "properties": {"id": "krl-jua", "station_id": "krl-jua", "station_name": "Juanda", "stop_name": "Juanda", "name": "Juanda", "station_code": "JUA", "stop_code": "JUA", "line_name": "Bogor", "line_code": "B", "line_codes": ",B,", "station_order": 5, "station_type": "station", "interchange": false, "interchange_label": "", "branch": "", "active": true, "status": "existing", "status_label": "Jaringan saat ini", "mode": "KRL", "operator": "KAI Commuter", "latitude": -6.1675618, "longitude": 106.8304676, "source": "OpenStreetMap route relations KAI Commuter", "source_type": "osm", "source_url": "https://www.openstreetmap.org", "license": "ODbL", "geometry_source": "osm_station", "osm_id": 11455860170, "color": "#D83A72", "rail_dist_m": 0.0}}, {"type": "Feature", "id": "krl-god", "geometry": {"type": "Point", "coordinates": [106.8328895, -6.1869328]}, "properties": {"id": "krl-god", "station_id": "krl-god", "station_name": "Gondangdia", "stop_name": "Gondangdia", "name": "Gondangdia", "station_code": "GOD", "stop_code": "GOD", "line_name": "Bogor", "line_code": "B", "line_codes": ",B,", "station_order": 6, "station_type": "station", "interchange": false, "interchange_label": "", "branch": "", "active": true, "status": "existing", "status_label": "Jaringan saat ini", "mode": "KRL", "operator": "KAI Commuter", "latitude": -6.1869328, "longitude": 106.8328895, "source": "OpenStreetMap route relations KAI Commuter", "source_type": "osm", "source_url": "https://www.openstreetmap.org", "license": "ODbL", "geometry_source": "osm_station", "osm_id": 116221571, "color": "#D83A72", "rail_dist_m": 0.0}}, {"type": "Feature", "id": "krl-cki", "geometry": {"type": "Point", "coordinates": [106.8418573, -6.1993745]}, "properties": {"id": "krl-cki", "station_id": "krl-cki", "station_name": "Cikini", "stop_name": "Cikini", "name": "Cikini", "station_code": "CKI", "stop_code": "CKI", "line_name": "Bogor", "line_code": "B", "line_codes": ",B,", "station_order": 7, "station_type": "station", "interchange": false, "interchange_label": "", "branch": "", "active": true, "status": "existing", "status_label": "Jaringan saat ini", "mode": "KRL", "operator": "KAI Commuter", "latitude": -6.1993745, "longitude": 106.8418573, "source": "OpenStreetMap route relations KAI Commuter", "source_type": "osm", "source_url": "https://www.openstreetmap.org", "license": "ODbL", "geometry_source": "osm_station", "osm_id": 316168385, "color": "#D83A72", "rail_dist_m": 0.0}}, {"type": "Feature", "id": "krl-mri", "geometry": {"type": "Point", "coordinates": [106.8502457, -6.2110955]}, "properties": {"id": "krl-mri", "station_id": "krl-mri", "station_name": "Manggarai", "stop_name": "Manggarai", "name": "Manggarai", "station_code": "MRI", "stop_code": "MRI", "line_name": "Bogor / Cikarang", "line_code": "B", "line_codes": ",B,C,", "station_order": 8, "station_type": "interchange", "interchange": true, "interchange_label": "Simpul pertukaran", "branch": "", "active": true, "status": "existing", "status_label": "Jaringan saat ini", "mode": "KRL", "operator": "KAI Commuter", "latitude": -6.2110955, "longitude": 106.8502457, "source": "OpenStreetMap route relations KAI Commuter", "source_type": "osm", "source_url": "https://www.openstreetmap.org", "license": "ODbL", "geometry_source": "osm_station", "osm_id": 10313753488, "color": "#D83A72", "rail_dist_m": 0.0}}, {"type": "Feature", "id": "krl-teb", "geometry": {"type": "Point", "coordinates": [106.8584186, -6.227533]}, "properties": {"id": "krl-teb", "station_id": "krl-teb", "station_name": "Tebet", "stop_name": "Tebet", "name": "Tebet", "station_code": "TEB", "stop_code": "TEB", "line_name": "Bogor", "line_code": "B", "line_codes": ",B,", "station_order": 9, "station_type": "station", "interchange": false, "interchange_label": "", "branch": "", "active": true, "status": "existing", "status_label": "Jaringan saat ini", "mode": "KRL", "operator": "KAI Commuter", "latitude": -6.227533, "longitude": 106.8584186, "source": "OpenStreetMap route relations KAI Commuter", "source_type": "osm", "source_url": "https://www.openstreetmap.org", "license": "ODbL", "geometry_source": "osm_station", "osm_id": 10067200229, "color": "#D83A72", "rail_dist_m": 0.0}}, {"type": "Feature", "id": "krl-cw", "geometry": {"type": "Point", "coordinates": [106.8586732, -6.2425503]}, "properties": {"id": "krl-cw", "station_id": "krl-cw", "station_name": "Cawang", "stop_name": "Cawang", "name": "Cawang", "station_code": "CW", "stop_code": "CW", "line_name": "Bogor", "line_code": "B", "line_codes": ",B,", "station_order": 10, "station_type": "station", "interchange": false, "interchange_label": "", "branch": "", "active": true, "status": "existing", "status_label": "Jaringan saat ini", "mode": "KRL", "operator": "KAI Commuter", "latitude": -6.2425503, "longitude": 106.8586732, "source": "OpenStreetMap route relations KAI Commuter", "source_type": "osm", "source_url": "https://www.openstreetmap.org", "license": "ODbL", "geometry_source": "osm_station", "osm_id": 10067200227, "color": "#D83A72", "rail_dist_m": 0.0}}, {"type": "Feature", "id": "krl-drn", "geometry": {"type": "Point", "coordinates": [106.8550306, -6.2554463]}, "properties": {"id": "krl-drn", "station_id": "krl-drn", "station_name": "Duren Kalibata", "stop_name": "Duren Kalibata", "name": "Duren Kalibata", "station_code": "DRN", "stop_code": "DRN", "line_name": "Bogor", "line_code": "B", "line_codes": ",B,", "station_order": 11, "station_type": "station", "interchange": false, "interchange_label": "", "branch": "", "active": true, "status": "existing", "status_label": "Jaringan saat ini", "mode": "KRL", "operator": "KAI Commuter", "latitude": -6.2554463, "longitude": 106.8550306, "source": "OpenStreetMap route relations KAI Commuter", "source_type": "osm", "source_url": "https://www.openstreetmap.org", "license": "ODbL", "geometry_source": "osm_station", "osm_id": 8213948760, "color": "#D83A72", "rail_dist_m": 0.0}}, {"type": "Feature", "id": "krl-psmb", "geometry": {"type": "Point", "coordinates": [106.8510992, -6.2642983]}, "properties": {"id": "krl-psmb", "station_id": "krl-psmb", "station_name": "Pasar Minggu Baru", "stop_name": "Pasar Minggu Baru", "name": "Pasar Minggu Baru", "station_code": "PSMB", "stop_code": "PSMB", "line_name": "Bogor", "line_code": "B", "line_codes": ",B,", "station_order": 12, "station_type": "station", "interchange": false, "interchange_label": "", "branch": "", "active": true, "status": "existing", "status_label": "Jaringan saat ini", "mode": "KRL", "operator": "KAI Commuter", "latitude": -6.2642983, "longitude": 106.8510992, "source": "OpenStreetMap route relations KAI Commuter", "source_type": "osm", "source_url": "https://www.openstreetmap.org", "license": "ODbL", "geometry_source": "osm_station", "osm_id": 4881688224, "color": "#D83A72", "rail_dist_m": 0.0}}, {"type": "Feature", "id": "krl-psm", "geometry": {"type": "Point", "coordinates": [106.8447574, -6.2837674]}, "properties": {"id": "krl-psm", "station_id": "krl-psm", "station_name": "Pasar Minggu", "stop_name": "Pasar Minggu", "name": "Pasar Minggu", "station_code": "PSM", "stop_code": "PSM", "line_name": "Bogor", "line_code": "B", "line_codes": ",B,", "station_order": 13, "station_type": "station", "interchange": false, "interchange_label": "", "branch": "", "active": true, "status": "existing", "status_label": "Jaringan saat ini", "mode": "KRL", "operator": "KAI Commuter", "latitude": -6.2837674, "longitude": 106.8447574, "source": "OpenStreetMap route relations KAI Commuter", "source_type": "osm", "source_url": "https://www.openstreetmap.org", "license": "ODbL", "geometry_source": "osm_station", "osm_id": 10067200224, "color": "#D83A72", "rail_dist_m": 0.0}}, {"type": "Feature", "id": "krl-tjb", "geometry": {"type": "Point", "coordinates": [106.8386475, -6.3096921]}, "properties": {"id": "krl-tjb", "station_id": "krl-tjb", "station_name": "Tanjung Barat", "stop_name": "Tanjung Barat", "name": "Tanjung Barat", "station_code": "TJB", "stop_code": "TJB", "line_name": "Bogor", "line_code": "B", "line_codes": ",B,", "station_order": 14, "station_type": "station", "interchange": false, "interchange_label": "", "branch": "", "active": true, "status": "existing", "status_label": "Jaringan saat ini", "mode": "KRL", "operator": "KAI Commuter", "latitude": -6.3096921, "longitude": 106.8386475, "source": "OpenStreetMap route relations KAI Commuter", "source_type": "osm", "source_url": "https://www.openstreetmap.org", "license": "ODbL", "geometry_source": "osm_station", "osm_id": 10067200222, "color": "#D83A72", "rail_dist_m": 0.0}}, {"type": "Feature", "id": "krl-lna", "geometry": {"type": "Point", "coordinates": [106.834817, -6.3306245]}, "properties": {"id": "krl-lna", "station_id": "krl-lna", "station_name": "Lenteng Agung", "stop_name": "Lenteng Agung", "name": "Lenteng Agung", "station_code": "LNA", "stop_code": "LNA", "line_name": "Bogor", "line_code": "B", "line_codes": ",B,", "station_order": 15, "station_type": "station", "interchange": false, "interchange_label": "", "branch": "", "active": true, "status": "existing", "status_label": "Jaringan saat ini", "mode": "KRL", "operator": "KAI Commuter", "latitude": -6.3306245, "longitude": 106.834817, "source": "OpenStreetMap route relations KAI Commuter", "source_type": "osm", "source_url": "https://www.openstreetmap.org", "license": "ODbL", "geometry_source": "osm_station", "osm_id": 2351913722, "color": "#D83A72", "rail_dist_m": 0.0}}, {"type": "Feature", "id": "krl-up", "geometry": {"type": "Point", "coordinates": [106.8339225, -6.3406626]}, "properties": {"id": "krl-up", "station_id": "krl-up", "station_name": "Universitas Pancasila", "stop_name": "Universitas Pancasila", "name": "Universitas Pancasila", "station_code": "UP", "stop_code": "UP", "line_name": "Bogor", "line_code": "B", "line_codes": ",B,", "station_order": 16, "station_type": "station", "interchange": false, "interchange_label": "", "branch": "", "active": true, "status": "existing", "status_label": "Jaringan saat ini", "mode": "KRL", "operator": "KAI Commuter", "latitude": -6.3406626, "longitude": 106.8339225, "source": "OpenStreetMap route relations KAI Commuter", "source_type": "osm", "source_url": "https://www.openstreetmap.org", "license": "ODbL", "geometry_source": "osm_station", "osm_id": 10067200220, "color": "#D83A72", "rail_dist_m": 0.0}}, {"type": "Feature", "id": "krl-ui", "geometry": {"type": "Point", "coordinates": [106.8317755, -6.3605313]}, "properties": {"id": "krl-ui", "station_id": "krl-ui", "station_name": "Universitas Indonesia", "stop_name": "Universitas Indonesia", "name": "Universitas Indonesia", "station_code": "UI", "stop_code": "UI", "line_name": "Bogor", "line_code": "B", "line_codes": ",B,", "station_order": 17, "station_type": "station", "interchange": false, "interchange_label": "", "branch": "", "active": true, "status": "existing", "status_label": "Jaringan saat ini", "mode": "KRL", "operator": "KAI Commuter", "latitude": -6.3605313, "longitude": 106.8317755, "source": "OpenStreetMap route relations KAI Commuter", "source_type": "osm", "source_url": "https://www.openstreetmap.org", "license": "ODbL", "geometry_source": "osm_station", "osm_id": 10067200219, "color": "#D83A72", "rail_dist_m": 0.0}}, {"type": "Feature", "id": "krl-poc", "geometry": {"type": "Point", "coordinates": [106.8320943, -6.3689544]}, "properties": {"id": "krl-poc", "station_id": "krl-poc", "station_name": "Pondok Cina", "stop_name": "Pondok Cina", "name": "Pondok Cina", "station_code": "POC", "stop_code": "POC", "line_name": "Bogor", "line_code": "B", "line_codes": ",B,", "station_order": 18, "station_type": "station", "interchange": false, "interchange_label": "", "branch": "", "active": true, "status": "existing", "status_label": "Jaringan saat ini", "mode": "KRL", "operator": "KAI Commuter", "latitude": -6.3689544, "longitude": 106.8320943, "source": "OpenStreetMap route relations KAI Commuter", "source_type": "osm", "source_url": "https://www.openstreetmap.org", "license": "ODbL", "geometry_source": "osm_station", "osm_id": 10067200218, "color": "#D83A72", "rail_dist_m": 0.0}}, {"type": "Feature", "id": "krl-dpb", "geometry": {"type": "Point", "coordinates": [106.8212108, -6.3920709]}, "properties": {"id": "krl-dpb", "station_id": "krl-dpb", "station_name": "Depok Baru", "stop_name": "Depok Baru", "name": "Depok Baru", "station_code": "DPB", "stop_code": "DPB", "line_name": "Bogor", "line_code": "B", "line_codes": ",B,", "station_order": 19, "station_type": "station", "interchange": false, "interchange_label": "", "branch": "", "active": true, "status": "existing", "status_label": "Jaringan saat ini", "mode": "KRL", "operator": "KAI Commuter", "latitude": -6.3920709, "longitude": 106.8212108, "source": "OpenStreetMap route relations KAI Commuter", "source_type": "osm", "source_url": "https://www.openstreetmap.org", "license": "ODbL", "geometry_source": "osm_station", "osm_id": 10067200217, "color": "#D83A72", "rail_dist_m": 0.0}}, {"type": "Feature", "id": "krl-dp", "geometry": {"type": "Point", "coordinates": [106.8169425, -6.4050226]}, "properties": {"id": "krl-dp", "station_id": "krl-dp", "station_name": "Depok", "stop_name": "Depok", "name": "Depok", "station_code": "DP", "stop_code": "DP", "line_name": "Bogor", "line_code": "B", "line_codes": ",B,", "station_order": 20, "station_type": "station", "interchange": false, "interchange_label": "", "branch": "", "active": true, "status": "existing", "status_label": "Jaringan saat ini", "mode": "KRL", "operator": "KAI Commuter", "latitude": -6.4050226, "longitude": 106.8169425, "source": "OpenStreetMap route relations KAI Commuter", "source_type": "osm", "source_url": "https://www.openstreetmap.org", "license": "ODbL", "geometry_source": "osm_station", "osm_id": 1642327182, "color": "#D83A72", "rail_dist_m": 0.0}}, {"type": "Feature", "id": "krl-cta", "geometry": {"type": "Point", "coordinates": [106.8020558, -6.4500288]}, "properties": {"id": "krl-cta", "station_id": "krl-cta", "station_name": "Citayam", "stop_name": "Citayam", "name": "Citayam", "station_code": "CTA", "stop_code": "CTA", "line_name": "Bogor", "line_code": "B", "line_codes": ",B,", "station_order": 21, "station_type": "branching", "interchange": false, "interchange_label": "Simpul pertukaran", "branch": "junction", "active": true, "status": "existing", "status_label": "Jaringan saat ini", "mode": "KRL", "operator": "KAI Commuter", "latitude": -6.4500288, "longitude": 106.8020558, "source": "OpenStreetMap route relations KAI Commuter", "source_type": "osm", "source_url": "https://www.openstreetmap.org", "license": "ODbL", "geometry_source": "osm_station", "osm_id": 7801985487, "color": "#D83A72", "rail_dist_m": 0.0}}, {"type": "Feature", "id": "krl-bjd", "geometry": {"type": "Point", "coordinates": [106.7949591, -6.4940161]}, "properties": {"id": "krl-bjd", "station_id": "krl-bjd", "station_name": "Bojong Gede", "stop_name": "Bojong Gede", "name": "Bojong Gede", "station_code": "BJD", "stop_code": "BJD", "line_name": "Bogor", "line_code": "B", "line_codes": ",B,", "station_order": 22, "station_type": "station", "interchange": false, "interchange_label": "", "branch": "", "active": true, "status": "existing", "status_label": "Jaringan saat ini", "mode": "KRL", "operator": "KAI Commuter", "latitude": -6.4940161, "longitude": 106.7949591, "source": "OpenStreetMap route relations KAI Commuter", "source_type": "osm", "source_url": "https://www.openstreetmap.org", "license": "ODbL", "geometry_source": "osm_station", "osm_id": 10067186908, "color": "#D83A72", "rail_dist_m": 0.0}}, {"type": "Feature", "id": "krl-clt", "geometry": {"type": "Point", "coordinates": [106.8005129, -6.532102]}, "properties": {"id": "krl-clt", "station_id": "krl-clt", "station_name": "Cilebut", "stop_name": "Cilebut", "name": "Cilebut", "station_code": "CLT", "stop_code": "CLT", "line_name": "Bogor", "line_code": "B", "line_codes": ",B,", "station_order": 23, "station_type": "station", "interchange": false, "interchange_label": "", "branch": "", "active": true, "status": "existing", "status_label": "Jaringan saat ini", "mode": "KRL", "operator": "KAI Commuter", "latitude": -6.532102, "longitude": 106.8005129, "source": "OpenStreetMap route relations KAI Commuter", "source_type": "osm", "source_url": "https://www.openstreetmap.org", "license": "ODbL", "geometry_source": "osm_station", "osm_id": 2751644734, "color": "#D83A72", "rail_dist_m": 0.0}}, {"type": "Feature", "id": "krl-boo", "geometry": {"type": "Point", "coordinates": [106.7907159, -6.5942866]}, "properties": {"id": "krl-boo", "station_id": "krl-boo", "station_name": "Bogor", "stop_name": "Bogor", "name": "Bogor", "station_code": "BOO", "stop_code": "BOO", "line_name": "Bogor", "line_code": "B", "line_codes": ",B,", "station_order": 24, "station_type": "terminus", "interchange": false, "interchange_label": "", "branch": "", "active": true, "status": "existing", "status_label": "Jaringan saat ini", "mode": "KRL", "operator": "KAI Commuter", "latitude": -6.5942866, "longitude": 106.7907159, "source": "OpenStreetMap route relations KAI Commuter", "source_type": "osm", "source_url": "https://www.openstreetmap.org", "license": "ODbL", "geometry_source": "osm_station", "osm_id": 9207879489, "color": "#D83A72", "rail_dist_m": 0.0}}, {"type": "Feature", "id": "krl-pdrg", "geometry": {"type": "Point", "coordinates": [106.824296, -6.4607829]}, "properties": {"id": "krl-pdrg", "station_id": "krl-pdrg", "station_name": "Pondok Rajeg", "stop_name": "Pondok Rajeg", "name": "Pondok Rajeg", "station_code": "PDRG", "stop_code": "PDRG", "line_name": "Bogor", "line_code": "B", "line_codes": ",B,", "station_order": 2, "station_type": "station", "interchange": false, "interchange_label": "", "branch": "nambo", "active": true, "status": "existing", "status_label": "Jaringan saat ini", "mode": "KRL", "operator": "KAI Commuter", "latitude": -6.4607829, "longitude": 106.824296, "source": "OpenStreetMap / Nominatim", "source_type": "osm", "source_url": "https://www.openstreetmap.org", "license": "ODbL", "geometry_source": "osm_station", "osm_id": 1228345121, "color": "#D83A72", "rail_dist_m": 10.5}}, {"type": "Feature", "id": "krl-cbn", "geometry": {"type": "Point", "coordinates": [106.8533411, -6.4639777]}, "properties": {"id": "krl-cbn", "station_id": "krl-cbn", "station_name": "Cibinong", "stop_name": "Cibinong", "name": "Cibinong", "station_code": "CBN", "stop_code": "CBN", "line_name": "Bogor", "line_code": "B", "line_codes": ",B,", "station_order": 3, "station_type": "station", "interchange": false, "interchange_label": "", "branch": "nambo", "active": true, "status": "existing", "status_label": "Jaringan saat ini", "mode": "KRL", "operator": "KAI Commuter", "latitude": -6.4639777, "longitude": 106.8533411, "source": "OpenStreetMap route relations KAI Commuter", "source_type": "osm", "source_url": "https://www.openstreetmap.org", "license": "ODbL", "geometry_source": "osm_station", "osm_id": 11612184557, "color": "#D83A72", "rail_dist_m": 0.0}}, {"type": "Feature", "id": "krl-nmo", "geometry": {"type": "Point", "coordinates": [106.9055193, -6.4668163]}, "properties": {"id": "krl-nmo", "station_id": "krl-nmo", "station_name": "Nambo", "stop_name": "Nambo", "name": "Nambo", "station_code": "NMO", "stop_code": "NMO", "line_name": "Bogor", "line_code": "B", "line_codes": ",B,", "station_order": 4, "station_type": "terminus", "interchange": false, "interchange_label": "", "branch": "nambo", "active": true, "status": "existing", "status_label": "Jaringan saat ini", "mode": "KRL", "operator": "KAI Commuter", "latitude": -6.4668163, "longitude": 106.9055193, "source": "OpenStreetMap route relations KAI Commuter", "source_type": "osm", "source_url": "https://www.openstreetmap.org", "license": "ODbL", "geometry_source": "osm_station", "osm_id": 11612184559, "color": "#D83A72", "rail_dist_m": 0.0}}, {"type": "Feature", "id": "krl-thb", "geometry": {"type": "Point", "coordinates": [106.8107942, -6.186527]}, "properties": {"id": "krl-thb", "station_id": "krl-thb", "station_name": "Tanah Abang", "stop_name": "Tanah Abang", "name": "Tanah Abang", "station_code": "THB", "stop_code": "THB", "line_name": "Rangkasbitung / Cikarang", "line_code": "C", "line_codes": ",C,R,", "station_order": 17, "station_type": "interchange", "interchange": true, "interchange_label": "Simpul pertukaran", "branch": "", "active": true, "status": "existing", "status_label": "Jaringan saat ini", "mode": "KRL", "operator": "KAI Commuter", "latitude": -6.186527, "longitude": 106.8107942, "source": "OpenStreetMap route relations KAI Commuter", "source_type": "osm", "source_url": "https://www.openstreetmap.org", "license": "ODbL", "geometry_source": "osm_station", "osm_id": 3863495024, "color": "#D83A72", "rail_dist_m": 0.0}}, {"type": "Feature", "id": "krl-plm", "geometry": {"type": "Point", "coordinates": [106.7971063, -6.2082024]}, "properties": {"id": "krl-plm", "station_id": "krl-plm", "station_name": "Palmerah", "stop_name": "Palmerah", "name": "Palmerah", "station_code": "PLM", "stop_code": "PLM", "line_name": "Rangkasbitung", "line_code": "R", "line_codes": ",R,", "station_order": 2, "station_type": "station", "interchange": false, "interchange_label": "", "branch": "", "active": true, "status": "existing", "status_label": "Jaringan saat ini", "mode": "KRL", "operator": "KAI Commuter", "latitude": -6.2082024, "longitude": 106.7971063, "source": "OpenStreetMap route relations KAI Commuter", "source_type": "osm", "source_url": "https://www.openstreetmap.org", "license": "ODbL", "geometry_source": "osm_station", "osm_id": 10312804537, "color": "#D83A72", "rail_dist_m": 0.0}}, {"type": "Feature", "id": "krl-kby", "geometry": {"type": "Point", "coordinates": [106.7822802, -6.2378425]}, "properties": {"id": "krl-kby", "station_id": "krl-kby", "station_name": "Kebayoran", "stop_name": "Kebayoran", "name": "Kebayoran", "station_code": "KBY", "stop_code": "KBY", "line_name": "Rangkasbitung", "line_code": "R", "line_codes": ",R,", "station_order": 3, "station_type": "station", "interchange": false, "interchange_label": "", "branch": "", "active": true, "status": "existing", "status_label": "Jaringan saat ini", "mode": "KRL", "operator": "KAI Commuter", "latitude": -6.2378425, "longitude": 106.7822802, "source": "OpenStreetMap route relations KAI Commuter", "source_type": "osm", "source_url": "https://www.openstreetmap.org", "license": "ODbL", "geometry_source": "osm_station", "osm_id": 10312804539, "color": "#D83A72", "rail_dist_m": 0.0}}, {"type": "Feature", "id": "krl-pdj", "geometry": {"type": "Point", "coordinates": [106.7435652, -6.2775918]}, "properties": {"id": "krl-pdj", "station_id": "krl-pdj", "station_name": "Pondok Ranji", "stop_name": "Pondok Ranji", "name": "Pondok Ranji", "station_code": "PDJ", "stop_code": "PDJ", "line_name": "Rangkasbitung", "line_code": "R", "line_codes": ",R,", "station_order": 4, "station_type": "station", "interchange": false, "interchange_label": "", "branch": "", "active": true, "status": "existing", "status_label": "Jaringan saat ini", "mode": "KRL", "operator": "KAI Commuter", "latitude": -6.2775918, "longitude": 106.7435652, "source": "OpenStreetMap route relations KAI Commuter", "source_type": "osm", "source_url": "https://www.openstreetmap.org", "license": "ODbL", "geometry_source": "osm_station", "osm_id": 7764938190, "color": "#D83A72", "rail_dist_m": 0.0}}, {"type": "Feature", "id": "krl-jrg", "geometry": {"type": "Point", "coordinates": [106.7274854, -6.2897484]}, "properties": {"id": "krl-jrg", "station_id": "krl-jrg", "station_name": "Jurangmangu", "stop_name": "Jurangmangu", "name": "Jurangmangu", "station_code": "JRG", "stop_code": "JRG", "line_name": "Rangkasbitung", "line_code": "R", "line_codes": ",R,", "station_order": 5, "station_type": "station", "interchange": false, "interchange_label": "", "branch": "", "active": true, "status": "existing", "status_label": "Jaringan saat ini", "mode": "KRL", "operator": "KAI Commuter", "latitude": -6.2897484, "longitude": 106.7274854, "source": "OpenStreetMap route relations KAI Commuter", "source_type": "osm", "source_url": "https://www.openstreetmap.org", "license": "ODbL", "geometry_source": "osm_station", "osm_id": 10312804542, "color": "#D83A72", "rail_dist_m": 0.0}}, {"type": "Feature", "id": "krl-sdm", "geometry": {"type": "Point", "coordinates": [106.7118672, -6.2972742]}, "properties": {"id": "krl-sdm", "station_id": "krl-sdm", "station_name": "Sudimara", "stop_name": "Sudimara", "name": "Sudimara", "station_code": "SDM", "stop_code": "SDM", "line_name": "Rangkasbitung", "line_code": "R", "line_codes": ",R,", "station_order": 6, "station_type": "station", "interchange": false, "interchange_label": "", "branch": "", "active": true, "status": "existing", "status_label": "Jaringan saat ini", "mode": "KRL", "operator": "KAI Commuter", "latitude": -6.2972742, "longitude": 106.7118672, "source": "OpenStreetMap route relations KAI Commuter", "source_type": "osm", "source_url": "https://www.openstreetmap.org", "license": "ODbL", "geometry_source": "osm_station", "osm_id": 10312804544, "color": "#D83A72", "rail_dist_m": 0.0}}, {"type": "Feature", "id": "krl-ru", "geometry": {"type": "Point", "coordinates": [106.6750473, -6.3155065]}, "properties": {"id": "krl-ru", "station_id": "krl-ru", "station_name": "Rawa Buntu", "stop_name": "Rawa Buntu", "name": "Rawa Buntu", "station_code": "RU", "stop_code": "RU", "line_name": "Rangkasbitung", "line_code": "R", "line_codes": ",R,", "station_order": 7, "station_type": "station", "interchange": false, "interchange_label": "", "branch": "", "active": true, "status": "existing", "status_label": "Jaringan saat ini", "mode": "KRL", "operator": "KAI Commuter", "latitude": -6.3155065, "longitude": 106.6750473, "source": "OpenStreetMap route relations KAI Commuter", "source_type": "osm", "source_url": "https://www.openstreetmap.org", "license": "ODbL", "geometry_source": "osm_station", "osm_id": 5459506704, "color": "#D83A72", "rail_dist_m": 0.0}}, {"type": "Feature", "id": "krl-srp", "geometry": {"type": "Point", "coordinates": [106.6647456, -6.3201457]}, "properties": {"id": "krl-srp", "station_id": "krl-srp", "station_name": "Serpong", "stop_name": "Serpong", "name": "Serpong", "station_code": "SRP", "stop_code": "SRP", "line_name": "Rangkasbitung", "line_code": "R", "line_codes": ",R,", "station_order": 8, "station_type": "station", "interchange": false, "interchange_label": "", "branch": "", "active": true, "status": "existing", "status_label": "Jaringan saat ini", "mode": "KRL", "operator": "KAI Commuter", "latitude": -6.3201457, "longitude": 106.6647456, "source": "OpenStreetMap route relations KAI Commuter", "source_type": "osm", "source_url": "https://www.openstreetmap.org", "license": "ODbL", "geometry_source": "osm_station", "osm_id": 10312804548, "color": "#D83A72", "rail_dist_m": 0.0}}, {"type": "Feature", "id": "krl-csk", "geometry": {"type": "Point", "coordinates": [106.6405909, -6.3249543]}, "properties": {"id": "krl-csk", "station_id": "krl-csk", "station_name": "Cisauk", "stop_name": "Cisauk", "name": "Cisauk", "station_code": "CSK", "stop_code": "CSK", "line_name": "Rangkasbitung", "line_code": "R", "line_codes": ",R,", "station_order": 9, "station_type": "station", "interchange": false, "interchange_label": "", "branch": "", "active": true, "status": "existing", "status_label": "Jaringan saat ini", "mode": "KRL", "operator": "KAI Commuter", "latitude": -6.3249543, "longitude": 106.6405909, "source": "OpenStreetMap route relations KAI Commuter", "source_type": "osm", "source_url": "https://www.openstreetmap.org", "license": "ODbL", "geometry_source": "osm_station", "osm_id": 7249140955, "color": "#D83A72", "rail_dist_m": 0.0}}, {"type": "Feature", "id": "krl-cc", "geometry": {"type": "Point", "coordinates": [106.6181652, -6.3299806]}, "properties": {"id": "krl-cc", "station_id": "krl-cc", "station_name": "Cicayur", "stop_name": "Cicayur", "name": "Cicayur", "station_code": "CC", "stop_code": "CC", "line_name": "Rangkasbitung", "line_code": "R", "line_codes": ",R,", "station_order": 10, "station_type": "station", "interchange": false, "interchange_label": "", "branch": "", "active": true, "status": "existing", "status_label": "Jaringan saat ini", "mode": "KRL", "operator": "KAI Commuter", "latitude": -6.3299806, "longitude": 106.6181652, "source": "OpenStreetMap route relations KAI Commuter", "source_type": "osm", "source_url": "https://www.openstreetmap.org", "license": "ODbL", "geometry_source": "osm_station", "osm_id": 3866795813, "color": "#D83A72", "rail_dist_m": 0.0}}, {"type": "Feature", "id": "krl-jtk", "geometry": {"type": "Point", "coordinates": [106.6055569, -6.3351923]}, "properties": {"id": "krl-jtk", "station_id": "krl-jtk", "station_name": "Jatake", "stop_name": "Jatake", "name": "Jatake", "station_code": "JTK", "stop_code": "JTK", "line_name": "Rangkasbitung", "line_code": "R", "line_codes": ",R,", "station_order": 11, "station_type": "station", "interchange": false, "interchange_label": "", "branch": "", "active": true, "status": "existing", "status_label": "Jaringan saat ini", "mode": "KRL", "operator": "KAI Commuter", "latitude": -6.3351923, "longitude": 106.6055569, "source": "OpenStreetMap route relations KAI Commuter", "source_type": "osm", "source_url": "https://www.openstreetmap.org", "license": "ODbL", "geometry_source": "osm_station", "osm_id": 13507290040, "color": "#D83A72", "rail_dist_m": 0.0}}, {"type": "Feature", "id": "krl-prp", "geometry": {"type": "Point", "coordinates": [106.568689, -6.3442507]}, "properties": {"id": "krl-prp", "station_id": "krl-prp", "station_name": "Parung Panjang", "stop_name": "Parung Panjang", "name": "Parung Panjang", "station_code": "PRP", "stop_code": "PRP", "line_name": "Rangkasbitung", "line_code": "R", "line_codes": ",R,", "station_order": 12, "station_type": "station", "interchange": false, "interchange_label": "", "branch": "", "active": true, "status": "existing", "status_label": "Jaringan saat ini", "mode": "KRL", "operator": "KAI Commuter", "latitude": -6.3442507, "longitude": 106.568689, "source": "OpenStreetMap route relations KAI Commuter", "source_type": "osm", "source_url": "https://www.openstreetmap.org", "license": "ODbL", "geometry_source": "osm_station", "osm_id": 10312804551, "color": "#D83A72", "rail_dist_m": 0.0}}, {"type": "Feature", "id": "krl-cjt", "geometry": {"type": "Point", "coordinates": [106.5087629, -6.3536625]}, "properties": {"id": "krl-cjt", "station_id": "krl-cjt", "station_name": "Cilejit", "stop_name": "Cilejit", "name": "Cilejit", "station_code": "CJT", "stop_code": "CJT", "line_name": "Rangkasbitung", "line_code": "R", "line_codes": ",R,", "station_order": 13, "station_type": "station", "interchange": false, "interchange_label": "", "branch": "", "active": true, "status": "existing", "status_label": "Jaringan saat ini", "mode": "KRL", "operator": "KAI Commuter", "latitude": -6.3536625, "longitude": 106.5087629, "source": "OpenStreetMap route relations KAI Commuter", "source_type": "osm", "source_url": "https://www.openstreetmap.org", "license": "ODbL", "geometry_source": "osm_station", "osm_id": 10312804554, "color": "#D83A72", "rail_dist_m": 0.0}}, {"type": "Feature", "id": "krl-dar", "geometry": {"type": "Point", "coordinates": [106.4921372, -6.3370744]}, "properties": {"id": "krl-dar", "station_id": "krl-dar", "station_name": "Daru", "stop_name": "Daru", "name": "Daru", "station_code": "DAR", "stop_code": "DAR", "line_name": "Rangkasbitung", "line_code": "R", "line_codes": ",R,", "station_order": 14, "station_type": "station", "interchange": false, "interchange_label": "", "branch": "", "active": true, "status": "existing", "status_label": "Jaringan saat ini", "mode": "KRL", "operator": "KAI Commuter", "latitude": -6.3370744, "longitude": 106.4921372, "source": "OpenStreetMap route relations KAI Commuter", "source_type": "osm", "source_url": "https://www.openstreetmap.org", "license": "ODbL", "geometry_source": "osm_station", "osm_id": 3869818282, "color": "#D83A72", "rail_dist_m": 0.0}}, {"type": "Feature", "id": "krl-tjo", "geometry": {"type": "Point", "coordinates": [106.4607973, -6.3268782]}, "properties": {"id": "krl-tjo", "station_id": "krl-tjo", "station_name": "Tenjo", "stop_name": "Tenjo", "name": "Tenjo", "station_code": "TJO", "stop_code": "TJO", "line_name": "Rangkasbitung", "line_code": "R", "line_codes": ",R,", "station_order": 15, "station_type": "station", "interchange": false, "interchange_label": "", "branch": "", "active": true, "status": "existing", "status_label": "Jaringan saat ini", "mode": "KRL", "operator": "KAI Commuter", "latitude": -6.3268782, "longitude": 106.4607973, "source": "OpenStreetMap route relations KAI Commuter", "source_type": "osm", "source_url": "https://www.openstreetmap.org", "license": "ODbL", "geometry_source": "osm_station", "osm_id": 9654944262, "color": "#D83A72", "rail_dist_m": 0.0}}, {"type": "Feature", "id": "krl-tgs", "geometry": {"type": "Point", "coordinates": [106.4330918, -6.3292162]}, "properties": {"id": "krl-tgs", "station_id": "krl-tgs", "station_name": "Tigaraksa", "stop_name": "Tigaraksa", "name": "Tigaraksa", "station_code": "TGS", "stop_code": "TGS", "line_name": "Rangkasbitung", "line_code": "R", "line_codes": ",R,", "station_order": 16, "station_type": "station", "interchange": false, "interchange_label": "", "branch": "", "active": true, "status": "existing", "status_label": "Jaringan saat ini", "mode": "KRL", "operator": "KAI Commuter", "latitude": -6.3292162, "longitude": 106.4330918, "source": "OpenStreetMap route relations KAI Commuter", "source_type": "osm", "source_url": "https://www.openstreetmap.org", "license": "ODbL", "geometry_source": "osm_station", "osm_id": 10312804556, "color": "#D83A72", "rail_dist_m": 0.0}}, {"type": "Feature", "id": "krl-cky", "geometry": {"type": "Point", "coordinates": [106.4116547, -6.3357385]}, "properties": {"id": "krl-cky", "station_id": "krl-cky", "station_name": "Cikoya", "stop_name": "Cikoya", "name": "Cikoya", "station_code": "CKY", "stop_code": "CKY", "line_name": "Rangkasbitung", "line_code": "R", "line_codes": ",R,", "station_order": 17, "station_type": "station", "interchange": false, "interchange_label": "", "branch": "", "active": true, "status": "existing", "status_label": "Jaringan saat ini", "mode": "KRL", "operator": "KAI Commuter", "latitude": -6.3357385, "longitude": 106.4116547, "source": "OpenStreetMap / Nominatim", "source_type": "osm", "source_url": "https://www.openstreetmap.org", "license": "ODbL", "geometry_source": "osm_station", "osm_id": 5310716224, "color": "#D83A72", "rail_dist_m": 1.3}}, {"type": "Feature", "id": "krl-mj", "geometry": {"type": "Point", "coordinates": [106.3949324, -6.3318303]}, "properties": {"id": "krl-mj", "station_id": "krl-mj", "station_name": "Maja", "stop_name": "Maja", "name": "Maja", "station_code": "MJ", "stop_code": "MJ", "line_name": "Rangkasbitung", "line_code": "R", "line_codes": ",R,", "station_order": 18, "station_type": "station", "interchange": false, "interchange_label": "", "branch": "", "active": true, "status": "existing", "status_label": "Jaringan saat ini", "mode": "KRL", "operator": "KAI Commuter", "latitude": -6.3318303, "longitude": 106.3949324, "source": "OpenStreetMap route relations KAI Commuter", "source_type": "osm", "source_url": "https://www.openstreetmap.org", "license": "ODbL", "geometry_source": "osm_station", "osm_id": 3869818667, "color": "#D83A72", "rail_dist_m": 0.0}}, {"type": "Feature", "id": "krl-ctr", "geometry": {"type": "Point", "coordinates": [106.331842, -6.3350982]}, "properties": {"id": "krl-ctr", "station_id": "krl-ctr", "station_name": "Citeras", "stop_name": "Citeras", "name": "Citeras", "station_code": "CTR", "stop_code": "CTR", "line_name": "Rangkasbitung", "line_code": "R", "line_codes": ",R,", "station_order": 19, "station_type": "station", "interchange": false, "interchange_label": "", "branch": "", "active": true, "status": "existing", "status_label": "Jaringan saat ini", "mode": "KRL", "operator": "KAI Commuter", "latitude": -6.3350982, "longitude": 106.331842, "source": "OpenStreetMap route relations KAI Commuter", "source_type": "osm", "source_url": "https://www.openstreetmap.org", "license": "ODbL", "geometry_source": "osm_station", "osm_id": 10312804560, "color": "#D83A72", "rail_dist_m": 0.0}}, {"type": "Feature", "id": "krl-rk", "geometry": {"type": "Point", "coordinates": [106.2506735, -6.35271]}, "properties": {"id": "krl-rk", "station_id": "krl-rk", "station_name": "Rangkasbitung", "stop_name": "Rangkasbitung", "name": "Rangkasbitung", "station_code": "RK", "stop_code": "RK", "line_name": "Rangkasbitung", "line_code": "R", "line_codes": ",R,", "station_order": 20, "station_type": "terminus", "interchange": false, "interchange_label": "", "branch": "", "active": true, "status": "existing", "status_label": "Jaringan saat ini", "mode": "KRL", "operator": "KAI Commuter", "latitude": -6.35271, "longitude": 106.2506735, "source": "OpenStreetMap route relations KAI Commuter", "source_type": "osm", "source_url": "https://www.openstreetmap.org", "license": "ODbL", "geometry_source": "osm_station", "osm_id": 12066633420, "color": "#D83A72", "rail_dist_m": 0.0}}, {"type": "Feature", "id": "krl-ckr", "geometry": {"type": "Point", "coordinates": [107.1457636, -6.2555519]}, "properties": {"id": "krl-ckr", "station_id": "krl-ckr", "station_name": "Cikarang", "stop_name": "Cikarang", "name": "Cikarang", "station_code": "CKR", "stop_code": "CKR", "line_name": "Cikarang", "line_code": "C", "line_codes": ",C,", "station_order": 1, "station_type": "terminus", "interchange": false, "interchange_label": "", "branch": "", "active": true, "status": "existing", "status_label": "Jaringan saat ini", "mode": "KRL", "operator": "KAI Commuter", "latitude": -6.2555519, "longitude": 107.1457636, "source": "OpenStreetMap route relations KAI Commuter", "source_type": "osm", "source_url": "https://www.openstreetmap.org", "license": "ODbL", "geometry_source": "osm_station", "osm_id": 11435363610, "color": "#D83A72", "rail_dist_m": 0.0}}, {"type": "Feature", "id": "krl-mtm", "geometry": {"type": "Point", "coordinates": [107.1102351, -6.2576096]}, "properties": {"id": "krl-mtm", "station_id": "krl-mtm", "station_name": "Metland Telagamurni", "stop_name": "Metland Telagamurni", "name": "Metland Telagamurni", "station_code": "MTM", "stop_code": "MTM", "line_name": "Cikarang", "line_code": "C", "line_codes": ",C,", "station_order": 2, "station_type": "station", "interchange": false, "interchange_label": "", "branch": "", "active": true, "status": "existing", "status_label": "Jaringan saat ini", "mode": "KRL", "operator": "KAI Commuter", "latitude": -6.2576096, "longitude": 107.1102351, "source": "OpenStreetMap route relations KAI Commuter", "source_type": "osm", "source_url": "https://www.openstreetmap.org", "license": "ODbL", "geometry_source": "osm_station", "osm_id": 10312804533, "color": "#D83A72", "rail_dist_m": 0.0}}, {"type": "Feature", "id": "krl-cit", "geometry": {"type": "Point", "coordinates": [107.0832401, -6.2618585]}, "properties": {"id": "krl-cit", "station_id": "krl-cit", "station_name": "Cibitung", "stop_name": "Cibitung", "name": "Cibitung", "station_code": "CIT", "stop_code": "CIT", "line_name": "Cikarang", "line_code": "C", "line_codes": ",C,", "station_order": 3, "station_type": "station", "interchange": false, "interchange_label": "", "branch": "", "active": true, "status": "existing", "status_label": "Jaringan saat ini", "mode": "KRL", "operator": "KAI Commuter", "latitude": -6.2618585, "longitude": 107.0832401, "source": "OpenStreetMap route relations KAI Commuter", "source_type": "osm", "source_url": "https://www.openstreetmap.org", "license": "ODbL", "geometry_source": "osm_station", "osm_id": 11741981519, "color": "#D83A72", "rail_dist_m": 0.0}}, {"type": "Feature", "id": "krl-tb", "geometry": {"type": "Point", "coordinates": [107.0543693, -6.2581362]}, "properties": {"id": "krl-tb", "station_id": "krl-tb", "station_name": "Tambun", "stop_name": "Tambun", "name": "Tambun", "station_code": "TB", "stop_code": "TB", "line_name": "Cikarang", "line_code": "C", "line_codes": ",C,", "station_order": 4, "station_type": "station", "interchange": false, "interchange_label": "", "branch": "", "active": true, "status": "existing", "status_label": "Jaringan saat ini", "mode": "KRL", "operator": "KAI Commuter", "latitude": -6.2581362, "longitude": 107.0543693, "source": "OpenStreetMap route relations KAI Commuter", "source_type": "osm", "source_url": "https://www.openstreetmap.org", "license": "ODbL", "geometry_source": "osm_station", "osm_id": 10312804523, "color": "#D83A72", "rail_dist_m": 0.0}}, {"type": "Feature", "id": "krl-bkt", "geometry": {"type": "Point", "coordinates": [107.0169738, -6.2463179]}, "properties": {"id": "krl-bkt", "station_id": "krl-bkt", "station_name": "Bekasi Timur", "stop_name": "Bekasi Timur", "name": "Bekasi Timur", "station_code": "BKT", "stop_code": "BKT", "line_name": "Cikarang", "line_code": "C", "line_codes": ",C,", "station_order": 5, "station_type": "station", "interchange": false, "interchange_label": "", "branch": "", "active": true, "status": "existing", "status_label": "Jaringan saat ini", "mode": "KRL", "operator": "KAI Commuter", "latitude": -6.2463179, "longitude": 107.0169738, "source": "OpenStreetMap route relations KAI Commuter", "source_type": "osm", "source_url": "https://www.openstreetmap.org", "license": "ODbL", "geometry_source": "osm_station", "osm_id": 10312804317, "color": "#D83A72", "rail_dist_m": 0.0}}, {"type": "Feature", "id": "krl-bks", "geometry": {"type": "Point", "coordinates": [106.9971281, -6.2352392]}, "properties": {"id": "krl-bks", "station_id": "krl-bks", "station_name": "Bekasi", "stop_name": "Bekasi", "name": "Bekasi", "station_code": "BKS", "stop_code": "BKS", "line_name": "Cikarang", "line_code": "C", "line_codes": ",C,", "station_order": 6, "station_type": "station", "interchange": false, "interchange_label": "", "branch": "", "active": true, "status": "existing", "status_label": "Jaringan saat ini", "mode": "KRL", "operator": "KAI Commuter", "latitude": -6.2352392, "longitude": 106.9971281, "source": "OpenStreetMap route relations KAI Commuter", "source_type": "osm", "source_url": "https://www.openstreetmap.org", "license": "ODbL", "geometry_source": "osm_station", "osm_id": 3469731308, "color": "#D83A72", "rail_dist_m": 0.0}}, {"type": "Feature", "id": "krl-kri", "geometry": {"type": "Point", "coordinates": [106.9788886, -6.2238316]}, "properties": {"id": "krl-kri", "station_id": "krl-kri", "station_name": "Kranji", "stop_name": "Kranji", "name": "Kranji", "station_code": "KRI", "stop_code": "KRI", "line_name": "Cikarang", "line_code": "C", "line_codes": ",C,", "station_order": 7, "station_type": "station", "interchange": false, "interchange_label": "", "branch": "", "active": true, "status": "existing", "status_label": "Jaringan saat ini", "mode": "KRL", "operator": "KAI Commuter", "latitude": -6.2238316, "longitude": 106.9788886, "source": "OpenStreetMap route relations KAI Commuter", "source_type": "osm", "source_url": "https://www.openstreetmap.org", "license": "ODbL", "geometry_source": "osm_station", "osm_id": 3865048818, "color": "#D83A72", "rail_dist_m": 0.0}}, {"type": "Feature", "id": "krl-cuk", "geometry": {"type": "Point", "coordinates": [106.9520607, -6.2190888]}, "properties": {"id": "krl-cuk", "station_id": "krl-cuk", "station_name": "Cakung", "stop_name": "Cakung", "name": "Cakung", "station_code": "CUK", "stop_code": "CUK", "line_name": "Cikarang", "line_code": "C", "line_codes": ",C,", "station_order": 8, "station_type": "station", "interchange": false, "interchange_label": "", "branch": "", "active": true, "status": "existing", "status_label": "Jaringan saat ini", "mode": "KRL", "operator": "KAI Commuter", "latitude": -6.2190888, "longitude": 106.9520607, "source": "OpenStreetMap route relations KAI Commuter", "source_type": "osm", "source_url": "https://www.openstreetmap.org", "license": "ODbL", "geometry_source": "osm_station", "osm_id": 10312804321, "color": "#D83A72", "rail_dist_m": 0.0}}, {"type": "Feature", "id": "krl-kldb", "geometry": {"type": "Point", "coordinates": [106.9392621, -6.217489]}, "properties": {"id": "krl-kldb", "station_id": "krl-kldb", "station_name": "Klender Baru", "stop_name": "Klender Baru", "name": "Klender Baru", "station_code": "KLDB", "stop_code": "KLDB", "line_name": "Cikarang", "line_code": "C", "line_codes": ",C,", "station_order": 9, "station_type": "station", "interchange": false, "interchange_label": "", "branch": "", "active": true, "status": "existing", "status_label": "Jaringan saat ini", "mode": "KRL", "operator": "KAI Commuter", "latitude": -6.217489, "longitude": 106.9392621, "source": "OpenStreetMap route relations KAI Commuter", "source_type": "osm", "source_url": "https://www.openstreetmap.org", "license": "ODbL", "geometry_source": "osm_station", "osm_id": 3865048772, "color": "#D83A72", "rail_dist_m": 0.0}}, {"type": "Feature", "id": "krl-bua", "geometry": {"type": "Point", "coordinates": [106.9214031, -6.2153263]}, "properties": {"id": "krl-bua", "station_id": "krl-bua", "station_name": "Buaran", "stop_name": "Buaran", "name": "Buaran", "station_code": "BUA", "stop_code": "BUA", "line_name": "Cikarang", "line_code": "C", "line_codes": ",C,", "station_order": 10, "station_type": "station", "interchange": false, "interchange_label": "", "branch": "", "active": true, "status": "existing", "status_label": "Jaringan saat ini", "mode": "KRL", "operator": "KAI Commuter", "latitude": -6.2153263, "longitude": 106.9214031, "source": "OpenStreetMap route relations KAI Commuter", "source_type": "osm", "source_url": "https://www.openstreetmap.org", "license": "ODbL", "geometry_source": "osm_station", "osm_id": 7071978905, "color": "#D83A72", "rail_dist_m": 0.0}}, {"type": "Feature", "id": "krl-kld", "geometry": {"type": "Point", "coordinates": [106.8986471, -6.2132396]}, "properties": {"id": "krl-kld", "station_id": "krl-kld", "station_name": "Klender", "stop_name": "Klender", "name": "Klender", "station_code": "KLD", "stop_code": "KLD", "line_name": "Cikarang", "line_code": "C", "line_codes": ",C,", "station_order": 11, "station_type": "station", "interchange": false, "interchange_label": "", "branch": "", "active": true, "status": "existing", "status_label": "Jaringan saat ini", "mode": "KRL", "operator": "KAI Commuter", "latitude": -6.2132396, "longitude": 106.8986471, "source": "OpenStreetMap route relations KAI Commuter", "source_type": "osm", "source_url": "https://www.openstreetmap.org", "license": "ODbL", "geometry_source": "osm_station", "osm_id": 8431213256, "color": "#D83A72", "rail_dist_m": 0.0}}, {"type": "Feature", "id": "krl-jng", "geometry": {"type": "Point", "coordinates": [106.8692758, -6.215015]}, "properties": {"id": "krl-jng", "station_id": "krl-jng", "station_name": "Jatinegara", "stop_name": "Jatinegara", "name": "Jatinegara", "station_code": "JNG", "stop_code": "JNG", "line_name": "Cikarang", "line_code": "C", "line_codes": ",C,", "station_order": 12, "station_type": "loop", "interchange": false, "interchange_label": "Simpul pertukaran", "branch": "", "active": true, "status": "existing", "status_label": "Jaringan saat ini", "mode": "KRL", "operator": "KAI Commuter", "latitude": -6.215015, "longitude": 106.8692758, "source": "OpenStreetMap route relations KAI Commuter", "source_type": "osm", "source_url": "https://www.openstreetmap.org", "license": "ODbL", "geometry_source": "osm_station", "osm_id": 7620049371, "color": "#D83A72", "rail_dist_m": 0.0}}, {"type": "Feature", "id": "krl-mtr", "geometry": {"type": "Point", "coordinates": [106.8589052, -6.212894]}, "properties": {"id": "krl-mtr", "station_id": "krl-mtr", "station_name": "Matraman", "stop_name": "Matraman", "name": "Matraman", "station_code": "MTR", "stop_code": "MTR", "line_name": "Cikarang", "line_code": "C", "line_codes": ",C,", "station_order": 13, "station_type": "station", "interchange": false, "interchange_label": "", "branch": "", "active": true, "status": "existing", "status_label": "Jaringan saat ini", "mode": "KRL", "operator": "KAI Commuter", "latitude": -6.212894, "longitude": 106.8589052, "source": "OpenStreetMap route relations KAI Commuter", "source_type": "osm", "source_url": "https://www.openstreetmap.org", "license": "ODbL", "geometry_source": "osm_station", "osm_id": 9939917858, "color": "#D83A72", "rail_dist_m": 0.0}}, {"type": "Feature", "id": "krl-sud", "geometry": {"type": "Point", "coordinates": [106.8243422, -6.2026049]}, "properties": {"id": "krl-sud", "station_id": "krl-sud", "station_name": "Sudirman", "stop_name": "Sudirman", "name": "Sudirman", "station_code": "SUD", "stop_code": "SUD", "line_name": "Cikarang", "line_code": "C", "line_codes": ",C,", "station_order": 15, "station_type": "station", "interchange": false, "interchange_label": "", "branch": "", "active": true, "status": "existing", "status_label": "Jaringan saat ini", "mode": "KRL", "operator": "KAI Commuter", "latitude": -6.2026049, "longitude": 106.8243422, "source": "OpenStreetMap route relations KAI Commuter", "source_type": "osm", "source_url": "https://www.openstreetmap.org", "license": "ODbL", "geometry_source": "osm_station", "osm_id": 3863047777, "color": "#D83A72", "rail_dist_m": 0.0}}, {"type": "Feature", "id": "krl-kat", "geometry": {"type": "Point", "coordinates": [106.8160036, -6.2008624]}, "properties": {"id": "krl-kat", "station_id": "krl-kat", "station_name": "Karet", "stop_name": "Karet", "name": "Karet", "station_code": "KAT", "stop_code": "KAT", "line_name": "Cikarang", "line_code": "C", "line_codes": ",C,", "station_order": 16, "station_type": "station", "interchange": false, "interchange_label": "", "branch": "", "active": true, "status": "existing", "status_label": "Jaringan saat ini", "mode": "KRL", "operator": "KAI Commuter", "latitude": -6.2008624, "longitude": 106.8160036, "source": "OpenStreetMap / Nominatim", "source_type": "osm", "source_url": "https://www.openstreetmap.org", "license": "ODbL", "geometry_source": "osm_station", "osm_id": 605535396, "color": "#D83A72", "rail_dist_m": 6.0}}, {"type": "Feature", "id": "krl-du", "geometry": {"type": "Point", "coordinates": [106.8013553, -6.1544368]}, "properties": {"id": "krl-du", "station_id": "krl-du", "station_name": "Duri", "stop_name": "Duri", "name": "Duri", "station_code": "DU", "stop_code": "DU", "line_name": "Cikarang / Tangerang", "line_code": "C", "line_codes": ",C,T,", "station_order": 18, "station_type": "interchange", "interchange": true, "interchange_label": "Simpul pertukaran", "branch": "", "active": true, "status": "existing", "status_label": "Jaringan saat ini", "mode": "KRL", "operator": "KAI Commuter", "latitude": -6.1544368, "longitude": 106.8013553, "source": "OpenStreetMap route relations KAI Commuter", "source_type": "osm", "source_url": "https://www.openstreetmap.org", "license": "ODbL", "geometry_source": "osm_station", "osm_id": 4919856117, "color": "#D83A72", "rail_dist_m": 0.0}}, {"type": "Feature", "id": "krl-ak", "geometry": {"type": "Point", "coordinates": [106.8006901, -6.1435409]}, "properties": {"id": "krl-ak", "station_id": "krl-ak", "station_name": "Angke", "stop_name": "Angke", "name": "Angke", "station_code": "AK", "stop_code": "AK", "line_name": "Cikarang", "line_code": "C", "line_codes": ",C,", "station_order": 19, "station_type": "station", "interchange": false, "interchange_label": "", "branch": "", "active": true, "status": "existing", "status_label": "Jaringan saat ini", "mode": "KRL", "operator": "KAI Commuter", "latitude": -6.1435409, "longitude": 106.8006901, "source": "OpenStreetMap route relations KAI Commuter", "source_type": "osm", "source_url": "https://www.openstreetmap.org", "license": "ODbL", "geometry_source": "osm_station", "osm_id": 10312951267, "color": "#D83A72", "rail_dist_m": 0.0}}, {"type": "Feature", "id": "krl-kpb", "geometry": {"type": "Point", "coordinates": [106.8289307, -6.1327011]}, "properties": {"id": "krl-kpb", "station_id": "krl-kpb", "station_name": "Kampung Bandan", "stop_name": "Kampung Bandan", "name": "Kampung Bandan", "station_code": "KPB", "stop_code": "KPB", "line_name": "Cikarang / Tanjung Priok", "line_code": "C", "line_codes": ",C,TP,", "station_order": 20, "station_type": "loop", "interchange": true, "interchange_label": "Simpul pertukaran", "branch": "", "active": true, "status": "existing", "status_label": "Jaringan saat ini", "mode": "KRL", "operator": "KAI Commuter", "latitude": -6.1327011, "longitude": 106.8289307, "source": "OpenStreetMap route relations KAI Commuter", "source_type": "osm", "source_url": "https://www.openstreetmap.org", "license": "ODbL", "geometry_source": "osm_station", "osm_id": 10312804280, "color": "#D83A72", "rail_dist_m": 0.0}}, {"type": "Feature", "id": "krl-pok", "geometry": {"type": "Point", "coordinates": [106.862761, -6.2105049]}, "properties": {"id": "krl-pok", "station_id": "krl-pok", "station_name": "Pondok Jati", "stop_name": "Pondok Jati", "name": "Pondok Jati", "station_code": "POK", "stop_code": "POK", "line_name": "Cikarang", "line_code": "C", "line_codes": ",C,", "station_order": 21, "station_type": "station", "interchange": false, "interchange_label": "", "branch": "", "active": true, "status": "existing", "status_label": "Jaringan saat ini", "mode": "KRL", "operator": "KAI Commuter", "latitude": -6.2105049, "longitude": 106.862761, "source": "OpenStreetMap route relations KAI Commuter", "source_type": "osm", "source_url": "https://www.openstreetmap.org", "license": "ODbL", "geometry_source": "osm_station", "osm_id": 10312804313, "color": "#D83A72", "rail_dist_m": 0.0}}, {"type": "Feature", "id": "krl-kmt", "geometry": {"type": "Point", "coordinates": [106.8567943, -6.194051]}, "properties": {"id": "krl-kmt", "station_id": "krl-kmt", "station_name": "Kramat", "stop_name": "Kramat", "name": "Kramat", "station_code": "KMT", "stop_code": "KMT", "line_name": "Cikarang", "line_code": "C", "line_codes": ",C,", "station_order": 22, "station_type": "station", "interchange": false, "interchange_label": "", "branch": "", "active": true, "status": "existing", "status_label": "Jaringan saat ini", "mode": "KRL", "operator": "KAI Commuter", "latitude": -6.194051, "longitude": 106.8567943, "source": "OpenStreetMap route relations KAI Commuter", "source_type": "osm", "source_url": "https://www.openstreetmap.org", "license": "ODbL", "geometry_source": "osm_station", "osm_id": 10312804309, "color": "#D83A72", "rail_dist_m": 0.0}}, {"type": "Feature", "id": "krl-gst", "geometry": {"type": "Point", "coordinates": [106.8510519, -6.1864157]}, "properties": {"id": "krl-gst", "station_id": "krl-gst", "station_name": "Gang Sentiong", "stop_name": "Gang Sentiong", "name": "Gang Sentiong", "station_code": "GST", "stop_code": "GST", "line_name": "Cikarang", "line_code": "C", "line_codes": ",C,", "station_order": 23, "station_type": "station", "interchange": false, "interchange_label": "", "branch": "", "active": true, "status": "existing", "status_label": "Jaringan saat ini", "mode": "KRL", "operator": "KAI Commuter", "latitude": -6.1864157, "longitude": 106.8510519, "source": "OpenStreetMap route relations KAI Commuter", "source_type": "osm", "source_url": "https://www.openstreetmap.org", "license": "ODbL", "geometry_source": "osm_station", "osm_id": 318857039, "color": "#D83A72", "rail_dist_m": 0.0}}, {"type": "Feature", "id": "krl-pse", "geometry": {"type": "Point", "coordinates": [106.8440952, -6.1727569]}, "properties": {"id": "krl-pse", "station_id": "krl-pse", "station_name": "Pasar Senen", "stop_name": "Pasar Senen", "name": "Pasar Senen", "station_code": "PSE", "stop_code": "PSE", "line_name": "Cikarang", "line_code": "C", "line_codes": ",C,", "station_order": 24, "station_type": "interchange", "interchange": false, "interchange_label": "Simpul pertukaran", "branch": "", "active": true, "status": "existing", "status_label": "Jaringan saat ini", "mode": "KRL", "operator": "KAI Commuter", "latitude": -6.1727569, "longitude": 106.8440952, "source": "OpenStreetMap route relations KAI Commuter", "source_type": "osm", "source_url": "https://www.openstreetmap.org", "license": "ODbL", "geometry_source": "osm_station", "osm_id": 4919247182, "color": "#D83A72", "rail_dist_m": 0.0}}, {"type": "Feature", "id": "krl-kmo", "geometry": {"type": "Point", "coordinates": [106.8417414, -6.1625539]}, "properties": {"id": "krl-kmo", "station_id": "krl-kmo", "station_name": "Kemayoran", "stop_name": "Kemayoran", "name": "Kemayoran", "station_code": "KMO", "stop_code": "KMO", "line_name": "Cikarang", "line_code": "C", "line_codes": ",C,", "station_order": 25, "station_type": "station", "interchange": false, "interchange_label": "", "branch": "", "active": true, "status": "existing", "status_label": "Jaringan saat ini", "mode": "KRL", "operator": "KAI Commuter", "latitude": -6.1625539, "longitude": 106.8417414, "source": "OpenStreetMap route relations KAI Commuter", "source_type": "osm", "source_url": "https://www.openstreetmap.org", "license": "ODbL", "geometry_source": "osm_station", "osm_id": 10312804288, "color": "#D83A72", "rail_dist_m": 0.0}}, {"type": "Feature", "id": "krl-rjw", "geometry": {"type": "Point", "coordinates": [106.8371821, -6.1463115]}, "properties": {"id": "krl-rjw", "station_id": "krl-rjw", "station_name": "Rajawali", "stop_name": "Rajawali", "name": "Rajawali", "station_code": "RJW", "stop_code": "RJW", "line_name": "Cikarang", "line_code": "C", "line_codes": ",C,", "station_order": 26, "station_type": "station", "interchange": false, "interchange_label": "", "branch": "", "active": true, "status": "existing", "status_label": "Jaringan saat ini", "mode": "KRL", "operator": "KAI Commuter", "latitude": -6.1463115, "longitude": 106.8371821, "source": "OpenStreetMap route relations KAI Commuter", "source_type": "osm", "source_url": "https://www.openstreetmap.org", "license": "ODbL", "geometry_source": "osm_station", "osm_id": 4542730150, "color": "#D83A72", "rail_dist_m": 0.0}}, {"type": "Feature", "id": "krl-ggl", "geometry": {"type": "Point", "coordinates": [106.7872681, -6.1619976]}, "properties": {"id": "krl-ggl", "station_id": "krl-ggl", "station_name": "Grogol", "stop_name": "Grogol", "name": "Grogol", "station_code": "GGL", "stop_code": "GGL", "line_name": "Tangerang", "line_code": "T", "line_codes": ",T,", "station_order": 2, "station_type": "station", "interchange": false, "interchange_label": "", "branch": "", "active": true, "status": "existing", "status_label": "Jaringan saat ini", "mode": "KRL", "operator": "KAI Commuter", "latitude": -6.1619976, "longitude": 106.7872681, "source": "OpenStreetMap route relations KAI Commuter", "source_type": "osm", "source_url": "https://www.openstreetmap.org", "license": "ODbL", "geometry_source": "osm_station", "osm_id": 11612644502, "color": "#D83A72", "rail_dist_m": 0.0}}, {"type": "Feature", "id": "krl-psg", "geometry": {"type": "Point", "coordinates": [106.7715864, -6.1611889]}, "properties": {"id": "krl-psg", "station_id": "krl-psg", "station_name": "Pesing", "stop_name": "Pesing", "name": "Pesing", "station_code": "PSG", "stop_code": "PSG", "line_name": "Tangerang", "line_code": "T", "line_codes": ",T,", "station_order": 3, "station_type": "station", "interchange": false, "interchange_label": "", "branch": "", "active": true, "status": "existing", "status_label": "Jaringan saat ini", "mode": "KRL", "operator": "KAI Commuter", "latitude": -6.1611889, "longitude": 106.7715864, "source": "OpenStreetMap route relations KAI Commuter", "source_type": "osm", "source_url": "https://www.openstreetmap.org", "license": "ODbL", "geometry_source": "osm_station", "osm_id": 11612644512, "color": "#D83A72", "rail_dist_m": 0.0}}, {"type": "Feature", "id": "krl-tko", "geometry": {"type": "Point", "coordinates": [106.7545627, -6.1581842]}, "properties": {"id": "krl-tko", "station_id": "krl-tko", "station_name": "Taman Kota", "stop_name": "Taman Kota", "name": "Taman Kota", "station_code": "TKO", "stop_code": "TKO", "line_name": "Tangerang", "line_code": "T", "line_codes": ",T,", "station_order": 4, "station_type": "station", "interchange": false, "interchange_label": "", "branch": "", "active": true, "status": "existing", "status_label": "Jaringan saat ini", "mode": "KRL", "operator": "KAI Commuter", "latitude": -6.1581842, "longitude": 106.7545627, "source": "OpenStreetMap route relations KAI Commuter", "source_type": "osm", "source_url": "https://www.openstreetmap.org", "license": "ODbL", "geometry_source": "osm_station", "osm_id": 5851242578, "color": "#D83A72", "rail_dist_m": 0.0}}, {"type": "Feature", "id": "krl-boi", "geometry": {"type": "Point", "coordinates": [106.7350302, -6.1605372]}, "properties": {"id": "krl-boi", "station_id": "krl-boi", "station_name": "Bojong Indah", "stop_name": "Bojong Indah", "name": "Bojong Indah", "station_code": "BOI", "stop_code": "BOI", "line_name": "Tangerang", "line_code": "T", "line_codes": ",T,", "station_order": 5, "station_type": "station", "interchange": false, "interchange_label": "", "branch": "", "active": true, "status": "existing", "status_label": "Jaringan saat ini", "mode": "KRL", "operator": "KAI Commuter", "latitude": -6.1605372, "longitude": 106.7350302, "source": "OpenStreetMap route relations KAI Commuter", "source_type": "osm", "source_url": "https://www.openstreetmap.org", "license": "ODbL", "geometry_source": "osm_station", "osm_id": 11623547243, "color": "#D83A72", "rail_dist_m": 0.0}}, {"type": "Feature", "id": "krl-rw", "geometry": {"type": "Point", "coordinates": [106.7227805, -6.1627563]}, "properties": {"id": "krl-rw", "station_id": "krl-rw", "station_name": "Rawa Buaya", "stop_name": "Rawa Buaya", "name": "Rawa Buaya", "station_code": "RW", "stop_code": "RW", "line_name": "Tangerang", "line_code": "T", "line_codes": ",T,", "station_order": 6, "station_type": "station", "interchange": false, "interchange_label": "", "branch": "", "active": true, "status": "existing", "status_label": "Jaringan saat ini", "mode": "KRL", "operator": "KAI Commuter", "latitude": -6.1627563, "longitude": 106.7227805, "source": "OpenStreetMap route relations KAI Commuter", "source_type": "osm", "source_url": "https://www.openstreetmap.org", "license": "ODbL", "geometry_source": "osm_station", "osm_id": 11623547249, "color": "#D83A72", "rail_dist_m": 0.0}}, {"type": "Feature", "id": "krl-kds", "geometry": {"type": "Point", "coordinates": [106.7025108, -6.1661506]}, "properties": {"id": "krl-kds", "station_id": "krl-kds", "station_name": "Kalideres", "stop_name": "Kalideres", "name": "Kalideres", "station_code": "KDS", "stop_code": "KDS", "line_name": "Tangerang", "line_code": "T", "line_codes": ",T,", "station_order": 7, "station_type": "station", "interchange": false, "interchange_label": "", "branch": "", "active": true, "status": "existing", "status_label": "Jaringan saat ini", "mode": "KRL", "operator": "KAI Commuter", "latitude": -6.1661506, "longitude": 106.7025108, "source": "OpenStreetMap route relations KAI Commuter", "source_type": "osm", "source_url": "https://www.openstreetmap.org", "license": "ODbL", "geometry_source": "osm_station", "osm_id": 11623566196, "color": "#D83A72", "rail_dist_m": 0.0}}, {"type": "Feature", "id": "krl-pi", "geometry": {"type": "Point", "coordinates": [106.6802736, -6.1697901]}, "properties": {"id": "krl-pi", "station_id": "krl-pi", "station_name": "Poris", "stop_name": "Poris", "name": "Poris", "station_code": "PI", "stop_code": "PI", "line_name": "Tangerang", "line_code": "T", "line_codes": ",T,", "station_order": 8, "station_type": "station", "interchange": false, "interchange_label": "", "branch": "", "active": true, "status": "existing", "status_label": "Jaringan saat ini", "mode": "KRL", "operator": "KAI Commuter", "latitude": -6.1697901, "longitude": 106.6802736, "source": "OpenStreetMap route relations KAI Commuter", "source_type": "osm", "source_url": "https://www.openstreetmap.org", "license": "ODbL", "geometry_source": "osm_station", "osm_id": 5851244028, "color": "#D83A72", "rail_dist_m": 0.0}}, {"type": "Feature", "id": "krl-bpr", "geometry": {"type": "Point", "coordinates": [106.6639437, -6.1724069]}, "properties": {"id": "krl-bpr", "station_id": "krl-bpr", "station_name": "Batu Ceper", "stop_name": "Batu Ceper", "name": "Batu Ceper", "station_code": "BPR", "stop_code": "BPR", "line_name": "Tangerang", "line_code": "T", "line_codes": ",T,", "station_order": 9, "station_type": "station", "interchange": false, "interchange_label": "", "branch": "", "active": true, "status": "existing", "status_label": "Jaringan saat ini", "mode": "KRL", "operator": "KAI Commuter", "latitude": -6.1724069, "longitude": 106.6639437, "source": "OpenStreetMap route relations KAI Commuter", "source_type": "osm", "source_url": "https://www.openstreetmap.org", "license": "ODbL", "geometry_source": "osm_station", "osm_id": 5851244021, "color": "#D83A72", "rail_dist_m": 0.0}}, {"type": "Feature", "id": "krl-tti", "geometry": {"type": "Point", "coordinates": [106.645729, -6.1752995]}, "properties": {"id": "krl-tti", "station_id": "krl-tti", "station_name": "Tanah Tinggi", "stop_name": "Tanah Tinggi", "name": "Tanah Tinggi", "station_code": "TTI", "stop_code": "TTI", "line_name": "Tangerang", "line_code": "T", "line_codes": ",T,", "station_order": 10, "station_type": "station", "interchange": false, "interchange_label": "", "branch": "", "active": true, "status": "existing", "status_label": "Jaringan saat ini", "mode": "KRL", "operator": "KAI Commuter", "latitude": -6.1752995, "longitude": 106.645729, "source": "OpenStreetMap route relations KAI Commuter", "source_type": "osm", "source_url": "https://www.openstreetmap.org", "license": "ODbL", "geometry_source": "osm_station", "osm_id": 11623566247, "color": "#D83A72", "rail_dist_m": 0.0}}, {"type": "Feature", "id": "krl-tng", "geometry": {"type": "Point", "coordinates": [106.6307174, -6.1768139]}, "properties": {"id": "krl-tng", "station_id": "krl-tng", "station_name": "Tangerang", "stop_name": "Tangerang", "name": "Tangerang", "station_code": "TNG", "stop_code": "TNG", "line_name": "Tangerang", "line_code": "T", "line_codes": ",T,", "station_order": 11, "station_type": "terminus", "interchange": false, "interchange_label": "", "branch": "", "active": true, "status": "existing", "status_label": "Jaringan saat ini", "mode": "KRL", "operator": "KAI Commuter", "latitude": -6.1768139, "longitude": 106.6307174, "source": "OpenStreetMap route relations KAI Commuter", "source_type": "osm", "source_url": "https://www.openstreetmap.org", "license": "ODbL", "geometry_source": "osm_station", "osm_id": 11623566250, "color": "#D83A72", "rail_dist_m": 0.0}}, {"type": "Feature", "id": "krl-ac", "geometry": {"type": "Point", "coordinates": [106.846456, -6.127855]}, "properties": {"id": "krl-ac", "station_id": "krl-ac", "station_name": "Ancol", "stop_name": "Ancol", "name": "Ancol", "station_code": "AC", "stop_code": "AC", "line_name": "Tanjung Priok", "line_code": "TP", "line_codes": ",TP,", "station_order": 3, "station_type": "station", "interchange": false, "interchange_label": "", "branch": "", "active": true, "status": "existing", "status_label": "Jaringan saat ini", "mode": "KRL", "operator": "KAI Commuter", "latitude": -6.127855, "longitude": 106.846456, "source": "OpenStreetMap route relations KAI Commuter", "source_type": "osm", "source_url": "https://www.openstreetmap.org", "license": "ODbL", "geometry_source": "osm_station", "osm_id": 5929740979, "color": "#D83A72", "rail_dist_m": 0.0}}, {"type": "Feature", "id": "krl-tpk", "geometry": {"type": "Point", "coordinates": [106.8814496, -6.1106006]}, "properties": {"id": "krl-tpk", "station_id": "krl-tpk", "station_name": "Tanjung Priok", "stop_name": "Tanjung Priok", "name": "Tanjung Priok", "station_code": "TPK", "stop_code": "TPK", "line_name": "Tanjung Priok", "line_code": "TP", "line_codes": ",TP,", "station_order": 4, "station_type": "terminus", "interchange": false, "interchange_label": "", "branch": "", "active": true, "status": "existing", "status_label": "Jaringan saat ini", "mode": "KRL", "operator": "KAI Commuter", "latitude": -6.1106006, "longitude": 106.8814496, "source": "OpenStreetMap route relations KAI Commuter", "source_type": "osm", "source_url": "https://www.openstreetmap.org", "license": "ODbL", "geometry_source": "osm_station", "osm_id": 11612191162, "color": "#D83A72", "rail_dist_m": 0.0}}]}