{"type": "FeatureCollection", "features": [{"type": "Feature", "id": "lrt-hjm", "geometry": {"type": "Point", "coordinates": [106.8956864, -6.3738897]}, "properties": {"id": "lrt-hjm", "station_id": "lrt-hjm", "station_name": "Harjamukti", "stop_name": "Harjamukti", "name": "Harjamukti", "station_code": "HJM", "stop_code": "HJM", "naming_rights": "", "mode": "LRT Jabodebek", "line": "Cibubur Line", "line_name": "Cibubur Line", "line_code": "CB", "line_codes": ",CB,", "branch": "cibubur", "station_type": "terminus", "station_type_label": "Terminus", "interchange": false, "interchange_label": "Terminus", "interchange_mode": "", "active_2026": true, "status": "existing", "status_label": "Jaringan saat ini", "operator": "LRT Jabodebek / KAI", "latitude": -6.3738897, "longitude": 106.8956864, "source": "OpenStreetMap route relations", "source_type": "osm", "source_url": "https://www.openstreetmap.org", "license": "ODbL", "retrieved_at": "2026-09-10", "geometry_source": "osm_station", "osm_id": 11040189467, "color": "#4FAF86", "rail_dist_m": 0.0}}, {"type": "Feature", "id": "lrt-crc", "geometry": {"type": "Point", "coordinates": [106.8866634, -6.3237692]}, "properties": {"id": "lrt-crc", "station_id": "lrt-crc", "station_name": "Ciracas", "stop_name": "Ciracas", "name": "Ciracas", "station_code": "CRC", "stop_code": "CRC", "naming_rights": "", "mode": "LRT Jabodebek", "line": "Cibubur Line", "line_name": "Cibubur Line", "line_code": "CB", "line_codes": ",CB,", "branch": "cibubur", "station_type": "intermediate", "station_type_label": "Stasiun antara", "interchange": false, "interchange_label": "", "interchange_mode": "", "active_2026": true, "status": "existing", "status_label": "Jaringan saat ini", "operator": "LRT Jabodebek / KAI", "latitude": -6.3237692, "longitude": 106.8866634, "source": "OpenStreetMap route relations", "source_type": "osm", "source_url": "https://www.openstreetmap.org", "license": "ODbL", "retrieved_at": "2026-09-10", "geometry_source": "osm_station", "osm_id": 12578386108, "color": "#4FAF86", "rail_dist_m": 0.0}}, {"type": "Feature", "id": "lrt-kpr", "geometry": {"type": "Point", "coordinates": [106.8844039, -6.3095464]}, "properties": {"id": "lrt-kpr", "station_id": "lrt-kpr", "station_name": "Kampung Rambutan", "stop_name": "Kampung Rambutan", "name": "Kampung Rambutan", "station_code": "KPR", "stop_code": "KPR", "naming_rights": "", "mode": "LRT Jabodebek", "line": "Cibubur Line", "line_name": "Cibubur Line", "line_code": "CB", "line_codes": ",CB,", "branch": "cibubur", "station_type": "interchange", "station_type_label": "Simpul pertukaran", "interchange": true, "interchange_label": "Simpul pertukaran", "interchange_mode": "TransJakarta", "active_2026": true, "status": "existing", "status_label": "Jaringan saat ini", "operator": "LRT Jabodebek / KAI", "latitude": -6.3095464, "longitude": 106.8844039, "source": "OpenStreetMap route relations", "source_type": "osm", "source_url": "https://www.openstreetmap.org", "license": "ODbL", "retrieved_at": "2026-09-10", "geometry_source": "osm_station", "osm_id": 11040189485, "color": "#4FAF86", "rail_dist_m": 0.0}}, {"type": "Feature", "id": "lrt-tmi", "geometry": {"type": "Point", "coordinates": [106.8805779, -6.2929044]}, "properties": {"id": "lrt-tmi", "station_id": "lrt-tmi", "station_name": "TMII", "stop_name": "TMII", "name": "TMII", "station_code": "TMI", "stop_code": "TMI", "naming_rights": "Taman Mini", "mode": "LRT Jabodebek", "line": "Cibubur Line", "line_name": "Cibubur Line", "line_code": "CB", "line_codes": ",CB,", "branch": "cibubur", "station_type": "intermediate", "station_type_label": "Stasiun antara", "interchange": false, "interchange_label": "", "interchange_mode": "", "active_2026": true, "status": "existing", "status_label": "Jaringan saat ini", "operator": "LRT Jabodebek / KAI", "latitude": -6.2929044, "longitude": 106.8805779, "source": "OpenStreetMap route relations", "source_type": "osm", "source_url": "https://www.openstreetmap.org", "license": "ODbL", "retrieved_at": "2026-09-10", "geometry_source": "osm_station", "osm_id": 11040189487, "color": "#4FAF86", "rail_dist_m": 0.0}}, {"type": "Feature", "id": "lrt-cwg", "geometry": {"type": "Point", "coordinates": [106.8712341, -6.2458886]}, "properties": {"id": "lrt-cwg", "station_id": "lrt-cwg", "station_name": "Cawang", "stop_name": "Cawang", "name": "Cawang", "station_code": "CWG", "stop_code": "CWG", "naming_rights": "", "mode": "LRT Jabodebek", "line": "Cibubur Line / Bekasi Line", "line_name": "Cibubur Line / Bekasi Line", "line_code": "BK", "line_codes": ",BK,CB,", "branch": "merge", "station_type": "branching", "station_type_label": "Simpul penggabungan", "interchange": true, "interchange_label": "Simpul penggabungan", "interchange_mode": "TransJakarta", "active_2026": true, "status": "existing", "status_label": "Jaringan saat ini", "operator": "LRT Jabodebek / KAI", "latitude": -6.2458886, "longitude": 106.8712341, "source": "OpenStreetMap route relations", "source_type": "osm", "source_url": "https://www.openstreetmap.org", "license": "ODbL", "retrieved_at": "2026-09-10", "geometry_source": "osm_station", "osm_id": 11040204409, "color": "#4FAF86", "rail_dist_m": 0.0}}, {"type": "Feature", "id": "lrt-clw", "geometry": {"type": "Point", "coordinates": [106.8639717, -6.2434289]}, "properties": {"id": "lrt-clw", "station_id": "lrt-clw", "station_name": "Ciliwung", "stop_name": "Ciliwung", "name": "Ciliwung", "station_code": "CLW", "stop_code": "CLW", "naming_rights": "", "mode": "LRT Jabodebek", "line": "Cibubur Line / Bekasi Line", "line_name": "Cibubur Line / Bekasi Line", "line_code": "BK", "line_codes": ",BK,CB,", "branch": "shared", "station_type": "intermediate", "station_type_label": "Stasiun antara", "interchange": true, "interchange_label": "Stasiun antara", "interchange_mode": "", "active_2026": true, "status": "existing", "status_label": "Jaringan saat ini", "operator": "LRT Jabodebek / KAI", "latitude": -6.2434289, "longitude": 106.8639717, "source": "OpenStreetMap route relations", "source_type": "osm", "source_url": "https://www.openstreetmap.org", "license": "ODbL", "retrieved_at": "2026-09-10", "geometry_source": "osm_station", "osm_id": 9124369223, "color": "#4FAF86", "rail_dist_m": 0.0}}, {"type": "Feature", "id": "lrt-ckk", "geometry": {"type": "Point", "coordinates": [106.8570727, -6.2434471]}, "properties": {"id": "lrt-ckk", "station_id": "lrt-ckk", "station_name": "Cikoko", "stop_name": "Cikoko", "name": "Cikoko", "station_code": "CKK", "stop_code": "CKK", "naming_rights": "", "mode": "LRT Jabodebek", "line": "Cibubur Line / Bekasi Line", "line_name": "Cibubur Line / Bekasi Line", "line_code": "BK", "line_codes": ",BK,CB,", "branch": "shared", "station_type": "interchange", "station_type_label": "Simpul pertukaran", "interchange": true, "interchange_label": "Simpul pertukaran", "interchange_mode": "KRL / TransJakarta", "active_2026": true, "status": "existing", "status_label": "Jaringan saat ini", "operator": "LRT Jabodebek / KAI", "latitude": -6.2434471, "longitude": 106.8570727, "source": "OpenStreetMap route relations", "source_type": "osm", "source_url": "https://www.openstreetmap.org", "license": "ODbL", "retrieved_at": "2026-09-10", "geometry_source": "osm_station", "osm_id": 11040204407, "color": "#4FAF86", "rail_dist_m": 0.0}}, {"type": "Feature", "id": "lrt-pnc", "geometry": {"type": "Point", "coordinates": [106.8385223, -6.2421132]}, "properties": {"id": "lrt-pnc", "station_id": "lrt-pnc", "station_name": "Pancoran", "stop_name": "Pancoran", "name": "Pancoran", "station_code": "PNC", "stop_code": "PNC", "naming_rights": "", "mode": "LRT Jabodebek", "line": "Cibubur Line / Bekasi Line", "line_name": "Cibubur Line / Bekasi Line", "line_code": "BK", "line_codes": ",BK,CB,", "branch": "shared", "station_type": "intermediate", "station_type_label": "Stasiun antara", "interchange": true, "interchange_label": "Stasiun antara", "interchange_mode": "", "active_2026": true, "status": "existing", "status_label": "Jaringan saat ini", "operator": "LRT Jabodebek / KAI", "latitude": -6.2421132, "longitude": 106.8385223, "source": "OpenStreetMap route relations", "source_type": "osm", "source_url": "https://www.openstreetmap.org", "license": "ODbL", "retrieved_at": "2026-09-10", "geometry_source": "osm_station", "osm_id": 11040204406, "color": "#4FAF86", "rail_dist_m": 0.0}}, {"type": "Feature", "id": "lrt-kng", "geometry": {"type": "Point", "coordinates": [106.8332233, -6.2287823]}, "properties": {"id": "lrt-kng", "station_id": "lrt-kng", "station_name": "Kuningan", "stop_name": "Kuningan", "name": "Kuningan", "station_code": "KNG", "stop_code": "KNG", "naming_rights": "", "mode": "LRT Jabodebek", "line": "Cibubur Line / Bekasi Line", "line_name": "Cibubur Line / Bekasi Line", "line_code": "BK", "line_codes": ",BK,CB,", "branch": "shared", "station_type": "intermediate", "station_type_label": "Stasiun antara", "interchange": true, "interchange_label": "Stasiun antara", "interchange_mode": "", "active_2026": true, "status": "existing", "status_label": "Jaringan saat ini", "operator": "LRT Jabodebek / KAI", "latitude": -6.2287823, "longitude": 106.8332233, "source": "OpenStreetMap route relations", "source_type": "osm", "source_url": "https://www.openstreetmap.org", "license": "ODbL", "retrieved_at": "2026-09-10", "geometry_source": "osm_station", "osm_id": 11040189503, "color": "#4FAF86", "rail_dist_m": 0.0}}, {"type": "Feature", "id": "lrt-rss", "geometry": {"type": "Point", "coordinates": [106.8322652, -6.2216294]}, "properties": {"id": "lrt-rss", "station_id": "lrt-rss", "station_name": "Rasuna Said", "stop_name": "Rasuna Said", "name": "Rasuna Said", "station_code": "RSS", "stop_code": "RSS", "naming_rights": "", "mode": "LRT Jabodebek", "line": "Cibubur Line / Bekasi Line", "line_name": "Cibubur Line / Bekasi Line", "line_code": "BK", "line_codes": ",BK,CB,", "branch": "shared", "station_type": "intermediate", "station_type_label": "Stasiun antara", "interchange": true, "interchange_label": "Stasiun antara", "interchange_mode": "", "active_2026": true, "status": "existing", "status_label": "Jaringan saat ini", "operator": "LRT Jabodebek / KAI", "latitude": -6.2216294, "longitude": 106.8322652, "source": "OpenStreetMap route relations", "source_type": "osm", "source_url": "https://www.openstreetmap.org", "license": "ODbL", "retrieved_at": "2026-09-10", "geometry_source": "osm_station", "osm_id": 11040189502, "color": "#4FAF86", "rail_dist_m": 0.0}}, {"type": "Feature", "id": "lrt-stb", "geometry": {"type": "Point", "coordinates": [106.8302634, -6.209335]}, "properties": {"id": "lrt-stb", "station_id": "lrt-stb", "station_name": "Setiabudi", "stop_name": "Setiabudi", "name": "Setiabudi", "station_code": "STB", "stop_code": "STB", "naming_rights": "", "mode": "LRT Jabodebek", "line": "Cibubur Line / Bekasi Line", "line_name": "Cibubur Line / Bekasi Line", "line_code": "BK", "line_codes": ",BK,CB,", "branch": "shared", "station_type": "intermediate", "station_type_label": "Stasiun antara", "interchange": true, "interchange_label": "Stasiun antara", "interchange_mode": "", "active_2026": true, "status": "existing", "status_label": "Jaringan saat ini", "operator": "LRT Jabodebek / KAI", "latitude": -6.209335, "longitude": 106.8302634, "source": "OpenStreetMap route relations", "source_type": "osm", "source_url": "https://www.openstreetmap.org", "license": "ODbL", "retrieved_at": "2026-09-10", "geometry_source": "osm_station", "osm_id": 9124364689, "color": "#4FAF86", "rail_dist_m": 0.0}}, {"type": "Feature", "id": "lrt-dka", "geometry": {"type": "Point", "coordinates": [106.8255355, -6.2048049]}, "properties": {"id": "lrt-dka", "station_id": "lrt-dka", "station_name": "Dukuh Atas BNI", "stop_name": "Dukuh Atas BNI", "name": "Dukuh Atas BNI", "station_code": "DKA", "stop_code": "DKA", "naming_rights": "Bank Syariah Indonesia", "mode": "LRT Jabodebek", "line": "Cibubur Line / Bekasi Line", "line_name": "Cibubur Line / Bekasi Line", "line_code": "BK", "line_codes": ",BK,CB,", "branch": "shared", "station_type": "terminus", "station_type_label": "Terminus", "interchange": true, "interchange_label": "Terminus", "interchange_mode": "MRT / KRL / TransJakarta / KA Bandara", "active_2026": true, "status": "existing", "status_label": "Jaringan saat ini", "operator": "LRT Jabodebek / KAI", "latitude": -6.2048049, "longitude": 106.8255355, "source": "OpenStreetMap route relations", "source_type": "osm", "source_url": "https://www.openstreetmap.org", "license": "ODbL", "retrieved_at": "2026-09-10", "geometry_source": "osm_station", "osm_id": 11040189500, "color": "#4FAF86", "rail_dist_m": 0.0}}, {"type": "Feature", "id": "lrt-jtm", "geometry": {"type": "Point", "coordinates": [107.0216705, -6.2640876]}, "properties": {"id": "lrt-jtm", "station_id": "lrt-jtm", "station_name": "Jatimulya", "stop_name": "Jatimulya", "name": "Jatimulya", "station_code": "JTM", "stop_code": "JTM", "naming_rights": "", "mode": "LRT Jabodebek", "line": "Bekasi Line", "line_name": "Bekasi Line", "line_code": "BK", "line_codes": ",BK,", "branch": "bekasi", "station_type": "terminus", "station_type_label": "Terminus", "interchange": false, "interchange_label": "Terminus", "interchange_mode": "", "active_2026": true, "status": "existing", "status_label": "Jaringan saat ini", "operator": "LRT Jabodebek / KAI", "latitude": -6.2640876, "longitude": 107.0216705, "source": "OpenStreetMap route relations", "source_type": "osm", "source_url": "https://www.openstreetmap.org", "license": "ODbL", "retrieved_at": "2026-09-10", "geometry_source": "osm_station", "osm_id": 11040189490, "color": "#4FAF86", "rail_dist_m": 0.0}}, {"type": "Feature", "id": "lrt-bkb", "geometry": {"type": "Point", "coordinates": [106.9904367, -6.2529239]}, "properties": {"id": "lrt-bkb", "station_id": "lrt-bkb", "station_name": "Bekasi Barat", "stop_name": "Bekasi Barat", "name": "Bekasi Barat", "station_code": "BKB", "stop_code": "BKB", "naming_rights": "", "mode": "LRT Jabodebek", "line": "Bekasi Line", "line_name": "Bekasi Line", "line_code": "BK", "line_codes": ",BK,", "branch": "bekasi", "station_type": "intermediate", "station_type_label": "Stasiun antara", "interchange": false, "interchange_label": "", "interchange_mode": "", "active_2026": true, "status": "existing", "status_label": "Jaringan saat ini", "operator": "LRT Jabodebek / KAI", "latitude": -6.2529239, "longitude": 106.9904367, "source": "OpenStreetMap route relations", "source_type": "osm", "source_url": "https://www.openstreetmap.org", "license": "ODbL", "retrieved_at": "2026-09-10", "geometry_source": "osm_station", "osm_id": 4982025827, "color": "#4FAF86", "rail_dist_m": 0.0}}, {"type": "Feature", "id": "lrt-ck2", "geometry": {"type": "Point", "coordinates": [106.96317, -6.2546488]}, "properties": {"id": "lrt-ck2", "station_id": "lrt-ck2", "station_name": "Cikunir 2", "stop_name": "Cikunir 2", "name": "Cikunir 2", "station_code": "CK2", "stop_code": "CK2", "naming_rights": "", "mode": "LRT Jabodebek", "line": "Bekasi Line", "line_name": "Bekasi Line", "line_code": "BK", "line_codes": ",BK,", "branch": "bekasi", "station_type": "intermediate", "station_type_label": "Stasiun antara", "interchange": false, "interchange_label": "", "interchange_mode": "", "active_2026": true, "status": "existing", "status_label": "Jaringan saat ini", "operator": "LRT Jabodebek / KAI", "latitude": -6.2546488, "longitude": 106.96317, "source": "OpenStreetMap route relations", "source_type": "osm", "source_url": "https://www.openstreetmap.org", "license": "ODbL", "retrieved_at": "2026-09-10", "geometry_source": "osm_station", "osm_id": 11040189492, "color": "#4FAF86", "rail_dist_m": 0.0}}, {"type": "Feature", "id": "lrt-ck1", "geometry": {"type": "Point", "coordinates": [106.9518783, -6.2565806]}, "properties": {"id": "lrt-ck1", "station_id": "lrt-ck1", "station_name": "Cikunir 1", "stop_name": "Cikunir 1", "name": "Cikunir 1", "station_code": "CK1", "stop_code": "CK1", "naming_rights": "", "mode": "LRT Jabodebek", "line": "Bekasi Line", "line_name": "Bekasi Line", "line_code": "BK", "line_codes": ",BK,", "branch": "bekasi", "station_type": "intermediate", "station_type_label": "Stasiun antara", "interchange": false, "interchange_label": "", "interchange_mode": "", "active_2026": true, "status": "existing", "status_label": "Jaringan saat ini", "operator": "LRT Jabodebek / KAI", "latitude": -6.2565806, "longitude": 106.9518783, "source": "OpenStreetMap route relations", "source_type": "osm", "source_url": "https://www.openstreetmap.org", "license": "ODbL", "retrieved_at": "2026-09-10", "geometry_source": "osm_station", "osm_id": 11040189494, "color": "#4FAF86", "rail_dist_m": 0.0}}, {"type": "Feature", "id": "lrt-jbb", "geometry": {"type": "Point", "coordinates": [106.9279159, -6.257704]}, "properties": {"id": "lrt-jbb", "station_id": "lrt-jbb", "station_name": "Jatibening Baru", "stop_name": "Jatibening Baru", "name": "Jatibening Baru", "station_code": "JBB", "stop_code": "JBB", "naming_rights": "", "mode": "LRT Jabodebek", "line": "Bekasi Line", "line_name": "Bekasi Line", "line_code": "BK", "line_codes": ",BK,", "branch": "bekasi", "station_type": "intermediate", "station_type_label": "Stasiun antara", "interchange": false, "interchange_label": "", "interchange_mode": "", "active_2026": true, "status": "existing", "status_label": "Jaringan saat ini", "operator": "LRT Jabodebek / KAI", "latitude": -6.257704, "longitude": 106.9279159, "source": "OpenStreetMap route relations", "source_type": "osm", "source_url": "https://www.openstreetmap.org", "license": "ODbL", "retrieved_at": "2026-09-10", "geometry_source": "osm_station", "osm_id": 12578386110, "color": "#4FAF86", "rail_dist_m": 0.0}}, {"type": "Feature", "id": "lrt-hlm", "geometry": {"type": "Point", "coordinates": [106.8872795, -6.245852]}, "properties": {"id": "lrt-hlm", "station_id": "lrt-hlm", "station_name": "Halim", "stop_name": "Halim", "name": "Halim", "station_code": "HLM", "stop_code": "HLM", "naming_rights": "", "mode": "LRT Jabodebek", "line": "Bekasi Line", "line_name": "Bekasi Line", "line_code": "BK", "line_codes": ",BK,", "branch": "bekasi", "station_type": "interchange", "station_type_label": "Simpul pertukaran", "interchange": true, "interchange_label": "Simpul pertukaran", "interchange_mode": "KA Bandara", "active_2026": true, "status": "existing", "status_label": "Jaringan saat ini", "operator": "LRT Jabodebek / KAI", "latitude": -6.245852, "longitude": 106.8872795, "source": "OpenStreetMap route relations", "source_type": "osm", "source_url": "https://www.openstreetmap.org", "license": "ODbL", "retrieved_at": "2026-09-10", "geometry_source": "osm_station", "osm_id": 11040189498, "color": "#4FAF86", "rail_dist_m": 0.0}}]}