{"type": "FeatureCollection", "features": [{"type": "Feature", "id": "mrt-e-01", "geometry": {"type": "LineString", "coordinates": [[106.7749323, -6.2892957], [106.7758382, -6.2893118], [106.7760651, -6.2893111], [106.7763224, -6.2892814], [106.7769335, -6.289185], [106.7772267, -6.289166], [106.7774632, -6.2891662], [106.7777173, -6.2891885], [106.7779414, -6.2892318], [106.7782452, -6.2893198], [106.7785706, -6.2894663], [106.7788519, -6.2896587], [106.7792491, -6.2899036], [106.7795949, -6.2901261], [106.7800927, -6.2904355], [106.7806277, -6.2907081], [106.7811012, -6.290882], [106.7816684, -6.2910723], [106.7824356, -6.2913099], [106.7832296, -6.2915376], [106.7840581, -6.2917809], [106.7849204, -6.2920609], [106.7855702, -6.2922524], [106.7860848, -6.292363], [106.7865146, -6.2924164], [106.7874175, -6.2924345], [106.790543, -6.2924629], [106.7924632, -6.2924711]]}, "properties": {"id": "mrt-e-01", "edge_id": "mrt-e-01", "from_station": "Lebak Bulus", "to_station": "Fatmawati", "line": "MRT North-South Line", "line_code": "NS", "line_codes": ",NS,", "mode": "MRT", "segment_type": "LINEAR", "active_2026": true, "status": "existing", "status_label": "Jaringan saat ini", "operator": "PT MRT Jakarta", "source": "OpenStreetMap route relations", "source_type": "osm", "source_url": "https://www.openstreetmap.org", "license": "ODbL", "retrieved_at": "2026-09-10", "geometry_source": "osm_rail_relation", "length_km": 2.011, "color": "#247A67"}}, {"type": "Feature", "id": "mrt-e-02", "geometry": {"type": "LineString", "coordinates": [[106.7924632, -6.2924711], [106.793627, -6.2924853], [106.7939048, -6.292451], [106.7941247, -6.2923857], [106.7943299, -6.292299], [106.794515, -6.2921817], [106.7946853, -6.2920551], [106.7948355, -6.2918938], [106.7949723, -6.2917165], [106.7950822, -6.2915125], [106.7951654, -6.2912953], [106.7952164, -6.2910913], [106.7952445, -6.290866], [106.7953585, -6.2897569], [106.795388, -6.289325], [106.795392, -6.2888731], [106.7953706, -6.2883666], [106.7954041, -6.288028], [106.7954167, -6.2878769], [106.7954357, -6.2877277], [106.7954642, -6.287582], [106.7954995, -6.2874051], [106.7956696, -6.2866175], [106.7957751, -6.2860123], [106.7958476, -6.2854603], [106.7959307, -6.2847708], [106.7959796, -6.2841352], [106.7960836, -6.2823792], [106.7961093, -6.2821011], [106.7961692, -6.2818209], [106.7963824, -6.2810617], [106.7964684, -6.2807771], [106.7965644, -6.2804974], [106.7966283, -6.2803536], [106.7969646, -6.2796151], [106.7970381, -6.2794275], [106.7971131, -6.2791926], [106.7972078, -6.2788485], [106.7973416, -6.2783724]]}, "properties": {"id": "mrt-e-02", "edge_id": "mrt-e-02", "from_station": "Fatmawati", "to_station": "Cipete Raya", "line": "MRT North-South Line", "line_code": "NS", "line_codes": ",NS,", "mode": "MRT", "segment_type": "LINEAR", "active_2026": true, "status": "existing", "status_label": "Jaringan saat ini", "operator": "PT MRT Jakarta", "source": "OpenStreetMap route relations", "source_type": "osm", "source_url": "https://www.openstreetmap.org", "license": "ODbL", "retrieved_at": "2026-09-10", "geometry_source": "osm_rail_relation", "length_km": 1.825, "color": "#247A67"}}, {"type": "Feature", "id": "mrt-e-03", "geometry": {"type": "LineString", "coordinates": [[106.7973416, -6.2783724], [106.7975549, -6.2776319], [106.79765, -6.2772738], [106.7977045, -6.2770081], [106.7977415, -6.2767378], [106.7977561, -6.27657], [106.7977595, -6.2763661], [106.7977337, -6.2748869], [106.797703, -6.2740123], [106.7976708, -6.2732009], [106.7976547, -6.2728463], [106.7975928, -6.271819], [106.7974823, -6.2701847], [106.7974683, -6.2700099], [106.7974411, -6.2696841], [106.7973318, -6.2682515], [106.797309, -6.2676417], [106.7973107, -6.2674231], [106.7973445, -6.2666958]]}, "properties": {"id": "mrt-e-03", "edge_id": "mrt-e-03", "from_station": "Cipete Raya", "to_station": "Haji Nawi", "line": "MRT North-South Line", "line_code": "NS", "line_codes": ",NS,", "mode": "MRT", "segment_type": "LINEAR", "active_2026": true, "status": "existing", "status_label": "Jaringan saat ini", "operator": "PT MRT Jakarta", "source": "OpenStreetMap route relations", "source_type": "osm", "source_url": "https://www.openstreetmap.org", "license": "ODbL", "retrieved_at": "2026-09-10", "geometry_source": "osm_rail_relation", "length_km": 1.306, "color": "#247A67"}}, {"type": "Feature", "id": "mrt-e-04", "geometry": {"type": "LineString", "coordinates": [[106.7973445, -6.2666958], [106.7973902, -6.2658742], [106.7974004, -6.2654988], [106.7973946, -6.2651621], [106.797384, -6.2647055], [106.7973678, -6.2645003], [106.7973341, -6.2643021], [106.7972424, -6.2639376], [106.7970055, -6.2631778], [106.7967414, -6.2623132], [106.7966721, -6.2620431], [106.7966363, -6.2617505], [106.7966325, -6.2615394], [106.7966421, -6.2612262], [106.7967447, -6.2601742], [106.796958, -6.2578122], [106.7970024, -6.2573587], [106.7970614, -6.2567823], [106.7971718, -6.2557872]]}, "properties": {"id": "mrt-e-04", "edge_id": "mrt-e-04", "from_station": "Haji Nawi", "to_station": "Blok A", "line": "MRT North-South Line", "line_code": "NS", "line_codes": ",NS,", "mode": "MRT", "segment_type": "LINEAR", "active_2026": true, "status": "existing", "status_label": "Jaringan saat ini", "operator": "PT MRT Jakarta", "source": "OpenStreetMap route relations", "source_type": "osm", "source_url": "https://www.openstreetmap.org", "license": "ODbL", "retrieved_at": "2026-09-10", "geometry_source": "osm_rail_relation", "length_km": 1.227, "color": "#247A67"}}, {"type": "Feature", "id": "mrt-e-05", "geometry": {"type": "LineString", "coordinates": [[106.7971718, -6.2557872], [106.7972954, -6.25448], [106.7973676, -6.2534206], [106.7974954, -6.2511031], [106.7975555, -6.2497736], [106.7975804, -6.2495007], [106.7976277, -6.2491107], [106.7978044, -6.2477806], [106.7979333, -6.2468744], [106.7979754, -6.2465874], [106.7981448, -6.2457317], [106.798203, -6.245424], [106.7982379, -6.2449172], [106.7982388, -6.2444226]]}, "properties": {"id": "mrt-e-05", "edge_id": "mrt-e-05", "from_station": "Blok A", "to_station": "Blok M", "line": "MRT North-South Line", "line_code": "NS", "line_codes": ",NS,", "mode": "MRT", "segment_type": "LINEAR", "active_2026": true, "status": "existing", "status_label": "Jaringan saat ini", "operator": "PT MRT Jakarta", "source": "OpenStreetMap route relations", "source_type": "osm", "source_url": "https://www.openstreetmap.org", "license": "ODbL", "retrieved_at": "2026-09-10", "geometry_source": "osm_rail_relation", "length_km": 1.271, "color": "#247A67"}}, {"type": "Feature", "id": "mrt-e-06", "geometry": {"type": "LineString", "coordinates": [[106.7982388, -6.2444226], [106.7982399, -6.24382], [106.7982384, -6.2435284], [106.7982383, -6.243223], [106.7982576, -6.24304], [106.7983145, -6.2426644], [106.7983501, -6.2425149], [106.7984475, -6.2420456], [106.7984735, -6.2417242], [106.7984715, -6.2399069], [106.7984696, -6.2387709]]}, "properties": {"id": "mrt-e-06", "edge_id": "mrt-e-06", "from_station": "Blok M", "to_station": "ASEAN", "line": "MRT North-South Line", "line_code": "NS", "line_codes": ",NS,", "mode": "MRT", "segment_type": "LINEAR", "active_2026": true, "status": "existing", "status_label": "Jaringan saat ini", "operator": "PT MRT Jakarta", "source": "OpenStreetMap route relations", "source_type": "osm", "source_url": "https://www.openstreetmap.org", "license": "ODbL", "retrieved_at": "2026-09-10", "geometry_source": "osm_rail_relation", "length_km": 0.631, "color": "#247A67"}}, {"type": "Feature", "id": "mrt-e-07", "geometry": {"type": "LineString", "coordinates": [[106.7984696, -6.2387709], [106.798472, -6.2379225], [106.7984725, -6.2366177], [106.7984807, -6.2352631], [106.7984838, -6.2336668], [106.7984838, -6.2330242], [106.7984892, -6.2322045], [106.7985177, -6.2317614], [106.7985941, -6.2313031], [106.7987036, -6.2308629], [106.7988511, -6.2304281], [106.7990153, -6.2300402], [106.799172, -6.229753], [106.7994126, -6.2293868], [106.7995858, -6.2291413], [106.7997449, -6.2289518], [106.7999633, -6.2287471], [106.8006992, -6.2281248], [106.8025236, -6.2267836]]}, "properties": {"id": "mrt-e-07", "edge_id": "mrt-e-07", "from_station": "ASEAN", "to_station": "Senayan", "line": "MRT North-South Line", "line_code": "NS", "line_codes": ",NS,", "mode": "MRT", "segment_type": "LINEAR", "active_2026": true, "status": "existing", "status_label": "Jaringan saat ini", "operator": "PT MRT Jakarta", "source": "OpenStreetMap route relations", "source_type": "osm", "source_url": "https://www.openstreetmap.org", "license": "ODbL", "retrieved_at": "2026-09-10", "geometry_source": "osm_rail_relation", "length_km": 1.516, "color": "#247A67"}}, {"type": "Feature", "id": "mrt-e-08", "geometry": {"type": "LineString", "coordinates": [[106.8025236, -6.2267836], [106.802998, -6.2263787], [106.8046475, -6.2251923], [106.806058, -6.2241208], [106.8086648, -6.2224417]]}, "properties": {"id": "mrt-e-08", "edge_id": "mrt-e-08", "from_station": "Senayan", "to_station": "Istora", "line": "MRT North-South Line", "line_code": "NS", "line_codes": ",NS,", "mode": "MRT", "segment_type": "LINEAR", "active_2026": true, "status": "existing", "status_label": "Jaringan saat ini", "operator": "PT MRT Jakarta", "source": "OpenStreetMap route relations", "source_type": "osm", "source_url": "https://www.openstreetmap.org", "license": "ODbL", "retrieved_at": "2026-09-10", "geometry_source": "osm_rail_relation", "length_km": 0.834, "color": "#247A67"}}, {"type": "Feature", "id": "mrt-e-09", "geometry": {"type": "LineString", "coordinates": [[106.8086648, -6.2224417], [106.809718, -6.2216295], [106.8104613, -6.2210342], [106.811756, -6.2200197], [106.8135192, -6.2186186], [106.8145633, -6.2177948], [106.8152853, -6.2172437], [106.8160581, -6.2166282], [106.8170373, -6.2158571], [106.817995, -6.2150625]]}, "properties": {"id": "mrt-e-09", "edge_id": "mrt-e-09", "from_station": "Istora", "to_station": "Bendungan Hilir", "line": "MRT North-South Line", "line_code": "NS", "line_codes": ",NS,", "mode": "MRT", "segment_type": "LINEAR", "active_2026": true, "status": "existing", "status_label": "Jaringan saat ini", "operator": "PT MRT Jakarta", "source": "OpenStreetMap route relations", "source_type": "osm", "source_url": "https://www.openstreetmap.org", "license": "ODbL", "retrieved_at": "2026-09-10", "geometry_source": "osm_rail_relation", "length_km": 1.318, "color": "#247A67"}}, {"type": "Feature", "id": "mrt-e-10", "geometry": {"type": "LineString", "coordinates": [[106.817995, -6.2150625], [106.8185071, -6.2146011], [106.8188467, -6.2142439], [106.8192125, -6.2138197], [106.8196434, -6.213245], [106.8200222, -6.2126399], [106.8205518, -6.2116168], [106.8212473, -6.2102478], [106.8215568, -6.209586], [106.8217621, -6.209095]]}, "properties": {"id": "mrt-e-10", "edge_id": "mrt-e-10", "from_station": "Bendungan Hilir", "to_station": "Setiabudi", "line": "MRT North-South Line", "line_code": "NS", "line_codes": ",NS,", "mode": "MRT", "segment_type": "LINEAR", "active_2026": true, "status": "existing", "status_label": "Jaringan saat ini", "operator": "PT MRT Jakarta", "source": "OpenStreetMap route relations", "source_type": "osm", "source_url": "https://www.openstreetmap.org", "license": "ODbL", "retrieved_at": "2026-09-10", "geometry_source": "osm_rail_relation", "length_km": 0.791, "color": "#247A67"}}, {"type": "Feature", "id": "mrt-e-11", "geometry": {"type": "LineString", "coordinates": [[106.8217621, -6.209095], [106.8218475, -6.2088571], [106.8219593, -6.2084157], [106.822092, -6.2077303], [106.8221501, -6.2072644], [106.8222978, -6.2058522], [106.8223812, -6.2046572], [106.8224168, -6.203603], [106.8224826, -6.2029376], [106.8225966, -6.2021061], [106.8228278, -6.2008018]]}, "properties": {"id": "mrt-e-11", "edge_id": "mrt-e-11", "from_station": "Setiabudi", "to_station": "Dukuh Atas", "line": "MRT North-South Line", "line_code": "NS", "line_codes": ",NS,", "mode": "MRT", "segment_type": "LINEAR", "active_2026": true, "status": "existing", "status_label": "Jaringan saat ini", "operator": "PT MRT Jakarta", "source": "OpenStreetMap route relations", "source_type": "osm", "source_url": "https://www.openstreetmap.org", "license": "ODbL", "retrieved_at": "2026-09-10", "geometry_source": "osm_rail_relation", "length_km": 0.932, "color": "#247A67"}}, {"type": "Feature", "id": "mrt-e-12", "geometry": {"type": "LineString", "coordinates": [[106.8228278, -6.2008018], [106.82294, -6.2002074], [106.8231464, -6.19895], [106.8231881, -6.1984637], [106.8231896, -6.1980175], [106.8231768, -6.1972397], [106.8231554, -6.1959949], [106.8231495, -6.1956292], [106.8231405, -6.1954207], [106.8231186, -6.1940905], [106.8231114, -6.1933638], [106.8230785, -6.1924063], [106.8230619, -6.1918487]]}, "properties": {"id": "mrt-e-12", "edge_id": "mrt-e-12", "from_station": "Dukuh Atas", "to_station": "Bundaran HI", "line": "MRT North-South Line", "line_code": "NS", "line_codes": ",NS,", "mode": "MRT", "segment_type": "LINEAR", "active_2026": true, "status": "existing", "status_label": "Jaringan saat ini", "operator": "PT MRT Jakarta", "source": "OpenStreetMap route relations", "source_type": "osm", "source_url": "https://www.openstreetmap.org", "license": "ODbL", "retrieved_at": "2026-09-10", "geometry_source": "osm_rail_relation", "length_km": 0.999, "color": "#247A67"}}]}