{"type": "FeatureCollection", "features": [{"type": "Feature", "id": "mrt-s13", "geometry": {"type": "Point", "coordinates": [106.7749323, -6.2892957]}, "properties": {"id": "mrt-s13", "station_id": "mrt-s13", "station_name": "Lebak Bulus", "stop_name": "Lebak Bulus", "name": "Lebak Bulus", "station_code": "S13", "stop_code": "S13", "naming_rights": "Grab / Bank Syariah Indonesia", "mode": "MRT", "line": "MRT North-South Line", "line_name": "MRT North-South Line", "line_code": "NS", "line_codes": ",NS,", "station_order": 1, "station_type": "terminus", "station_type_label": "Terminus", "interchange": true, "interchange_label": "Simpul pertukaran", "interchange_mode": "TransJakarta", "active_2026": true, "status": "existing", "status_label": "Jaringan saat ini", "operator": "PT MRT Jakarta", "latitude": -6.2892957, "longitude": 106.7749323, "source": "OpenStreetMap route relations", "source_type": "osm", "source_url": "https://www.openstreetmap.org", "license": "ODbL", "retrieved_at": "2026-09-10", "geometry_source": "osm_station", "osm_id": 6195584521, "color": "#247A67", "rail_dist_m": 0.0}}, {"type": "Feature", "id": "mrt-s12", "geometry": {"type": "Point", "coordinates": [106.7924632, -6.2924711]}, "properties": {"id": "mrt-s12", "station_id": "mrt-s12", "station_name": "Fatmawati", "stop_name": "Fatmawati", "name": "Fatmawati", "station_code": "S12", "stop_code": "S12", "naming_rights": "Indomaret", "mode": "MRT", "line": "MRT North-South Line", "line_name": "MRT North-South Line", "line_code": "NS", "line_codes": ",NS,", "station_order": 2, "station_type": "intermediate", "station_type_label": "Stasiun antara", "interchange": false, "interchange_label": "", "interchange_mode": "", "active_2026": true, "status": "existing", "status_label": "Jaringan saat ini", "operator": "PT MRT Jakarta", "latitude": -6.2924711, "longitude": 106.7924632, "source": "OpenStreetMap route relations", "source_type": "osm", "source_url": "https://www.openstreetmap.org", "license": "ODbL", "retrieved_at": "2026-09-10", "geometry_source": "osm_station", "osm_id": 6195584511, "color": "#247A67", "rail_dist_m": 0.0}}, {"type": "Feature", "id": "mrt-s11", "geometry": {"type": "Point", "coordinates": [106.7973416, -6.2783724]}, "properties": {"id": "mrt-s11", "station_id": "mrt-s11", "station_name": "Cipete Raya", "stop_name": "Cipete Raya", "name": "Cipete Raya", "station_code": "S11", "stop_code": "S11", "naming_rights": "TUKU", "mode": "MRT", "line": "MRT North-South Line", "line_name": "MRT North-South Line", "line_code": "NS", "line_codes": ",NS,", "station_order": 3, "station_type": "intermediate", "station_type_label": "Stasiun antara", "interchange": false, "interchange_label": "", "interchange_mode": "", "active_2026": true, "status": "existing", "status_label": "Jaringan saat ini", "operator": "PT MRT Jakarta", "latitude": -6.2783724, "longitude": 106.7973416, "source": "OpenStreetMap route relations", "source_type": "osm", "source_url": "https://www.openstreetmap.org", "license": "ODbL", "retrieved_at": "2026-09-10", "geometry_source": "osm_station", "osm_id": 5015723484, "color": "#247A67", "rail_dist_m": 0.0}}, {"type": "Feature", "id": "mrt-s10", "geometry": {"type": "Point", "coordinates": [106.7973445, -6.2666958]}, "properties": {"id": "mrt-s10", "station_id": "mrt-s10", "station_name": "Haji Nawi", "stop_name": "Haji Nawi", "name": "Haji Nawi", "station_code": "S10", "stop_code": "S10", "naming_rights": "", "mode": "MRT", "line": "MRT North-South Line", "line_name": "MRT North-South Line", "line_code": "NS", "line_codes": ",NS,", "station_order": 4, "station_type": "intermediate", "station_type_label": "Stasiun antara", "interchange": false, "interchange_label": "", "interchange_mode": "", "active_2026": true, "status": "existing", "status_label": "Jaringan saat ini", "operator": "PT MRT Jakarta", "latitude": -6.2666958, "longitude": 106.7973445, "source": "OpenStreetMap route relations", "source_type": "osm", "source_url": "https://www.openstreetmap.org", "license": "ODbL", "retrieved_at": "2026-09-10", "geometry_source": "osm_station", "osm_id": 6195584505, "color": "#247A67", "rail_dist_m": 0.0}}, {"type": "Feature", "id": "mrt-s09", "geometry": {"type": "Point", "coordinates": [106.7971718, -6.2557872]}, "properties": {"id": "mrt-s09", "station_id": "mrt-s09", "station_name": "Blok A", "stop_name": "Blok A", "name": "Blok A", "station_code": "S09", "stop_code": "S09", "naming_rights": "VISA", "mode": "MRT", "line": "MRT North-South Line", "line_name": "MRT North-South Line", "line_code": "NS", "line_codes": ",NS,", "station_order": 5, "station_type": "intermediate", "station_type_label": "Stasiun antara", "interchange": false, "interchange_label": "", "interchange_mode": "", "active_2026": true, "status": "existing", "status_label": "Jaringan saat ini", "operator": "PT MRT Jakarta", "latitude": -6.2557872, "longitude": 106.7971718, "source": "OpenStreetMap route relations", "source_type": "osm", "source_url": "https://www.openstreetmap.org", "license": "ODbL", "retrieved_at": "2026-09-10", "geometry_source": "osm_station", "osm_id": 6195584499, "color": "#247A67", "rail_dist_m": 0.0}}, {"type": "Feature", "id": "mrt-s08", "geometry": {"type": "Point", "coordinates": [106.7982388, -6.2444226]}, "properties": {"id": "mrt-s08", "station_id": "mrt-s08", "station_name": "Blok M", "stop_name": "Blok M", "name": "Blok M", "station_code": "S08", "stop_code": "S08", "naming_rights": "BCA", "mode": "MRT", "line": "MRT North-South Line", "line_name": "MRT North-South Line", "line_code": "NS", "line_codes": ",NS,", "station_order": 6, "station_type": "interchange", "station_type_label": "Simpul pertukaran", "interchange": true, "interchange_label": "Simpul pertukaran", "interchange_mode": "TransJakarta", "active_2026": true, "status": "existing", "status_label": "Jaringan saat ini", "operator": "PT MRT Jakarta", "latitude": -6.2444226, "longitude": 106.7982388, "source": "OpenStreetMap route relations", "source_type": "osm", "source_url": "https://www.openstreetmap.org", "license": "ODbL", "retrieved_at": "2026-09-10", "geometry_source": "osm_station", "osm_id": 6195584486, "color": "#247A67", "rail_dist_m": 0.0}}, {"type": "Feature", "id": "mrt-s07", "geometry": {"type": "Point", "coordinates": [106.7984696, -6.2387709]}, "properties": {"id": "mrt-s07", "station_id": "mrt-s07", "station_name": "ASEAN", "stop_name": "ASEAN", "name": "ASEAN", "station_code": "S07", "stop_code": "S07", "naming_rights": "Headquarters", "mode": "MRT", "line": "MRT North-South Line", "line_name": "MRT North-South Line", "line_code": "NS", "line_codes": ",NS,", "station_order": 7, "station_type": "intermediate", "station_type_label": "Stasiun antara", "interchange": false, "interchange_label": "", "interchange_mode": "", "active_2026": true, "status": "existing", "status_label": "Jaringan saat ini", "operator": "PT MRT Jakarta", "latitude": -6.2387709, "longitude": 106.7984696, "source": "OpenStreetMap route relations", "source_type": "osm", "source_url": "https://www.openstreetmap.org", "license": "ODbL", "retrieved_at": "2026-09-10", "geometry_source": "osm_station", "osm_id": 6195583573, "color": "#247A67", "rail_dist_m": 0.0}}, {"type": "Feature", "id": "mrt-s06", "geometry": {"type": "Point", "coordinates": [106.8025236, -6.2267836]}, "properties": {"id": "mrt-s06", "station_id": "mrt-s06", "station_name": "Senayan", "stop_name": "Senayan", "name": "Senayan", "station_code": "S06", "stop_code": "S06", "naming_rights": "Mastercard", "mode": "MRT", "line": "MRT North-South Line", "line_name": "MRT North-South Line", "line_code": "NS", "line_codes": ",NS,", "station_order": 8, "station_type": "interchange", "station_type_label": "Simpul pertukaran", "interchange": true, "interchange_label": "Simpul pertukaran", "interchange_mode": "TransJakarta", "active_2026": true, "status": "existing", "status_label": "Jaringan saat ini", "operator": "PT MRT Jakarta", "latitude": -6.2267836, "longitude": 106.8025236, "source": "OpenStreetMap route relations", "source_type": "osm", "source_url": "https://www.openstreetmap.org", "license": "ODbL", "retrieved_at": "2026-09-10", "geometry_source": "osm_station", "osm_id": 6195583571, "color": "#247A67", "rail_dist_m": 0.0}}, {"type": "Feature", "id": "mrt-s05", "geometry": {"type": "Point", "coordinates": [106.8086648, -6.2224417]}, "properties": {"id": "mrt-s05", "station_id": "mrt-s05", "station_name": "Istora", "stop_name": "Istora", "name": "Istora", "station_code": "S05", "stop_code": "S05", "naming_rights": "Mandiri", "mode": "MRT", "line": "MRT North-South Line", "line_name": "MRT North-South Line", "line_code": "NS", "line_codes": ",NS,", "station_order": 9, "station_type": "interchange", "station_type_label": "Simpul pertukaran", "interchange": true, "interchange_label": "Simpul pertukaran", "interchange_mode": "TransJakarta", "active_2026": true, "status": "existing", "status_label": "Jaringan saat ini", "operator": "PT MRT Jakarta", "latitude": -6.2224417, "longitude": 106.8086648, "source": "OpenStreetMap route relations", "source_type": "osm", "source_url": "https://www.openstreetmap.org", "license": "ODbL", "retrieved_at": "2026-09-10", "geometry_source": "osm_station", "osm_id": 6195583570, "color": "#247A67", "rail_dist_m": 0.0}}, {"type": "Feature", "id": "mrt-s04", "geometry": {"type": "Point", "coordinates": [106.817995, -6.2150625]}, "properties": {"id": "mrt-s04", "station_id": "mrt-s04", "station_name": "Bendungan Hilir", "stop_name": "Bendungan Hilir", "name": "Bendungan Hilir", "station_code": "S04", "stop_code": "S04", "naming_rights": "", "mode": "MRT", "line": "MRT North-South Line", "line_name": "MRT North-South Line", "line_code": "NS", "line_codes": ",NS,", "station_order": 10, "station_type": "interchange", "station_type_label": "Simpul pertukaran", "interchange": true, "interchange_label": "Simpul pertukaran", "interchange_mode": "TransJakarta", "active_2026": true, "status": "existing", "status_label": "Jaringan saat ini", "operator": "PT MRT Jakarta", "latitude": -6.2150625, "longitude": 106.817995, "source": "OpenStreetMap route relations", "source_type": "osm", "source_url": "https://www.openstreetmap.org", "license": "ODbL", "retrieved_at": "2026-09-10", "geometry_source": "osm_station", "osm_id": 6195583569, "color": "#247A67", "rail_dist_m": 0.0}}, {"type": "Feature", "id": "mrt-s03", "geometry": {"type": "Point", "coordinates": [106.8217621, -6.209095]}, "properties": {"id": "mrt-s03", "station_id": "mrt-s03", "station_name": "Setiabudi", "stop_name": "Setiabudi", "name": "Setiabudi", "station_code": "S03", "stop_code": "S03", "naming_rights": "Astra", "mode": "MRT", "line": "MRT North-South Line", "line_name": "MRT North-South Line", "line_code": "NS", "line_codes": ",NS,", "station_order": 11, "station_type": "intermediate", "station_type_label": "Stasiun antara", "interchange": false, "interchange_label": "", "interchange_mode": "", "active_2026": true, "status": "existing", "status_label": "Jaringan saat ini", "operator": "PT MRT Jakarta", "latitude": -6.209095, "longitude": 106.8217621, "source": "OpenStreetMap route relations", "source_type": "osm", "source_url": "https://www.openstreetmap.org", "license": "ODbL", "retrieved_at": "2026-09-10", "geometry_source": "osm_station", "osm_id": 6124539277, "color": "#247A67", "rail_dist_m": 0.0}}, {"type": "Feature", "id": "mrt-s02", "geometry": {"type": "Point", "coordinates": [106.8228278, -6.2008018]}, "properties": {"id": "mrt-s02", "station_id": "mrt-s02", "station_name": "Dukuh Atas", "stop_name": "Dukuh Atas", "name": "Dukuh Atas", "station_code": "S02", "stop_code": "S02", "naming_rights": "BNI", "mode": "MRT", "line": "MRT North-South Line", "line_name": "MRT North-South Line", "line_code": "NS", "line_codes": ",NS,", "station_order": 12, "station_type": "interchange", "station_type_label": "Simpul pertukaran", "interchange": true, "interchange_label": "Simpul pertukaran", "interchange_mode": "LRT Jabodebek / KRL / TransJakarta", "active_2026": true, "status": "existing", "status_label": "Jaringan saat ini", "operator": "PT MRT Jakarta", "latitude": -6.2008018, "longitude": 106.8228278, "source": "OpenStreetMap route relations", "source_type": "osm", "source_url": "https://www.openstreetmap.org", "license": "ODbL", "retrieved_at": "2026-09-10", "geometry_source": "osm_station", "osm_id": 5850566188, "color": "#247A67", "rail_dist_m": 0.0}}, {"type": "Feature", "id": "mrt-s01", "geometry": {"type": "Point", "coordinates": [106.8230619, -6.1918487]}, "properties": {"id": "mrt-s01", "station_id": "mrt-s01", "station_name": "Bundaran HI", "stop_name": "Bundaran HI", "name": "Bundaran HI", "station_code": "S01", "stop_code": "S01", "naming_rights": "Bank Jakarta", "mode": "MRT", "line": "MRT North-South Line", "line_name": "MRT North-South Line", "line_code": "NS", "line_codes": ",NS,", "station_order": 13, "station_type": "terminus", "station_type_label": "Terminus", "interchange": true, "interchange_label": "Simpul pertukaran", "interchange_mode": "TransJakarta", "active_2026": true, "status": "existing", "status_label": "Jaringan saat ini", "operator": "PT MRT Jakarta", "latitude": -6.1918487, "longitude": 106.8230619, "source": "OpenStreetMap route relations", "source_type": "osm", "source_url": "https://www.openstreetmap.org", "license": "ODbL", "retrieved_at": "2026-09-10", "geometry_source": "osm_station", "osm_id": 6195583567, "color": "#247A67", "rail_dist_m": 0.0}}]}