{"type": "FeatureCollection", "crs": {"type": "name", "properties": {"name": "EPSG:4326"}}, "features": [{"type": "Feature", "id": "CAS-TJ06-S01-IX", "geometry": {"type": "Point", "coordinates": [106.72602, -6.2306]}, "properties": {"id": "CAS-TJ06-S01-IX", "route_id": "CAS-TJ06", "stop_id": "CAS-TJ06-S01", "stop_name": "Puri Beta", "interchange_mode": "BRT+CASCADE", "name": "Puri Beta", "color": "#D62F7F"}}, {"type": "Feature", "id": "CAS-TJ06-S02-IX", "geometry": {"type": "Point", "coordinates": [106.73766554938659, -6.229788598158408]}, "properties": {"id": "CAS-TJ06-S02-IX", "route_id": "CAS-TJ06", "stop_id": "CAS-TJ06-S02", "stop_name": "Simpang Joglo", "interchange_mode": "CASCADE", "name": "Simpang Joglo", "color": "#D62F7F"}}, {"type": "Feature", "id": "CAS-TJ06-S03-IX", "geometry": {"type": "Point", "coordinates": [106.738501702419, -6.220198490917775]}, "properties": {"id": "CAS-TJ06-S03-IX", "route_id": "CAS-TJ06", "stop_id": "CAS-TJ06-S03", "stop_name": "Joglo Raya", "interchange_mode": "CASCADE", "name": "Joglo Raya", "color": "#D62F7F"}}, {"type": "Feature", "id": "CAS-TJ06-S04-IX", "geometry": {"type": "Point", "coordinates": [106.75021985273064, -6.217825584449451]}, "properties": {"id": "CAS-TJ06-S04-IX", "route_id": "CAS-TJ06", "stop_id": "CAS-TJ06-S04", "stop_name": "Raya Pos Pengumben", "interchange_mode": "CASCADE", "name": "Raya Pos Pengumben", "color": "#D62F7F"}}, {"type": "Feature", "id": "CAS-TJ06-S05-IX", "geometry": {"type": "Point", "coordinates": [106.76029187083023, -6.217420611069835]}, "properties": {"id": "CAS-TJ06-S05-IX", "route_id": "CAS-TJ06", "stop_id": "CAS-TJ06-S05", "stop_name": "Joglo Timur", "interchange_mode": "CASCADE", "name": "Joglo Timur", "color": "#D62F7F"}}, {"type": "Feature", "id": "CAS-TJ06-S06-IX", "geometry": {"type": "Point", "coordinates": [106.76935391868732, -6.216675763400011]}, "properties": {"id": "CAS-TJ06-S06-IX", "route_id": "CAS-TJ06", "stop_id": "CAS-TJ06-S06", "stop_name": "Kelapa Dua Raya", "interchange_mode": "CASCADE", "name": "Kelapa Dua Raya", "color": "#D62F7F"}}, {"type": "Feature", "id": "CAS-TJ06-S07-IX", "geometry": {"type": "Point", "coordinates": [106.77226, -6.21294]}, "properties": {"id": "CAS-TJ06-S07-IX", "route_id": "CAS-TJ06", "stop_id": "CAS-TJ06-S07", "stop_name": "Pos Pengumben", "interchange_mode": "BRT+CASCADE", "name": "Pos Pengumben", "color": "#D62F7F"}}, {"type": "Feature", "id": "CAS-TJ06-S10-IX", "geometry": {"type": "Point", "coordinates": [106.79989371488286, -6.200588397894876]}, "properties": {"id": "CAS-TJ06-S10-IX", "route_id": "CAS-TJ06", "stop_id": "CAS-TJ06-S10", "stop_name": "Palmerah", "interchange_mode": "BRT", "name": "Palmerah", "color": "#D62F7F"}}, {"type": "Feature", "id": "CAS-TJ06-S12-IX", "geometry": {"type": "Point", "coordinates": [106.81119841231119, -6.185979423654354]}, "properties": {"id": "CAS-TJ06-S12-IX", "route_id": "CAS-TJ06", "stop_id": "CAS-TJ06-S12", "stop_name": "Tanah Abang", "interchange_mode": "KRL+CASCADE", "name": "Tanah Abang", "color": "#D62F7F"}}, {"type": "Feature", "id": "CAS-TJ06-S14-IX", "geometry": {"type": "Point", "coordinates": [106.82271, -6.17641]}, "properties": {"id": "CAS-TJ06-S14-IX", "route_id": "CAS-TJ06", "stop_id": "CAS-TJ06-S14", "stop_name": "Monas", "interchange_mode": "BRT+CASCADE", "name": "Monas", "color": "#D62F7F"}}, {"type": "Feature", "id": "CAS-TJ07-S01-IX", "geometry": {"type": "Point", "coordinates": [106.82271, -6.17641]}, "properties": {"id": "CAS-TJ07-S01-IX", "route_id": "CAS-TJ07", "stop_id": "CAS-TJ07-S01", "stop_name": "Monas", "interchange_mode": "BRT+CASCADE", "name": "Monas", "color": "#D62F7F"}}, {"type": "Feature", "id": "CAS-TJ07-S02-IX", "geometry": {"type": "Point", "coordinates": [106.82285739108939, -6.182780192510534]}, "properties": {"id": "CAS-TJ07-S02-IX", "route_id": "CAS-TJ07", "stop_id": "CAS-TJ07-S02", "stop_name": "Kebon Sirih", "interchange_mode": "BRT", "name": "Kebon Sirih", "color": "#D62F7F"}}, {"type": "Feature", "id": "CAS-TJ07-S04-IX", "geometry": {"type": "Point", "coordinates": [106.8111497, -6.1846813]}, "properties": {"id": "CAS-TJ07-S04-IX", "route_id": "CAS-TJ07", "stop_id": "CAS-TJ07-S04", "stop_name": "Jatibaru", "interchange_mode": "KRL+CASCADE", "name": "Jatibaru", "color": "#D62F7F"}}, {"type": "Feature", "id": "CAS-TJ07-S05-IX", "geometry": {"type": "Point", "coordinates": [106.799764575, -6.189457675]}, "properties": {"id": "CAS-TJ07-S05-IX", "route_id": "CAS-TJ07", "stop_id": "CAS-TJ07-S05", "stop_name": "Slipi", "interchange_mode": "BRT", "name": "Slipi", "color": "#D62F7F"}}, {"type": "Feature", "id": "CAS-TJ07-S11-IX", "geometry": {"type": "Point", "coordinates": [106.77226, -6.21294]}, "properties": {"id": "CAS-TJ07-S11-IX", "route_id": "CAS-TJ07", "stop_id": "CAS-TJ07-S11", "stop_name": "Pos Pengumben", "interchange_mode": "BRT+CASCADE", "name": "Pos Pengumben", "color": "#D62F7F"}}, {"type": "Feature", "id": "CAS-TJ07-S12-IX", "geometry": {"type": "Point", "coordinates": [106.769416, -6.216523]}, "properties": {"id": "CAS-TJ07-S12-IX", "route_id": "CAS-TJ07", "stop_id": "CAS-TJ07-S12", "stop_name": "Kelapa Dua Joglo", "interchange_mode": "CASCADE", "name": "Kelapa Dua Joglo", "color": "#D62F7F"}}, {"type": "Feature", "id": "CAS-TJ07-S13-IX", "geometry": {"type": "Point", "coordinates": [106.760292, -6.217421]}, "properties": {"id": "CAS-TJ07-S13-IX", "route_id": "CAS-TJ07", "stop_id": "CAS-TJ07-S13", "stop_name": "Joglo Timur", "interchange_mode": "CASCADE", "name": "Joglo Timur", "color": "#D62F7F"}}, {"type": "Feature", "id": "CAS-TJ07-S14-IX", "geometry": {"type": "Point", "coordinates": [106.74921543769959, -6.217519515856095]}, "properties": {"id": "CAS-TJ07-S14-IX", "route_id": "CAS-TJ07", "stop_id": "CAS-TJ07-S14", "stop_name": "Ciledug Raya", "interchange_mode": "CASCADE", "name": "Ciledug Raya", "color": "#D62F7F"}}, {"type": "Feature", "id": "CAS-TJ07-S15-IX", "geometry": {"type": "Point", "coordinates": [106.738501702419, -6.220198490917775]}, "properties": {"id": "CAS-TJ07-S15-IX", "route_id": "CAS-TJ07", "stop_id": "CAS-TJ07-S15", "stop_name": "Joglo Raya", "interchange_mode": "CASCADE", "name": "Joglo Raya", "color": "#D62F7F"}}, {"type": "Feature", "id": "CAS-TJ07-S16-IX", "geometry": {"type": "Point", "coordinates": [106.73766554938659, -6.229788598158408]}, "properties": {"id": "CAS-TJ07-S16-IX", "route_id": "CAS-TJ07", "stop_id": "CAS-TJ07-S16", "stop_name": "Simpang Joglo", "interchange_mode": "CASCADE", "name": "Simpang Joglo", "color": "#D62F7F"}}, {"type": "Feature", "id": "CAS-TJ07-S17-IX", "geometry": {"type": "Point", "coordinates": [106.72602, -6.2306]}, "properties": {"id": "CAS-TJ07-S17-IX", "route_id": "CAS-TJ07", "stop_id": "CAS-TJ07-S17", "stop_name": "Puri Beta", "interchange_mode": "BRT+CASCADE", "name": "Puri Beta", "color": "#D62F7F"}}, {"type": "Feature", "id": "CAS-TJ08-S01-IX", "geometry": {"type": "Point", "coordinates": [106.88634, -6.29108]}, "properties": {"id": "CAS-TJ08-S01-IX", "route_id": "CAS-TJ08", "stop_id": "CAS-TJ08-S01", "stop_name": "Pinang Ranti", "interchange_mode": "BRT", "name": "Pinang Ranti", "color": "#D62F7F"}}, {"type": "Feature", "id": "CAS-TJ08-S13-IX", "geometry": {"type": "Point", "coordinates": [106.90306, -6.2136]}, "properties": {"id": "CAS-TJ08-S13-IX", "route_id": "CAS-TJ08", "stop_id": "CAS-TJ08-S13", "stop_name": "Klender", "interchange_mode": "BRT", "name": "Klender", "color": "#D62F7F"}}, {"type": "Feature", "id": "CAS-TJ08-S15-IX", "geometry": {"type": "Point", "coordinates": [106.90580918261615, -6.19254511002032]}, "properties": {"id": "CAS-TJ08-S15-IX", "route_id": "CAS-TJ08", "stop_id": "CAS-TJ08-S15", "stop_name": "Pemuda Merdeka", "interchange_mode": "BRT", "name": "Pemuda Merdeka", "color": "#D62F7F"}}, {"type": "Feature", "id": "CAS-TJ08-S16-IX", "geometry": {"type": "Point", "coordinates": [106.90885, -6.18333]}, "properties": {"id": "CAS-TJ08-S16-IX", "route_id": "CAS-TJ08", "stop_id": "CAS-TJ08-S16", "stop_name": "Pulo Gadung", "interchange_mode": "BRT", "name": "Pulo Gadung", "color": "#D62F7F"}}, {"type": "Feature", "id": "CAS-TJ09-S01-IX", "geometry": {"type": "Point", "coordinates": [106.95265, -6.2127]}, "properties": {"id": "CAS-TJ09-S01-IX", "route_id": "CAS-TJ09", "stop_id": "CAS-TJ09-S01", "stop_name": "Pulo Gebang", "interchange_mode": "BRT", "name": "Pulo Gebang", "color": "#D62F7F"}}, {"type": "Feature", "id": "CAS-TJ09-S02-IX", "geometry": {"type": "Point", "coordinates": [106.9519772169169, -6.2194034381792385]}, "properties": {"id": "CAS-TJ09-S02-IX", "route_id": "CAS-TJ09", "stop_id": "CAS-TJ09-S02", "stop_name": "Stasiun Cakung", "interchange_mode": "KRL", "name": "Stasiun Cakung", "color": "#D62F7F"}}, {"type": "Feature", "id": "CAS-TJ09-S03-IX", "geometry": {"type": "Point", "coordinates": [106.94439500024137, -6.212590000126678]}, "properties": {"id": "CAS-TJ09-S03-IX", "route_id": "CAS-TJ09", "stop_id": "CAS-TJ09-S03", "stop_name": "Penggilingan", "interchange_mode": "BRT", "name": "Penggilingan", "color": "#D62F7F"}}, {"type": "Feature", "id": "CAS-TJ11-S01-IX", "geometry": {"type": "Point", "coordinates": [106.83313, -6.36017]}, "properties": {"id": "CAS-TJ11-S01-IX", "route_id": "CAS-TJ11", "stop_id": "CAS-TJ11-S01", "stop_name": "Menwa UI", "interchange_mode": "KRL", "name": "Menwa UI", "color": "#D62F7F"}}, {"type": "Feature", "id": "CAS-TJ11-S03-IX", "geometry": {"type": "Point", "coordinates": [106.83373628790878, -6.340625757996942]}, "properties": {"id": "CAS-TJ11-S03-IX", "route_id": "CAS-TJ11", "stop_id": "CAS-TJ11-S03", "stop_name": "Universitas Pancasila", "interchange_mode": "KRL", "name": "Universitas Pancasila", "color": "#D62F7F"}}, {"type": "Feature", "id": "CAS-TJ11-S04-IX", "geometry": {"type": "Point", "coordinates": [106.83445365663675, -6.330784688901904]}, "properties": {"id": "CAS-TJ11-S04-IX", "route_id": "CAS-TJ11", "stop_id": "CAS-TJ11-S04", "stop_name": "Lenteng Agung", "interchange_mode": "KRL", "name": "Lenteng Agung", "color": "#D62F7F"}}, {"type": "Feature", "id": "CAS-TJ11-S07-IX", "geometry": {"type": "Point", "coordinates": [106.83881315684326, -6.309719380431987]}, "properties": {"id": "CAS-TJ11-S07-IX", "route_id": "CAS-TJ11", "stop_id": "CAS-TJ11-S07", "stop_name": "Tanjung Barat", "interchange_mode": "KRL", "name": "Tanjung Barat", "color": "#D62F7F"}}, {"type": "Feature", "id": "CAS-TJ11-S09-IX", "geometry": {"type": "Point", "coordinates": [106.84423085230074, -6.2842285945695915]}, "properties": {"id": "CAS-TJ11-S09-IX", "route_id": "CAS-TJ11", "stop_id": "CAS-TJ11-S09", "stop_name": "Pasar Minggu", "interchange_mode": "KRL", "name": "Pasar Minggu", "color": "#D62F7F"}}, {"type": "Feature", "id": "CAS-TJ11-S12-IX", "geometry": {"type": "Point", "coordinates": [106.84368601628432, -6.243227938416969]}, "properties": {"id": "CAS-TJ11-S12-IX", "route_id": "CAS-TJ11", "stop_id": "CAS-TJ11-S12", "stop_name": "Pancoran", "interchange_mode": "BRT", "name": "Pancoran", "color": "#D62F7F"}}, {"type": "Feature", "id": "CAS-TJ11-S17-IX", "geometry": {"type": "Point", "coordinates": [106.834, -6.2055]}, "properties": {"id": "CAS-TJ11-S17-IX", "route_id": "CAS-TJ11", "stop_id": "CAS-TJ11-S17", "stop_name": "Sultan Agung", "interchange_mode": "BRT", "name": "Sultan Agung", "color": "#D62F7F"}}, {"type": "Feature", "id": "CAS-TJ11-S18-IX", "geometry": {"type": "Point", "coordinates": [106.82338, -6.2044]}, "properties": {"id": "CAS-TJ11-S18-IX", "route_id": "CAS-TJ11", "stop_id": "CAS-TJ11-S18", "stop_name": "Galunggung", "interchange_mode": "LRT+KRL+BRT", "name": "Galunggung", "color": "#D62F7F"}}]}