{"type": "FeatureCollection", "features": [{"type": "Feature", "properties": {"name": "Jalan Transyogi", "source": "nominatim_lrt", "osm_id": 55062433, "osm_type": "way"}, "geometry": {"type": "LineString", "coordinates": [[106.9517588, -6.391366], [106.9521511, -6.3914653], [106.952552, -6.3915692], [106.9534023, -6.3917811], [106.9541278, -6.3919637], [106.9543719, -6.3920063], [106.9546925, -6.3920224], [106.9551793, -6.392049], [106.9557747, -6.3920254], [106.9558948, -6.3920176], [106.9559714, -6.392014], [106.956056, -6.3920083], [106.9564907, -6.3920016], [106.9567826, -6.3920416], [106.9570273, -6.3920863], [106.9579205, -6.3923396], [106.9580546, -6.3923915], [106.9581793, -6.3924728], [106.9583035, -6.3926341], [106.9583952, -6.3929726], [106.958464, -6.3935778], [106.9584998, -6.3942667], [106.9584988, -6.3944866], [106.9585025, -6.3948452], [106.9585341, -6.3957674], [106.9585414, -6.3958594], [106.9585535, -6.3966676], [106.9585517, -6.3969132], [106.9585461, -6.3976666], [106.9585555, -6.3981343], [106.9585663, -6.3982003], [106.9586036, -6.3982748], [106.9589102, -6.3988295], [106.9591175, -6.3992058], [106.9595237, -6.3999396], [106.9597621, -6.4003898], [106.9598839, -6.4006683], [106.9599154, -6.4008645]]}}, {"type": "Feature", "properties": {"name": "Jalan Raya Cileungsi-Jonggol", "source": "nominatim_lrt", "osm_id": 1433192549, "osm_type": "way"}, "geometry": {"type": "LineString", "coordinates": [[106.9666108, -6.4058923], [106.9667181, -6.4059296], [106.9672318, -6.4061442], [106.9674276, -6.4062295], [106.9680874, -6.4065173], [106.9684087, -6.4066532], [106.9685387, -6.4067092], [106.9687405, -6.4067812], [106.9689155, -6.4068272], [106.969295, -6.406896], [106.9695732, -6.4069425], [106.9700127, -6.4070085], [106.9702822, -6.407052], [106.9705751, -6.4070956], [106.9708907, -6.4071194], [106.9713233, -6.4071557], [106.9718224, -6.407189], [106.9720573, -6.4072008], [106.9722458, -6.4072147], [106.9724203, -6.4072287], [106.9725358, -6.4072344], [106.9727869, -6.4072489], [106.973078, -6.4072273], [106.9733287, -6.4071909], [106.9735445, -6.4071452], [106.9739097, -6.4069726], [106.9740647, -6.4069025], [106.9742946, -6.4067876], [106.9746189, -6.4066405], [106.9747959, -6.4065774], [106.9749464, -6.4065237], [106.9753203, -6.4064702], [106.975558, -6.406458], [106.9761, -6.4065113]]}}, {"type": "Feature", "properties": {"name": "Jalan Alternatif Cibubur-Cileungsi", "source": "nominatim_lrt", "osm_id": 55062431, "osm_type": "way"}, "geometry": {"type": "LineString", "coordinates": [[106.9630456, -6.4045562], [106.9623859, -6.404267], [106.9609505, -6.4036951], [106.9605414, -6.4035045], [106.9604458, -6.4034407], [106.9603157, -6.4033248], [106.9602735, -6.4032848], [106.9602359, -6.4032441], [106.9601963, -6.4031948], [106.9601655, -6.4031229], [106.960143, -6.40291]]}}, {"type": "Feature", "properties": {"name": "Jalan Raya Cileungsi-Jonggol", "source": "nominatim_lrt", "osm_id": 55062429, "osm_type": "way"}, "geometry": {"type": "LineString", "coordinates": [[106.9762031, -6.4065235], [106.9765008, -6.4065565], [106.9768743, -6.406598], [106.9770466, -6.4066203], [106.9772018, -6.406657], [106.9773363, -6.4067], [106.9774485, -6.4067559], [106.9775676, -6.4068332], [106.9778594, -6.4070838], [106.9783543, -6.4075306], [106.9784529, -6.4076102], [106.9786435, -6.4077526], [106.9789495, -6.4079042], [106.9790032, -6.4079246], [106.9792515, -6.4080233], [106.9796413, -6.4081576], [106.9799447, -6.4082653], [106.9801422, -6.4083351], [106.980324, -6.4084034], [106.9804541, -6.4084521], [106.980787, -6.4085737], [106.980895, -6.4086151], [106.981115, -6.4087047], [106.9815792, -6.4088941], [106.9824574, -6.4092473], [106.9826533, -6.4093103], [106.9831392, -6.4094309], [106.9837199, -6.409547], [106.9841179, -6.4096303], [106.9842351, -6.4096534], [106.9849945, -6.4097913], [106.9850964, -6.4098076], [106.9852256, -6.4098316], [106.9860898, -6.4099107], [106.9865249, -6.4099278], [106.9867754, -6.4099357], [106.9874644, -6.4099449], [106.9875991, -6.4099454], [106.9885306, -6.4099451], [106.9888716, -6.4099372], [106.9891284, -6.4099313], [106.9893015, -6.4099273], [106.9893578, -6.409926], [106.9899887, -6.4098998], [106.9908176, -6.4098032], [106.9909033, -6.4097898], [106.9911733, -6.4097476], [106.9914236, -6.4097086], [106.99156, -6.4096803], [106.9916385, -6.4096641], [106.9921731, -6.4095385], [106.9931918, -6.4093027], [106.9935245, -6.4092014], [106.9940338, -6.4089935], [106.9943342, -6.4088496], [106.9947575, -6.4086439], [106.9949551, -6.4085463], [106.995181, -6.4084144], [106.9954808, -6.4082699], [106.9958658, -6.4080274], [106.9960336, -6.4079154], [106.9964481, -6.4076755], [106.9966625, -6.4075766], [106.9967656, -6.4075576], [106.9968568, -6.4075488], [106.9969353, -6.4075476], [106.9970263, -6.4075628], [106.9972215, -6.4076169], [106.9974713, -6.4076942], [106.9978478, -6.4078043], [106.9983057, -6.4079348], [106.9985567, -6.4080095], [106.9992662, -6.4081929], [106.9994022, -6.4082245], [106.9998998, -6.4083399], [107.0006055, -6.4084884], [107.0009304, -6.4085489], [107.0012472, -6.4086184], [107.0015989, -6.408691], [107.0018386, -6.4087339], [107.0018779, -6.4087416], [107.0019483, -6.4087581], [107.0021558, -6.4087951], [107.0023805, -6.4088335], [107.0030004, -6.4089501], [107.0031533, -6.4089883], [107.0034894, -6.4090545], [107.003817, -6.4091201], [107.004095, -6.4091729], [107.0046009, -6.4092878], [107.0047534, -6.4093181], [107.0048238, -6.4093331], [107.0053307, -6.4094552], [107.0063913, -6.4096431], [107.0066138, -6.4096868], [107.0067618, -6.4097103], [107.0070625, -6.4097588], [107.0072141, -6.4097838], [107.0074456, -6.4098287], [107.0077586, -6.4099038], [107.0081549, -6.410011], [107.0085756, -6.4101756], [107.0088033, -6.41028], [107.0089951, -6.4103943], [107.0091078, -6.4104769], [107.00925, -6.4106501], [107.009335, -6.4108479], [107.0093972, -6.4109923], [107.0095235, -6.4113218], [107.0095654, -6.4113912], [107.0096716, -6.4115623], [107.0098078, -6.4116896], [107.0098843, -6.4117438], [107.0100134, -6.4118352], [107.0100673, -6.4118608], [107.0103311, -6.4119991], [107.0106194, -6.4121427], [107.0106755, -6.4121657], [107.0107861, -6.4122099], [107.0108968, -6.4122543], [107.0111021, -6.4123094], [107.0114927, -6.4123687], [107.0117605, -6.4124093], [107.0118699, -6.4124231], [107.0119229, -6.4124268], [107.0119763, -6.4124306], [107.0120803, -6.4124869], [107.0121925, -6.4125553], [107.0121978, -6.4125586], [107.0123509, -6.4126558], [107.012467, -6.4127744], [107.0125423, -6.4128825], [107.0126349, -6.413041], [107.0127369, -6.4132689], [107.0128648, -6.41358], [107.012956, -6.4138385], [107.0130673, -6.4140278], [107.013177, -6.4141153], [107.0132901, -6.414166], [107.0134235, -6.4141885], [107.0135415, -6.4142085], [107.0138419, -6.4141844], [107.0143623, -6.4141418], [107.0149712, -6.414052], [107.0156976, -6.4139589], [107.0157396, -6.4139565], [107.0161016, -6.4139152], [107.0162894, -6.4138859], [107.0163819, -6.4138712], [107.0164119, -6.4138671], [107.0164965, -6.4138557], [107.0169057, -6.4137698], [107.0169774, -6.4137514], [107.0173699, -6.4136691], [107.0174022, -6.4136656], [107.0174648, -6.4136493], [107.0174945, -6.4136432], [107.0179574, -6.4135226], [107.018298, -6.4134322], [107.0185117, -6.413378], [107.0192746, -6.4132122], [107.0198446, -6.4131177], [107.0199224, -6.413115], [107.0200106, -6.413121], [107.0201404, -6.4131336], [107.0202207, -6.4131566], [107.0203778, -6.4132319], [107.0204244, -6.4132583], [107.0206687, -6.4134347], [107.0207819, -6.4135375], [107.0208666, -6.4136368], [107.0209282, -6.4137287], [107.02099, -6.413838], [107.0210296, -6.4139142], [107.0210938, -6.4140375], [107.021177, -6.4142586], [107.0213503, -6.4147473], [107.0213556, -6.4147608], [107.021407, -6.4149055], [107.0215224, -6.4152655], [107.0215988, -6.4154319], [107.0216954, -6.4155625], [107.0218188, -6.4156611], [107.0224203, -6.4158933], [107.022492, -6.4159079], [107.0231357, -6.4160876], [107.0232813, -6.4161381], [107.023757, -6.4163031], [107.0242918, -6.4164694], [107.0243791, -6.4165032], [107.0245694, -6.4165673], [107.0246246, -6.4165765], [107.0248905, -6.4166606], [107.0249744, -6.4166926], [107.0253037, -6.4168157], [107.0254008, -6.4168395], [107.0257267, -6.4169405], [107.0261017, -6.4170686], [107.0262895, -6.4171593], [107.0265059, -6.417238], [107.0269205, -6.4173996], [107.0271463, -6.4175004], [107.0272905, -6.4175535], [107.0274448, -6.4176137], [107.02785, -6.4177496], [107.0280656, -6.4177959], [107.0283821, -6.4178737], [107.0286836, -6.4179331], [107.0288126, -6.4179428], [107.0289065, -6.4179614], [107.0290109, -6.417975], [107.0291023, -6.4180027], [107.0291945, -6.4180459], [107.0293544, -6.4181482], [107.0294037, -6.4181825], [107.0295378, -6.4182798], [107.0301953, -6.4187703], [107.0307652, -6.4191904], [107.0310704, -6.4194095], [107.031354, -6.4196313]]}}, {"type": "Feature", "properties": {"name": "Jalan Raya Cileungsi-Jonggol", "source": "nominatim_lrt", "osm_id": 181751532, "osm_type": "way"}, "geometry": {"type": "LineString", "coordinates": [[106.9632283, -6.4043744], [106.9637369, -6.4045875], [106.96487, -6.4050599], [106.9650818, -6.4051492], [106.9654521, -6.4052999], [106.9655876, -6.4053665], [106.9656902, -6.4054745]]}}, {"type": "Feature", "properties": {"name": "Jalan Raya Cileungsi-Jonggol", "source": "nominatim_lrt", "osm_id": 568040187, "osm_type": "way"}, "geometry": {"type": "LineString", "coordinates": [[106.9654481, -6.4053845], [106.9656902, -6.4054745], [106.9665028, -6.405777], [106.9665693, -6.4058017], [106.9665981, -6.4058423], [106.9666108, -6.4058923]]}}, {"type": "Feature", "properties": {"name": "Jalan Raya Cileungsi-Jonggol", "source": "nominatim_lrt", "osm_id": 568040186, "osm_type": "way"}, "geometry": {"type": "LineString", "coordinates": [[106.9666108, -6.4058923], [106.9665716, -6.4059126], [106.9665331, -6.4059149], [106.9664586, -6.4058997], [106.9660144, -6.4057088], [106.9656849, -6.4055751], [106.965483, -6.4054952]]}}, {"type": "Feature", "properties": {"name": "Jalan Jambore Raya", "source": "nominatim_lrt", "osm_id": 112167984, "osm_type": "way"}, "geometry": {"type": "LineString", "coordinates": [[106.8876328, -6.3657821], [106.887133, -6.3651037], [106.8870134, -6.3648905], [106.8869832, -6.3647523], [106.8869811, -6.3646944], [106.887, -6.3646132], [106.887028, -6.3644986], [106.8870536, -6.364416], [106.8872637, -6.3639422], [106.8874801, -6.3634537], [106.8876113, -6.3631381], [106.8877039, -6.3629155], [106.8879987, -6.3622124], [106.8880755, -6.3620275], [106.8882243, -6.361679], [106.8884915, -6.3610146], [106.8886283, -6.3606807], [106.8887622, -6.3603562], [106.8887837, -6.3602974], [106.8888461, -6.3601442], [106.8893669, -6.3588644], [106.8894485, -6.3586759], [106.8894762, -6.3586118], [106.889603, -6.3583089], [106.8897352, -6.3579899], [106.8901183, -6.3570527], [106.8901924, -6.3568558], [106.8902085, -6.3568031], [106.8902239, -6.3567308], [106.8902272, -6.3566855], [106.8902273, -6.3566408], [106.8902205, -6.3566108], [106.8902021, -6.3565669], [106.8901816, -6.3565405], [106.8901548, -6.3565092], [106.8901096, -6.3564672], [106.8900362, -6.3564055], [106.8899128, -6.3563295], [106.8898921, -6.3563163]]}}, {"type": "Feature", "properties": {"name": "Jalan Jambore Raya", "source": "nominatim_lrt", "osm_id": 508388253, "osm_type": "way"}, "geometry": {"type": "LineString", "coordinates": [[106.8935193, -6.3701219], [106.8934221, -6.3700699], [106.8933067, -6.3699966], [106.8931203, -6.3699193], [106.8916016, -6.3693714], [106.8906043, -6.3690115], [106.8904971, -6.3689723], [106.89018, -6.3688463], [106.8898426, -6.3687122], [106.8897406, -6.3686515], [106.8896596, -6.3685716], [106.8896012, -6.3685056], [106.8895215, -6.3683592], [106.8894322, -6.3681753], [106.8893363, -6.367938]]}}, {"type": "Feature", "properties": {"name": "Jalan Jambore Raya", "source": "nominatim_lrt", "osm_id": 1260436465, "osm_type": "way"}, "geometry": {"type": "LineString", "coordinates": [[106.8888948, -6.366302], [106.888859, -6.3662357], [106.8888446, -6.3662013], [106.8887835, -6.3660571], [106.8887534, -6.3660061], [106.8887166, -6.3659646], [106.8886816, -6.3659321], [106.8886541, -6.3659131], [106.8886276, -6.3659005], [106.8885732, -6.3658873], [106.8885049, -6.3658832], [106.8882877, -6.3658703], [106.8882301, -6.3658653], [106.8880691, -6.3658514], [106.8877768, -6.3658221], [106.8876866, -6.3658047], [106.8876558, -6.3657947], [106.8876328, -6.3657821]]}}, {"type": "Feature", "properties": {"name": "Jalan Jambore Raya", "source": "nominatim_lrt", "osm_id": 319483384, "osm_type": "way"}, "geometry": {"type": "LineString", "coordinates": [[106.8960996, -6.3715953], [106.8953581, -6.3712126]]}}, {"type": "Feature", "properties": {"name": "Jalan Jambore Raya", "source": "nominatim_lrt", "osm_id": 1256798290, "osm_type": "way"}, "geometry": {"type": "LineString", "coordinates": [[106.8953581, -6.3712126], [106.8949605, -6.3710279]]}}, {"type": "Feature", "properties": {"name": "Jalan Jambore Raya", "source": "nominatim_lrt", "osm_id": 508303808, "osm_type": "way"}, "geometry": {"type": "LineString", "coordinates": [[106.8935193, -6.3701219], [106.8934496, -6.3699892], [106.8934308, -6.369874], [106.8934254, -6.3697487], [106.8934568, -6.3695594]]}}, {"type": "Feature", "properties": {"name": "Jalan Jambore Raya", "source": "nominatim_lrt", "osm_id": 1101750468, "osm_type": "way"}, "geometry": {"type": "LineString", "coordinates": [[106.8937125, -6.3702749], [106.8936206, -6.3702032], [106.8935786, -6.3701715]]}}, {"type": "Feature", "properties": {"name": "Jalan Kyai Haji Mas Mansyur", "source": "nominatim_lrt", "osm_id": 508304346, "osm_type": "way"}, "geometry": {"type": "LineString", "coordinates": [[106.816043, -6.203156], [106.8158006, -6.2022057], [106.8155211, -6.2012555], [106.8154763, -6.201111], [106.8153468, -6.2007079], [106.8152388, -6.2003958], [106.8147759, -6.1991251]]}}, {"type": "Feature", "properties": {"name": "Jalan Kyai Haji Mas Mansyur", "source": "nominatim_lrt", "osm_id": 28219153, "osm_type": "way"}, "geometry": {"type": "LineString", "coordinates": [[106.8144422, -6.198104], [106.8144757, -6.1981317], [106.8146613, -6.198458], [106.8147123, -6.1985582], [106.8148364, -6.1988764], [106.8148866, -6.1990049], [106.815007, -6.1993202], [106.8151827, -6.1997389], [106.8152095, -6.1998055], [106.8153385, -6.2001171], [106.81541, -6.2003187]]}}, {"type": "Feature", "properties": {"name": "Jalan Kyai Haji Mas Mansyur", "source": "nominatim_lrt", "osm_id": 692793926, "osm_type": "way"}, "geometry": {"type": "LineString", "coordinates": [[106.8150714, -6.1910926], [106.8150406, -6.1912382], [106.8150108, -6.1913853], [106.8149631, -6.1916209], [106.8149517, -6.191677], [106.8149368, -6.1917409], [106.8148401, -6.1922217], [106.814826, -6.1922905], [106.8147882, -6.1924746], [106.8147506, -6.1926279], [106.8146919, -6.1928662], [106.8146463, -6.1931245], [106.8145845, -6.1935439]]}}, {"type": "Feature", "properties": {"name": "Jalan Kyai Haji Mas Mansyur", "source": "nominatim_lrt", "osm_id": 508304349, "osm_type": "way"}, "geometry": {"type": "LineString", "coordinates": [[106.8145845, -6.1935439], [106.8145284, -6.1941457], [106.8145189, -6.1943351], [106.8145155, -6.1944068], [106.8145094, -6.1945384], [106.8145001, -6.1947178], [106.8144829, -6.1950588], [106.8144773, -6.1951704], [106.8144631, -6.1954364], [106.814459, -6.1956114], [106.814416, -6.1967082], [106.8144095, -6.1969709], [106.8144065, -6.1970904], [106.8144041, -6.1971857], [106.8143989, -6.1973371], [106.8143902, -6.1975879], [106.8143884, -6.1976402], [106.8143845, -6.1977597], [106.8143839, -6.1978377]]}}, {"type": "Feature", "properties": {"name": "Jalan Kyai Haji Mas Mansyur", "source": "nominatim_lrt", "osm_id": 456730847, "osm_type": "way"}, "geometry": {"type": "LineString", "coordinates": [[106.818199, -6.2132985], [106.8182545, -6.2135268], [106.8182635, -6.2135636], [106.8183081, -6.2137184], [106.8183559, -6.2138043], [106.8184097, -6.2138512]]}}, {"type": "Feature", "properties": {"name": "Jalan Kyai Haji Mas Mansyur", "source": "nominatim_lrt", "osm_id": 691960990, "osm_type": "way"}, "geometry": {"type": "LineString", "coordinates": [[106.8161982, -6.203786], [106.816043, -6.203156]]}}, {"type": "Feature", "properties": {"name": "Jalan Kyai Haji Mas Mansyur", "source": "nominatim_lrt", "osm_id": 765626989, "osm_type": "way"}, "geometry": {"type": "LineString", "coordinates": [[106.814881, -6.1997149], [106.8147045, -6.1992535]]}}, {"type": "Feature", "properties": {"name": "Jalan Kyai Haji Mas Mansyur", "source": "nominatim_lrt", "osm_id": 761799875, "osm_type": "way"}, "geometry": {"type": "LineString", "coordinates": [[106.8173281, -6.2077334], [106.8172125, -6.2074534]]}}, {"type": "Feature", "properties": {"name": "Jalan Bendungan Hilir", "source": "nominatim_lrt", "osm_id": 1349179459, "osm_type": "way"}, "geometry": {"type": "LineString", "coordinates": [[106.8123496, -6.2101275], [106.8123443, -6.2099849], [106.8123275, -6.2098389], [106.8123012, -6.2097053], [106.8122893, -6.2096449], [106.8120864, -6.2089714], [106.8119354, -6.2087699], [106.8117117, -6.2085118], [106.8113002, -6.2080697], [106.8110224, -6.2077205], [106.8109395, -6.2076244]]}}, {"type": "Feature", "properties": {"name": "Jalan Bendungan Hilir", "source": "nominatim_lrt", "osm_id": 1289614155, "osm_type": "way"}, "geometry": {"type": "LineString", "coordinates": [[106.8162167, -6.2162444], [106.8161841, -6.2161979], [106.8161351, -6.2161278], [106.8160488, -6.2160046], [106.8160045, -6.2159414], [106.8158759, -6.2157578], [106.8156856, -6.2154978], [106.8155255, -6.2152923], [106.8152599, -6.2149515], [106.815031, -6.2146712], [106.8148843, -6.2145042], [106.8148038, -6.2144403]]}}, {"type": "Feature", "properties": {"name": "Jalan Bendungan Hilir", "source": "nominatim_lrt", "osm_id": 760378277, "osm_type": "way"}, "geometry": {"type": "LineString", "coordinates": [[106.8108496, -6.2075239], [106.8108361, -6.2075092], [106.8107611, -6.2074277], [106.8106712, -6.2073304], [106.8104483, -6.2070647], [106.8102982, -6.2068858], [106.8102528, -6.2068323], [106.8101495, -6.2067105], [106.8100302, -6.2065171], [106.8098693, -6.2062465], [106.8097753, -6.2060558], [106.8097526, -6.2059998], [106.8097231, -6.2059158]]}}, {"type": "Feature", "properties": {"name": "Jalan Bendungan Hilir", "source": "nominatim_lrt", "osm_id": 760378276, "osm_type": "way"}, "geometry": {"type": "LineString", "coordinates": [[106.8109395, -6.2076244], [106.8108496, -6.2075239]]}}, {"type": "Feature", "properties": {"name": "Jalan Profesor Dokter Latumeten", "source": "nominatim_lrt", "osm_id": 489302925, "osm_type": "way"}, "geometry": {"type": "LineString", "coordinates": [[106.7942554, -6.1498543], [106.7942085, -6.1496846], [106.7941861, -6.1495434], [106.7941825, -6.1495113]]}}, {"type": "Feature", "properties": {"name": "Jalan Daan Mogot", "source": "nominatim_lrt", "osm_id": 690612870, "osm_type": "way"}, "geometry": {"type": "LineString", "coordinates": [[106.7143379, -6.155285], [106.7145764, -6.1551336], [106.7148135, -6.1549692], [106.7150561, -6.1548175], [106.7153388, -6.1546407], [106.7161815, -6.1541845], [106.716494, -6.1540331], [106.7167711, -6.1539092], [106.7168782, -6.1538597], [106.716951, -6.1538248], [106.7171587, -6.1537234], [106.7173395, -6.1536434], [106.7176957, -6.1534776], [106.7181107, -6.1532965], [106.7185382, -6.1531057], [106.718746, -6.1530362], [106.7187849, -6.1530232], [106.7188682, -6.1530076], [106.7192312, -6.1529562], [106.7195276, -6.152915], [106.7197863, -6.1528945], [106.7200195, -6.1528647], [106.7207207, -6.1527804], [106.720781, -6.152775], [106.7208896, -6.1527681]]}}, {"type": "Feature", "properties": {"name": "Jalan Daan Mogot", "source": "nominatim_lrt", "osm_id": 1103587021, "osm_type": "way"}, "geometry": {"type": "LineString", "coordinates": [[106.7064208, -6.1559024], [106.7064134, -6.1559057], [106.705397, -6.1563436], [106.7052301, -6.1564246], [106.7050401, -6.1565078], [106.7042828, -6.1568395], [106.7030681, -6.1573305]]}}, {"type": "Feature", "properties": {"name": "Jalan Daan Mogot", "source": "nominatim_lrt", "osm_id": 1371539573, "osm_type": "way"}, "geometry": {"type": "LineString", "coordinates": [[106.7145228, -6.1553782], [106.714319, -6.1555068], [106.7142115, -6.1555667], [106.714093, -6.1556177], [106.7139717, -6.1556582], [106.7138579, -6.1556884], [106.7137369, -6.1557104], [106.7135988, -6.1557295], [106.7131968, -6.1557427], [106.7122683, -6.1557168], [106.712143, -6.1557123], [106.7113061, -6.1556937], [106.7107708, -6.1556875], [106.7106242, -6.1556908], [106.7104853, -6.1556981], [106.7102842, -6.1557208], [106.7101211, -6.1557467], [106.7093004, -6.1559032], [106.7091114, -6.1559351], [106.7089586, -6.15595], [106.7088264, -6.1559541], [106.708701, -6.1559501], [106.7071259, -6.1558274]]}}, {"type": "Feature", "properties": {"name": "Jalan Daan Mogot", "source": "nominatim_lrt", "osm_id": 535929155, "osm_type": "way"}, "geometry": {"type": "LineString", "coordinates": [[106.7523498, -6.1557893], [106.752546, -6.1557996], [106.7529108, -6.1558271], [106.7533682, -6.1558701], [106.7538617, -6.1559252], [106.7539432, -6.1559352], [106.7541765, -6.1559797], [106.7545054, -6.1560392], [106.754846, -6.1561373], [106.7550679, -6.1562246], [106.755149, -6.156251], [106.755305, -6.1563044], [106.7555874, -6.1563941], [106.7557704, -6.1564551]]}}, {"type": "Feature", "properties": {"name": "Jalan Daan Mogot", "source": "nominatim_lrt", "osm_id": 1314711278, "osm_type": "way"}, "geometry": {"type": "LineString", "coordinates": [[106.7483459, -6.1552758], [106.7485793, -6.1552964], [106.7488422, -6.1553231], [106.7491857, -6.1553578], [106.7492782, -6.1553681], [106.7495125, -6.1553956], [106.7496682, -6.1554136], [106.7498163, -6.1554294], [106.7502959, -6.1554813], [106.7511266, -6.1555993], [106.751245, -6.1556174]]}}, {"type": "Feature", "properties": {"name": "Jalan Daan Mogot", "source": "nominatim_lrt", "osm_id": 635536180, "osm_type": "way"}, "geometry": {"type": "LineString", "coordinates": [[106.7279101, -6.1541645], [106.7287968, -6.1543466], [106.7289917, -6.1543867], [106.7294194, -6.1544816]]}}, {"type": "Feature", "properties": {"name": "Jalan Daan Mogot", "source": "nominatim_lrt", "osm_id": 1103587020, "osm_type": "way"}, "geometry": {"type": "LineString", "coordinates": [[106.7033078, -6.1570588], [106.7037996, -6.1568678]]}}, {"type": "Feature", "properties": {"name": "Jalan Daan Mogot", "source": "nominatim_lrt", "osm_id": 732561668, "osm_type": "way"}, "geometry": {"type": "LineString", "coordinates": [[106.7679604, -6.1580044], [106.7680165, -6.1580402], [106.7680891, -6.158089]]}}, {"type": "Feature", "properties": {"name": "Jalan Kamal Raya", "source": "nominatim_lrt", "osm_id": 31956492, "osm_type": "way"}, "geometry": {"type": "LineString", "coordinates": [[106.729978, -6.1334058], [106.7290919, -6.1325092], [106.7286956, -6.1321111], [106.7284986, -6.131912], [106.7284716, -6.1318848], [106.72825, -6.1316329], [106.7281681, -6.1315039], [106.7280205, -6.1312778], [106.7279506, -6.13116], [106.7278107, -6.1309244], [106.7277268, -6.1307831], [106.7276298, -6.1306198], [106.7275553, -6.130508], [106.7274076, -6.1302865], [106.7271608, -6.1298822], [106.7270361, -6.1296746], [106.7269176, -6.1294949], [106.7267836, -6.1292757], [106.7266093, -6.1290431], [106.7263949, -6.1287673], [106.7263482, -6.1287084], [106.7261209, -6.1284058], [106.7260649, -6.1283346], [106.72586, -6.1280899], [106.7257712, -6.12798], [106.7253802, -6.1275063], [106.7249509, -6.1270255], [106.7245885, -6.1265991], [106.7244074, -6.1263737], [106.7243285, -6.1262774], [106.7242864, -6.126224], [106.724165, -6.1260585], [106.723818, -6.125571], [106.7237218, -6.1254381], [106.7236705, -6.1253671], [106.7235499, -6.1251965], [106.7234173, -6.1250089], [106.7233693, -6.1249483], [106.7231889, -6.124694], [106.7231057, -6.1245835], [106.7230607, -6.1245237], [106.7229771, -6.1244126], [106.7227995, -6.1241693], [106.7225854, -6.1238446], [106.7225631, -6.1238117], [106.7223843, -6.1235629], [106.7221923, -6.1232929], [106.721926, -6.1229154], [106.7218948, -6.1228711], [106.7217693, -6.1226931], [106.7217062, -6.1226036], [106.7213711, -6.1221361], [106.7213121, -6.1220441], [106.7211283, -6.1217613], [106.7210067, -6.1215743], [106.7206317, -6.1209976], [106.7202509, -6.1204265], [106.7201982, -6.1203476], [106.7198976, -6.1198873], [106.7198319, -6.1197867], [106.7196957, -6.11958], [106.7194645, -6.1192292], [106.7194184, -6.1191592], [106.719148, -6.1187475], [106.7190157, -6.1185461], [106.7187785, -6.1181848], [106.7185427, -6.1178303], [106.718398, -6.117605], [106.7182917, -6.1174429], [106.718081, -6.117122], [106.717963, -6.1169424], [106.7178675, -6.1167967], [106.717792, -6.1166815], [106.7177799, -6.1166631], [106.7176767, -6.1165157], [106.7175548, -6.1163421], [106.7175318, -6.1163066], [106.7175168, -6.1162834], [106.7172499, -6.1158919], [106.7171165, -6.1156962], [106.7171053, -6.1156798], [106.7170405, -6.1155882], [106.7169493, -6.1154516], [106.7168244, -6.1152688], [106.7166844, -6.1150618], [106.7166408, -6.1149973], [106.716568, -6.1148898], [106.7165067, -6.1147991], [106.7164345, -6.1146925], [106.7163312, -6.1145473], [106.7162356, -6.1144095], [106.71613, -6.1142585], [106.7161049, -6.1142226], [106.7160012, -6.1140737], [106.7158401, -6.1138395], [106.715758, -6.1137202], [106.7156655, -6.1135896], [106.7155578, -6.1134375], [106.7155487, -6.1134249], [106.7154591, -6.1133007], [106.7151313, -6.1128173], [106.7150666, -6.1127215], [106.7149497, -6.1125485], [106.7147936, -6.1123193], [106.7146202, -6.1120611], [106.7146151, -6.1120535], [106.7144866, -6.1118725], [106.714444, -6.1118116], [106.7143533, -6.1116819], [106.7142729, -6.1115668], [106.7142049, -6.1114603], [106.7141916, -6.1114389], [106.7141653, -6.1114021], [106.7141196, -6.1113383], [106.713997, -6.1111526], [106.7139273, -6.1110417], [106.7138755, -6.110955], [106.7138166, -6.1108564], [106.7137711, -6.1107802], [106.7136477, -6.1106202], [106.7135455, -6.1104969], [106.7135035, -6.1104462], [106.7131374, -6.1100262], [106.7129488, -6.1098281], [106.712867, -6.1097491], [106.7127495, -6.1096356], [106.7126763, -6.1095662]]}}, {"type": "Feature", "properties": {"name": "Jalan Kamal Raya", "source": "nominatim_lrt", "osm_id": 508955200, "osm_type": "way"}, "geometry": {"type": "LineString", "coordinates": [[106.7124037, -6.1093621], [106.7123487, -6.1090525], [106.7123207, -6.1088417], [106.7122811, -6.108544], [106.7122718, -6.1084744], [106.7122703, -6.1084609], [106.7122477, -6.1082644], [106.7122247, -6.1080642], [106.7122147, -6.1079766], [106.712191, -6.1078744], [106.7121845, -6.1078465], [106.7121524, -6.1077372], [106.7121012, -6.1075896], [106.712068, -6.107538], [106.712014, -6.1074544], [106.711929, -6.1073159], [106.711877, -6.1072548], [106.7118229, -6.1071912], [106.7117362, -6.1070894], [106.7116878, -6.1070251], [106.7115059, -6.1068013], [106.7114729, -6.1067606], [106.7113312, -6.1065822], [106.7112404, -6.1064573], [106.7112276, -6.1064396], [106.7111297, -6.1063037], [106.7108985, -6.105983], [106.7106039, -6.1055431], [106.710545, -6.1054544], [106.7105069, -6.1054083], [106.710469, -6.1053397], [106.7104204, -6.1052469], [106.7103324, -6.1050247], [106.7102971, -6.1049255], [106.7102687, -6.1048257], [106.7102445, -6.1047405], [106.7102147, -6.1046357], [106.7101729, -6.1044887], [106.7101692, -6.1044789], [106.7101587, -6.1044513], [106.7100425, -6.1041047]]}}, {"type": "Feature", "properties": {"name": "Jalan Kamal Raya", "source": "nominatim_lrt", "osm_id": 676258937, "osm_type": "way"}, "geometry": {"type": "LineString", "coordinates": [[106.7125355, -6.1094852], [106.7125185, -6.1094774], [106.7124963, -6.109468], [106.7124756, -6.1094574], [106.7124601, -6.1094468], [106.7124451, -6.1094354], [106.7124347, -6.1094241], [106.7124253, -6.1094128], [106.7124166, -6.1093994], [106.7124105, -6.1093847], [106.7124037, -6.1093621]]}}, {"type": "Feature", "properties": {"name": "Jalan Pantai Indah Kapuk", "source": "nominatim_lrt", "osm_id": 205493036, "osm_type": "way"}, "geometry": {"type": "LineString", "coordinates": [[106.7411181, -6.1030406], [106.7410758, -6.1032523], [106.7409369, -6.1041816], [106.7409095, -6.1044203], [106.7409039, -6.1044625], [106.7407827, -6.1053724], [106.7407354, -6.105632], [106.740713, -6.1057337], [106.7407098, -6.105772], [106.7406849, -6.1058873], [106.7406653, -6.1059728], [106.7406397, -6.1060841], [106.7406258, -6.1061445], [106.7406027, -6.106252], [106.7405261, -6.1065091], [106.7404985, -6.1065985], [106.7404499, -6.1067553], [106.7403683, -6.1070193], [106.7403358, -6.1070985], [106.7401957, -6.1074743], [106.7401545, -6.1075659], [106.7400648, -6.1077652], [106.7400357, -6.10783], [106.7400015, -6.1079053], [106.7396037, -6.1086741], [106.7394911, -6.1088675], [106.7394721, -6.108903], [106.7394184, -6.1090033], [106.739345, -6.1091406]]}}, {"type": "Feature", "properties": {"name": "Jalan Pantai Indah Kapuk", "source": "nominatim_lrt", "osm_id": 344092346, "osm_type": "way"}, "geometry": {"type": "LineString", "coordinates": [[106.741912, -6.0971239], [106.7418016, -6.0976384], [106.7417422, -6.0980265], [106.7415574, -6.0996762], [106.7411723, -6.102558]]}}, {"type": "Feature", "properties": {"name": "Jalan Pantai Indah Kapuk", "source": "nominatim_lrt", "osm_id": 129174916, "osm_type": "way"}, "geometry": {"type": "LineString", "coordinates": [[106.7370352, -6.1123101], [106.7375539, -6.1114297], [106.7380794, -6.1104647], [106.7381428, -6.1103482], [106.7384519, -6.1098372], [106.7385392, -6.1097012]]}}, {"type": "Feature", "properties": {"name": "Jalan Pantai Indah Kapuk", "source": "nominatim_lrt", "osm_id": 328336034, "osm_type": "way"}, "geometry": {"type": "LineString", "coordinates": [[106.7611451, -6.1046996], [106.7612831, -6.1047015], [106.7613219, -6.1047008], [106.7613359, -6.1047003], [106.7613488, -6.1047222], [106.7619005, -6.1057109], [106.7628429, -6.1073545], [106.7631562, -6.1079451], [106.7631617, -6.1079551], [106.7638277, -6.1091582], [106.7639548, -6.109369], [106.7643206, -6.1100483], [106.7646269, -6.1106172], [106.7646795, -6.1107313], [106.7647466, -6.1108713], [106.7647731, -6.1109274], [106.7650595, -6.1114084], [106.7651973, -6.1118121], [106.765335, -6.1122928], [106.7654254, -6.1127011], [106.7655, -6.1132314], [106.7654996, -6.1136688], [106.7654017, -6.1148389], [106.7653787, -6.1150676], [106.7654105, -6.1159815], [106.7654132, -6.1160702]]}}, {"type": "Feature", "properties": {"name": "Jalan Pantai Indah Kapuk", "source": "nominatim_lrt", "osm_id": 975236388, "osm_type": "way"}, "geometry": {"type": "LineString", "coordinates": [[106.7463961, -6.0840846], [106.7460528, -6.0841966], [106.7460152, -6.0842873], [106.7460179, -6.0843615], [106.7460362, -6.0844295], [106.7460823, -6.084506], [106.7461708, -6.0845966], [106.7462057, -6.0846847], [106.7462164, -6.0847993], [106.7461815, -6.0849114], [106.7461386, -6.0849914], [106.746144, -6.0850847], [106.7463204, -6.0856267], [106.746608, -6.0865103], [106.7466701, -6.0866278], [106.7467059, -6.0866851], [106.7467538, -6.0867481], [106.7468333, -6.0868343], [106.7476126, -6.0875389], [106.7482043, -6.088074]]}}, {"type": "Feature", "properties": {"name": "Jalan Pantai Indah Kapuk", "source": "nominatim_lrt", "osm_id": 855447407, "osm_type": "way"}, "geometry": {"type": "LineString", "coordinates": [[106.7485043, -6.0875944], [106.7471257, -6.0863516], [106.7463961, -6.0840846]]}}, {"type": "Feature", "properties": {"name": "Jalan Pantai Indah Kapuk", "source": "nominatim_lrt", "osm_id": 1339176337, "osm_type": "way"}, "geometry": {"type": "LineString", "coordinates": [[106.7529508, -6.0894287], [106.7524868, -6.0879351], [106.7523474, -6.0877617], [106.7506065, -6.0866282]]}}, {"type": "Feature", "properties": {"name": "Jalan Pantai Indah Kapuk", "source": "nominatim_lrt", "osm_id": 748898862, "osm_type": "way"}, "geometry": {"type": "LineString", "coordinates": [[106.7470264, -6.0896188], [106.747814, -6.090332], [106.7489415, -6.0907443]]}}, {"type": "Feature", "properties": {"name": "Jalan Pantai Indah Kapuk", "source": "nominatim_lrt", "osm_id": 748898880, "osm_type": "way"}, "geometry": {"type": "LineString", "coordinates": [[106.7525411, -6.0911017], [106.7524901, -6.091059], [106.7512388, -6.0907385], [106.7498454, -6.0903815], [106.7497891, -6.0903922]]}}, {"type": "Feature", "properties": {"name": "Jalan Crown Golf Boulevard", "source": "nominatim_lrt", "osm_id": 573053417, "osm_type": "way"}, "geometry": {"type": "LineString", "coordinates": [[106.7382277, -6.1131494], [106.7382907, -6.1132174], [106.7383673, -6.1133242], [106.7383769, -6.1133415], [106.7383824, -6.1133559], [106.738387, -6.1133912], [106.7383785, -6.1134477]]}}, {"type": "Feature", "properties": {"name": "Jalan Pantai Indah Kapuk", "source": "nominatim_lrt", "osm_id": 1283185673, "osm_type": "way"}, "geometry": {"type": "LineString", "coordinates": [[106.7465871, -6.0892653], [106.7466565, -6.0893468]]}}, {"type": "Feature", "properties": {"name": "Jalan Tol Profesor Doktor Sedyatmo", "source": "nominatim_lrt", "osm_id": 164068825, "osm_type": "way"}, "geometry": {"type": "LineString", "coordinates": [[106.7675373, -6.1221427], [106.7673723, -6.1222], [106.7672899, -6.1222241], [106.7671922, -6.1222511], [106.7670007, -6.1222745], [106.7656681, -6.122414], [106.7636738, -6.1226429], [106.7626169, -6.1227589], [106.7614481, -6.1228608], [106.760224, -6.1229358], [106.7590746, -6.1229868], [106.7579329, -6.123006], [106.7559551, -6.1229682], [106.7548234, -6.1229273], [106.7532448, -6.1228546]]}}, {"type": "Feature", "properties": {"name": "Jalan Tol Profesor Doktor Sedyatmo", "source": "nominatim_lrt", "osm_id": 164063789, "osm_type": "way"}, "geometry": {"type": "LineString", "coordinates": [[106.7532122, -6.122548], [106.7548369, -6.122596], [106.7559044, -6.1226094], [106.7579081, -6.1226347], [106.7590279, -6.1226187], [106.7601876, -6.1226005], [106.7614515, -6.122523], [106.7625029, -6.1224323], [106.7636158, -6.1223053], [106.765657, -6.1220653], [106.7671402, -6.1218786]]}}, {"type": "Feature", "properties": {"name": "Jalan Tol Profesor Doktor Sedyatmo", "source": "nominatim_lrt", "osm_id": 564200888, "osm_type": "way"}, "geometry": {"type": "LineString", "coordinates": [[106.7770355, -6.125617], [106.7769498, -6.1254681], [106.7766713, -6.1248893], [106.7761432, -6.1237649], [106.7759916, -6.1234775], [106.7758407, -6.1232668], [106.7757294, -6.1231275], [106.7754424, -6.1228215], [106.7752285, -6.1226221], [106.7748886, -6.1223601], [106.7746928, -6.1222394], [106.7744319, -6.1220974], [106.7741758, -6.1219807]]}}, {"type": "Feature", "properties": {"name": "Jalan Tol Profesor Doktor Sedyatmo", "source": "nominatim_lrt", "osm_id": 760233476, "osm_type": "way"}, "geometry": {"type": "LineString", "coordinates": [[106.7678457, -6.1216653], [106.76811, -6.12156], [106.7683626, -6.1214876], [106.7686921, -6.1214348], [106.7689188, -6.1213987]]}}, {"type": "Feature", "properties": {"name": "Jalan Tol Profesor Doktor Sedyatmo", "source": "nominatim_lrt", "osm_id": 164063787, "osm_type": "way"}, "geometry": {"type": "LineString", "coordinates": [[106.7532448, -6.1228546], [106.7521735, -6.1228113]]}}, {"type": "Feature", "properties": {"name": "Jalan Tomang Raya", "source": "nominatim_lrt", "osm_id": 28225267, "osm_type": "way"}, "geometry": {"type": "LineString", "coordinates": [[106.8068496, -6.1725875], [106.8057668, -6.1733465], [106.8053848, -6.1736284], [106.804532, -6.1742612]]}}, {"type": "Feature", "properties": {"name": "Jalan Tomang Raya", "source": "nominatim_lrt", "osm_id": 762091305, "osm_type": "way"}, "geometry": {"type": "LineString", "coordinates": [[106.7999958, -6.1772237], [106.799666, -6.1774522], [106.7995786, -6.1775192], [106.7993273, -6.1777051], [106.7991302, -6.177836], [106.7987772, -6.1780716], [106.7984963, -6.1782569], [106.7982581, -6.1784139], [106.7980736, -6.1785232], [106.7978713, -6.1786284], [106.7976573, -6.1787348], [106.7976105, -6.1787634]]}}, {"type": "Feature", "properties": {"name": "Jalan Tomang Raya", "source": "nominatim_lrt", "osm_id": 28225264, "osm_type": "way"}, "geometry": {"type": "LineString", "coordinates": [[106.8024341, -6.1754712], [106.8023521, -6.1755326], [106.8017452, -6.1759823], [106.8015715, -6.1761106], [106.801444, -6.1762046], [106.8013632, -6.1762618], [106.8010579, -6.1764802]]}}, {"type": "Feature", "properties": {"name": "Jalan Tomang Raya", "source": "nominatim_lrt", "osm_id": 762091306, "osm_type": "way"}, "geometry": {"type": "LineString", "coordinates": [[106.8001434, -6.1769924], [106.8005774, -6.1766836], [106.8010474, -6.1763569]]}}, {"type": "Feature", "properties": {"name": "Jalan Tomang Raya", "source": "nominatim_lrt", "osm_id": 762091310, "osm_type": "way"}, "geometry": {"type": "LineString", "coordinates": [[106.7990358, -6.1777683], [106.7992689, -6.1776049], [106.7998843, -6.1771854]]}}, {"type": "Feature", "properties": {"name": "Jalan Tomang Raya", "source": "nominatim_lrt", "osm_id": 494047102, "osm_type": "way"}, "geometry": {"type": "LineString", "coordinates": [[106.8026321, -6.1752012], [106.8027238, -6.1749709], [106.8028351, -6.1748045], [106.8029665, -6.1746212]]}}, {"type": "Feature", "properties": {"name": "Jalan Tomang Raya", "source": "nominatim_lrt", "osm_id": 1220487711, "osm_type": "way"}, "geometry": {"type": "LineString", "coordinates": [[106.7963678, -6.1794593], [106.7960227, -6.1796425]]}}, {"type": "Feature", "properties": {"name": "Jalan Tomang Raya", "source": "nominatim_lrt", "osm_id": 497108762, "osm_type": "way"}, "geometry": {"type": "LineString", "coordinates": [[106.8034449, -6.1750993], [106.8032543, -6.1751409], [106.8030913, -6.1751756], [106.8030451, -6.1751856], [106.8029646, -6.1751929], [106.8028511, -6.1752]]}}, {"type": "Feature", "properties": {"name": "Jalan Cideng Barat", "source": "nominatim_lrt", "osm_id": 639939845, "osm_type": "way"}, "geometry": {"type": "LineString", "coordinates": [[106.8118415, -6.1756829], [106.811823, -6.1756102], [106.8117017, -6.1751335], [106.811686, -6.1750716], [106.811384, -6.1738418], [106.8113259, -6.1736016], [106.8113142, -6.1735528], [106.8113023, -6.1735025], [106.8112418, -6.1732352], [106.8111207, -6.1727396], [106.8110991, -6.1726517], [106.8110433, -6.1724017], [106.8110146, -6.1722786], [106.8109362, -6.171943], [106.8109331, -6.1719295]]}}, {"type": "Feature", "properties": {"name": "Jalan Cideng Barat", "source": "nominatim_lrt", "osm_id": 31298850, "osm_type": "way"}, "geometry": {"type": "LineString", "coordinates": [[106.8104437, -6.1636155], [106.8104761, -6.1629029], [106.8104768, -6.1628729], [106.810521, -6.1618596], [106.8105709, -6.1608956]]}}, {"type": "Feature", "properties": {"name": "Jalan Cideng Barat", "source": "nominatim_lrt", "osm_id": 678368784, "osm_type": "way"}, "geometry": {"type": "LineString", "coordinates": [[106.8135082, -6.1819855], [106.8134232, -6.1817629], [106.8133776, -6.1816062], [106.8133347, -6.1814489], [106.8132918, -6.1812476], [106.8132073, -6.1808936]]}}, {"type": "Feature", "properties": {"name": "Jalan Cideng Barat", "source": "nominatim_lrt", "osm_id": 727367286, "osm_type": "way"}, "geometry": {"type": "LineString", "coordinates": [[106.8132073, -6.1808936], [106.8131027, -6.1804036]]}}, {"type": "Feature", "properties": {"name": "Jalan Cideng Barat", "source": "nominatim_lrt", "osm_id": 634486165, "osm_type": "way"}, "geometry": {"type": "LineString", "coordinates": [[106.8108995, -6.171707], [106.8108937, -6.1716514], [106.8108403, -6.1711397]]}}, {"type": "Feature", "properties": {"name": "Jalan Cideng Barat", "source": "nominatim_lrt", "osm_id": 746546353, "osm_type": "way"}, "geometry": {"type": "LineString", "coordinates": [[106.8128201, -6.1794254], [106.8128048, -6.1793686], [106.8127895, -6.1793118]]}}, {"type": "Feature", "properties": {"name": "Jalan Cideng Barat", "source": "nominatim_lrt", "osm_id": 552061732, "osm_type": "way"}, "geometry": {"type": "LineString", "coordinates": [[106.810361, -6.1656956], [106.8103575, -6.165653], [106.8103538, -6.1656086]]}}, {"type": "Feature", "properties": {"name": "Jalan Tanah Sereal", "source": "nominatim_lrt", "osm_id": 500063990, "osm_type": "way"}, "geometry": {"type": "LineString", "coordinates": [[106.8105709, -6.1608956], [106.8105749, -6.1608128]]}}, {"type": "Feature", "properties": {"name": "Jalan Transyogi", "source": "osm_way_full", "osm_id": 55062433}, "geometry": {"type": "LineString", "coordinates": [[106.9517588, -6.391366], [106.9521511, -6.3914653], [106.952552, -6.3915692], [106.9534023, -6.3917811], [106.9541278, -6.3919637], [106.9543719, -6.3920063], [106.9546925, -6.3920224], [106.9551793, -6.392049], [106.9557747, -6.3920254], [106.9558948, -6.3920176], [106.9559714, -6.392014], [106.956056, -6.3920083], [106.9564907, -6.3920016], [106.9567826, -6.3920416], [106.9570273, -6.3920863], [106.9579205, -6.3923396], [106.9580546, -6.3923915], [106.9581793, -6.3924728], [106.9583035, -6.3926341], [106.9583952, -6.3929726], [106.958464, -6.3935778], [106.9584998, -6.3942667], [106.9584988, -6.3944866], [106.9585025, -6.3948452], [106.9585341, -6.3957674], [106.9585414, -6.3958594], [106.9585535, -6.3966676], [106.9585517, -6.3969132], [106.9585461, -6.3976666], [106.9585555, -6.3981343], [106.9585663, -6.3982003], [106.9586036, -6.3982748], [106.9589102, -6.3988295], [106.9591175, -6.3992058], [106.9595237, -6.3999396], [106.9597621, -6.4003898], [106.9598839, -6.4006683], [106.9599154, -6.4008645]]}}, {"type": "Feature", "properties": {"name": "Jalan Raya Cileungsi-Jonggol", "source": "osm_way_full", "osm_id": 1433192549}, "geometry": {"type": "LineString", "coordinates": [[106.9666108, -6.4058923], [106.9667181, -6.4059296], [106.9672318, -6.4061442], [106.9674276, -6.4062295], [106.9680874, -6.4065173], [106.9684087, -6.4066532], [106.9685387, -6.4067092], [106.9687405, -6.4067812], [106.9689155, -6.4068272], [106.969295, -6.406896], [106.9695732, -6.4069425], [106.9700127, -6.4070085], [106.9702822, -6.407052], [106.9705751, -6.4070956], [106.9708907, -6.4071194], [106.9713233, -6.4071557], [106.9718224, -6.407189], [106.9720573, -6.4072008], [106.9722458, -6.4072147], [106.9724203, -6.4072287], [106.9725358, -6.4072344], [106.9727869, -6.4072489], [106.973078, -6.4072273], [106.9733287, -6.4071909], [106.9735445, -6.4071452], [106.9739097, -6.4069726], [106.9740647, -6.4069025], [106.9742946, -6.4067876], [106.9746189, -6.4066405], [106.9747959, -6.4065774], [106.9749464, -6.4065237], [106.9753203, -6.4064702], [106.975558, -6.406458], [106.9761, -6.4065113]]}}, {"type": "Feature", "properties": {"name": "Jalan Raya Cileungsi-Jonggol", "source": "osm_way_full", "osm_id": 55062429}, "geometry": {"type": "LineString", "coordinates": [[106.9762031, -6.4065235], [106.9765008, -6.4065565], [106.9768743, -6.406598], [106.9770466, -6.4066203], [106.9772018, -6.406657], [106.9773363, -6.4067], [106.9774485, -6.4067559], [106.9775676, -6.4068332], [106.9778594, -6.4070838], [106.9783543, -6.4075306], [106.9784529, -6.4076102], [106.9786435, -6.4077526], [106.9789495, -6.4079042], [106.9790032, -6.4079246], [106.9792515, -6.4080233], [106.9796413, -6.4081576], [106.9799447, -6.4082653], [106.9801422, -6.4083351], [106.980324, -6.4084034], [106.9804541, -6.4084521], [106.980787, -6.4085737], [106.980895, -6.4086151], [106.981115, -6.4087047], [106.9815792, -6.4088941], [106.9824574, -6.4092473], [106.9826533, -6.4093103], [106.9831392, -6.4094309], [106.9837199, -6.409547], [106.9841179, -6.4096303], [106.9842351, -6.4096534], [106.9849945, -6.4097913], [106.9850964, -6.4098076], [106.9852256, -6.4098316], [106.9860898, -6.4099107], [106.9865249, -6.4099278], [106.9867754, -6.4099357], [106.9874644, -6.4099449], [106.9875991, -6.4099454], [106.9885306, -6.4099451], [106.9888716, -6.4099372], [106.9891284, -6.4099313], [106.9893015, -6.4099273], [106.9893578, -6.409926], [106.9899887, -6.4098998], [106.9908176, -6.4098032], [106.9909033, -6.4097898], [106.9911733, -6.4097476], [106.9914236, -6.4097086], [106.99156, -6.4096803], [106.9916385, -6.4096641], [106.9921731, -6.4095385], [106.9931918, -6.4093027], [106.9935245, -6.4092014], [106.9940338, -6.4089935], [106.9943342, -6.4088496], [106.9947575, -6.4086439], [106.9949551, -6.4085463], [106.995181, -6.4084144], [106.9954808, -6.4082699], [106.9958658, -6.4080274], [106.9960336, -6.4079154], [106.9964481, -6.4076755], [106.9966625, -6.4075766], [106.9967656, -6.4075576], [106.9968568, -6.4075488], [106.9969353, -6.4075476], [106.9970263, -6.4075628], [106.9972215, -6.4076169], [106.9974713, -6.4076942], [106.9978478, -6.4078043], [106.9983057, -6.4079348], [106.9985567, -6.4080095], [106.9992662, -6.4081929], [106.9994022, -6.4082245], [106.9998998, -6.4083399], [107.0006055, -6.4084884], [107.0009304, -6.4085489], [107.0012472, -6.4086184], [107.0015989, -6.408691], [107.0018386, -6.4087339], [107.0018779, -6.4087416], [107.0019483, -6.4087581], [107.0021558, -6.4087951], [107.0023805, -6.4088335], [107.0030004, -6.4089501], [107.0031533, -6.4089883], [107.0034894, -6.4090545], [107.003817, -6.4091201], [107.004095, -6.4091729], [107.0046009, -6.4092878], [107.0047534, -6.4093181], [107.0048238, -6.4093331], [107.0053307, -6.4094552], [107.0063913, -6.4096431], [107.0066138, -6.4096868], [107.0067618, -6.4097103], [107.0070625, -6.4097588], [107.0072141, -6.4097838], [107.0074456, -6.4098287], [107.0077586, -6.4099038], [107.0081549, -6.410011], [107.0085756, -6.4101756], [107.0088033, -6.41028], [107.0089951, -6.4103943], [107.0091078, -6.4104769], [107.00925, -6.4106501], [107.009335, -6.4108479], [107.0093972, -6.4109923], [107.0095235, -6.4113218], [107.0095654, -6.4113912], [107.0096716, -6.4115623], [107.0098078, -6.4116896], [107.0098843, -6.4117438], [107.0100134, -6.4118352], [107.0100673, -6.4118608], [107.0103311, -6.4119991], [107.0106194, -6.4121427], [107.0106755, -6.4121657], [107.0107861, -6.4122099], [107.0108968, -6.4122543], [107.0111021, -6.4123094], [107.0114927, -6.4123687], [107.0117605, -6.4124093], [107.0118699, -6.4124231], [107.0119229, -6.4124268], [107.0119763, -6.4124306], [107.0120803, -6.4124869], [107.0121925, -6.4125553], [107.0121978, -6.4125586], [107.0123509, -6.4126558], [107.012467, -6.4127744], [107.0125423, -6.4128825], [107.0126349, -6.413041], [107.0127369, -6.4132689], [107.0128648, -6.41358], [107.012956, -6.4138385], [107.0130673, -6.4140278], [107.013177, -6.4141153], [107.0132901, -6.414166], [107.0134235, -6.4141885], [107.0135415, -6.4142085], [107.0138419, -6.4141844], [107.0143623, -6.4141418], [107.0149712, -6.414052], [107.0156976, -6.4139589], [107.0157396, -6.4139565], [107.0161016, -6.4139152], [107.0162894, -6.4138859], [107.0163819, -6.4138712], [107.0164119, -6.4138671], [107.0164965, -6.4138557], [107.0169057, -6.4137698], [107.0169774, -6.4137514], [107.0173699, -6.4136691], [107.0174022, -6.4136656], [107.0174648, -6.4136493], [107.0174945, -6.4136432], [107.0179574, -6.4135226], [107.018298, -6.4134322], [107.0185117, -6.413378], [107.0192746, -6.4132122], [107.0198446, -6.4131177], [107.0199224, -6.413115], [107.0200106, -6.413121], [107.0201404, -6.4131336], [107.0202207, -6.4131566], [107.0203778, -6.4132319], [107.0204244, -6.4132583], [107.0206687, -6.4134347], [107.0207819, -6.4135375], [107.0208666, -6.4136368], [107.0209282, -6.4137287], [107.02099, -6.413838], [107.0210296, -6.4139142], [107.0210938, -6.4140375], [107.021177, -6.4142586], [107.0213503, -6.4147473], [107.0213556, -6.4147608], [107.021407, -6.4149055], [107.0215224, -6.4152655], [107.0215988, -6.4154319], [107.0216954, -6.4155625], [107.0218188, -6.4156611], [107.0224203, -6.4158933], [107.022492, -6.4159079], [107.0231357, -6.4160876], [107.0232813, -6.4161381], [107.023757, -6.4163031], [107.0242918, -6.4164694], [107.0243791, -6.4165032], [107.0245694, -6.4165673], [107.0246246, -6.4165765], [107.0248905, -6.4166606], [107.0249744, -6.4166926], [107.0253037, -6.4168157], [107.0254008, -6.4168395], [107.0257267, -6.4169405], [107.0261017, -6.4170686], [107.0262895, -6.4171593], [107.0265059, -6.417238], [107.0269205, -6.4173996], [107.0271463, -6.4175004], [107.0272905, -6.4175535], [107.0274448, -6.4176137], [107.02785, -6.4177496], [107.0280656, -6.4177959], [107.0283821, -6.4178737], [107.0286836, -6.4179331], [107.0288126, -6.4179428], [107.0289065, -6.4179614], [107.0290109, -6.417975], [107.0291023, -6.4180027], [107.0291945, -6.4180459], [107.0293544, -6.4181482], [107.0294037, -6.4181825], [107.0295378, -6.4182798], [107.0301953, -6.4187703], [107.0307652, -6.4191904], [107.0310704, -6.4194095], [107.031354, -6.4196313]]}}, {"type": "Feature", "properties": {"name": "Jalan Transyogi", "source": "osm_way_full", "osm_id": 55062431}, "geometry": {"type": "LineString", "coordinates": [[106.9630456, -6.4045562], [106.9623859, -6.404267], [106.9609505, -6.4036951], [106.9605414, -6.4035045], [106.9604458, -6.4034407], [106.9603157, -6.4033248], [106.9602735, -6.4032848], [106.9602359, -6.4032441], [106.9601963, -6.4031948], [106.9601655, -6.4031229], [106.960143, -6.40291]]}}, {"type": "Feature", "properties": {"name": "Jalan Raya Cileungsi-Jonggol", "source": "osm_way_full", "osm_id": 181751532}, "geometry": {"type": "LineString", "coordinates": [[106.9632283, -6.4043744], [106.9637369, -6.4045875], [106.96487, -6.4050599], [106.9650818, -6.4051492], [106.9654521, -6.4052999], [106.9655876, -6.4053665], [106.9656902, -6.4054745]]}}, {"type": "Feature", "properties": {"name": "Jalan Raya Cileungsi-Jonggol", "source": "osm_way_full", "osm_id": 568040187}, "geometry": {"type": "LineString", "coordinates": [[106.9654481, -6.4053845], [106.9656902, -6.4054745], [106.9665028, -6.405777], [106.9665693, -6.4058017], [106.9665981, -6.4058423], [106.9666108, -6.4058923]]}}, {"type": "Feature", "properties": {"name": "Jalan Kamal Raya", "source": "osm_way_full", "osm_id": 31956492}, "geometry": {"type": "LineString", "coordinates": [[106.729978, -6.1334058], [106.7290919, -6.1325092], [106.7286956, -6.1321111], [106.7284986, -6.131912], [106.7284716, -6.1318848], [106.72825, -6.1316329], [106.7281681, -6.1315039], [106.7280205, -6.1312778], [106.7279506, -6.13116], [106.7278107, -6.1309244], [106.7277268, -6.1307831], [106.7276298, -6.1306198], [106.7275553, -6.130508], [106.7274076, -6.1302865], [106.7271608, -6.1298822], [106.7270361, -6.1296746], [106.7269176, -6.1294949], [106.7267836, -6.1292757], [106.7266093, -6.1290431], [106.7263949, -6.1287673], [106.7263482, -6.1287084], [106.7261209, -6.1284058], [106.7260649, -6.1283346], [106.72586, -6.1280899], [106.7257712, -6.12798], [106.7253802, -6.1275063], [106.7249509, -6.1270255], [106.7245885, -6.1265991], [106.7244074, -6.1263737], [106.7243285, -6.1262774], [106.7242864, -6.126224], [106.724165, -6.1260585], [106.723818, -6.125571], [106.7237218, -6.1254381], [106.7236705, -6.1253671], [106.7235499, -6.1251965], [106.7234173, -6.1250089], [106.7233693, -6.1249483], [106.7231889, -6.124694], [106.7231057, -6.1245835], [106.7230607, -6.1245237], [106.7229771, -6.1244126], [106.7227995, -6.1241693], [106.7225854, -6.1238446], [106.7225631, -6.1238117], [106.7223843, -6.1235629], [106.7221923, -6.1232929], [106.721926, -6.1229154], [106.7218948, -6.1228711], [106.7217693, -6.1226931], [106.7217062, -6.1226036], [106.7213711, -6.1221361], [106.7213121, -6.1220441], [106.7211283, -6.1217613], [106.7210067, -6.1215743], [106.7206317, -6.1209976], [106.7202509, -6.1204265], [106.7201982, -6.1203476], [106.7198976, -6.1198873], [106.7198319, -6.1197867], [106.7196957, -6.11958], [106.7194645, -6.1192292], [106.7194184, -6.1191592], [106.719148, -6.1187475], [106.7190157, -6.1185461], [106.7187785, -6.1181848], [106.7185427, -6.1178303], [106.718398, -6.117605], [106.7182917, -6.1174429], [106.718081, -6.117122], [106.717963, -6.1169424], [106.7178675, -6.1167967], [106.717792, -6.1166815], [106.7177799, -6.1166631], [106.7176767, -6.1165157], [106.7175548, -6.1163421], [106.7175318, -6.1163066], [106.7175168, -6.1162834], [106.7172499, -6.1158919], [106.7171165, -6.1156962], [106.7171053, -6.1156798], [106.7170405, -6.1155882], [106.7169493, -6.1154516], [106.7168244, -6.1152688], [106.7166844, -6.1150618], [106.7166408, -6.1149973], [106.716568, -6.1148898], [106.7165067, -6.1147991], [106.7164345, -6.1146925], [106.7163312, -6.1145473], [106.7162356, -6.1144095], [106.71613, -6.1142585], [106.7161049, -6.1142226], [106.7160012, -6.1140737], [106.7158401, -6.1138395], [106.715758, -6.1137202], [106.7156655, -6.1135896], [106.7155578, -6.1134375], [106.7155487, -6.1134249], [106.7154591, -6.1133007], [106.7151313, -6.1128173], [106.7150666, -6.1127215], [106.7149497, -6.1125485], [106.7147936, -6.1123193], [106.7146202, -6.1120611], [106.7146151, -6.1120535], [106.7144866, -6.1118725], [106.714444, -6.1118116], [106.7143533, -6.1116819], [106.7142729, -6.1115668], [106.7142049, -6.1114603], [106.7141916, -6.1114389], [106.7141653, -6.1114021], [106.7141196, -6.1113383], [106.713997, -6.1111526], [106.7139273, -6.1110417], [106.7138755, -6.110955], [106.7138166, -6.1108564], [106.7137711, -6.1107802], [106.7136477, -6.1106202], [106.7135455, -6.1104969], [106.7135035, -6.1104462], [106.7131374, -6.1100262], [106.7129488, -6.1098281], [106.712867, -6.1097491], [106.7127495, -6.1096356], [106.7126763, -6.1095662]]}}, {"type": "Feature", "properties": {"name": "Jalan Pantai Indah Kapuk", "source": "osm_way_full", "osm_id": 205493036}, "geometry": {"type": "LineString", "coordinates": [[106.7411181, -6.1030406], [106.7410758, -6.1032523], [106.7409369, -6.1041816], [106.7409095, -6.1044203], [106.7409039, -6.1044625], [106.7407827, -6.1053724], [106.7407354, -6.105632], [106.740713, -6.1057337], [106.7407098, -6.105772], [106.7406849, -6.1058873], [106.7406653, -6.1059728], [106.7406397, -6.1060841], [106.7406258, -6.1061445], [106.7406027, -6.106252], [106.7405261, -6.1065091], [106.7404985, -6.1065985], [106.7404499, -6.1067553], [106.7403683, -6.1070193], [106.7403358, -6.1070985], [106.7401957, -6.1074743], [106.7401545, -6.1075659], [106.7400648, -6.1077652], [106.7400357, -6.10783], [106.7400015, -6.1079053], [106.7396037, -6.1086741], [106.7394911, -6.1088675], [106.7394721, -6.108903], [106.7394184, -6.1090033], [106.739345, -6.1091406]]}}, {"type": "Feature", "properties": {"name": "Jalan Pantai Indah Kapuk", "source": "osm_way_full", "osm_id": 344092346}, "geometry": {"type": "LineString", "coordinates": [[106.741912, -6.0971239], [106.7418016, -6.0976384], [106.7417422, -6.0980265], [106.7415574, -6.0996762], [106.7411723, -6.102558]]}}, {"type": "Feature", "properties": {"name": "Jalan Pantai Indah Kapuk", "source": "osm_way_full", "osm_id": 129174916}, "geometry": {"type": "LineString", "coordinates": [[106.7370352, -6.1123101], [106.7375539, -6.1114297], [106.7380794, -6.1104647], [106.7381428, -6.1103482], [106.7384519, -6.1098372], [106.7385392, -6.1097012]]}}, {"type": "Feature", "properties": {"name": "Jalan Jambore Raya", "source": "osm_way_full", "osm_id": 508388253}, "geometry": {"type": "LineString", "coordinates": [[106.8935193, -6.3701219], [106.8934221, -6.3700699], [106.8933067, -6.3699966], [106.8931203, -6.3699193], [106.8916016, -6.3693714], [106.8906043, -6.3690115], [106.8904971, -6.3689723], [106.89018, -6.3688463], [106.8898426, -6.3687122], [106.8897406, -6.3686515], [106.8896596, -6.3685716], [106.8896012, -6.3685056], [106.8895215, -6.3683592], [106.8894322, -6.3681753], [106.8893363, -6.367938]]}}, {"type": "Feature", "properties": {"name": "Jalan Jambore Raya", "source": "osm_way_full", "osm_id": 112167984}, "geometry": {"type": "LineString", "coordinates": [[106.8876328, -6.3657821], [106.887133, -6.3651037], [106.8870134, -6.3648905], [106.8869832, -6.3647523], [106.8869811, -6.3646944], [106.887, -6.3646132], [106.887028, -6.3644986], [106.8870536, -6.364416], [106.8872637, -6.3639422], [106.8874801, -6.3634537], [106.8876113, -6.3631381], [106.8877039, -6.3629155], [106.8879987, -6.3622124], [106.8880755, -6.3620275], [106.8882243, -6.361679], [106.8884915, -6.3610146], [106.8886283, -6.3606807], [106.8887622, -6.3603562], [106.8887837, -6.3602974], [106.8888461, -6.3601442], [106.8893669, -6.3588644], [106.8894485, -6.3586759], [106.8894762, -6.3586118], [106.889603, -6.3583089], [106.8897352, -6.3579899], [106.8901183, -6.3570527], [106.8901924, -6.3568558], [106.8902085, -6.3568031], [106.8902239, -6.3567308], [106.8902272, -6.3566855], [106.8902273, -6.3566408], [106.8902205, -6.3566108], [106.8902021, -6.3565669], [106.8901816, -6.3565405], [106.8901548, -6.3565092], [106.8901096, -6.3564672], [106.8900362, -6.3564055], [106.8899128, -6.3563295], [106.8898921, -6.3563163]]}}, {"type": "Feature", "properties": {"name": "Jalan Jatibaru", "osm_way": 28799324, "source": "osm_api_0.6"}, "geometry": {"type": "LineString", "coordinates": [[106.8110917, -6.1849518], [106.811167, -6.1856758], [106.8112035, -6.1860286], [106.8112698, -6.1866542], [106.8113119, -6.1870433], [106.811384, -6.1877627], [106.811469, -6.1884785]]}}, {"type": "Feature", "properties": {"name": "Jalan Jatibaru", "osm_way": 633262597, "source": "osm_api_0.6"}, "geometry": {"type": "LineString", "coordinates": [[106.8127693, -6.1831411], [106.8127668, -6.1831682], [106.8127407, -6.1832218], [106.8126876, -6.1832782], [106.8120262, -6.1838669], [106.8116975, -6.1841389]]}}, {"type": "Feature", "properties": {"name": "Jalan Jatibaru", "osm_way": 636067319, "source": "osm_api_0.6"}, "geometry": {"type": "LineString", "coordinates": [[106.8114495, -6.1843548], [106.8112781, -6.1845048], [106.8112084, -6.1845868], [106.8111497, -6.1846813], [106.8110936, -6.1848292], [106.811087, -6.1848901], [106.8110917, -6.1849518]]}}, {"type": "Feature", "properties": {"name": "Jalan Jatibaru", "osm_way": 776898790, "source": "osm_api_0.6"}, "geometry": {"type": "LineString", "coordinates": [[106.81172, -6.1840388], [106.8104414, -6.1850147], [106.8089459, -6.1861035]]}}, {"type": "Feature", "properties": {"name": "Jalan Jatibaru", "osm_way": 802327287, "source": "osm_api_0.6"}, "geometry": {"type": "LineString", "coordinates": [[106.8137122, -6.1822229], [106.8138409, -6.1821415], [106.8140213, -6.1820255], [106.8140739, -6.1819916], [106.8143982, -6.1817939], [106.814419, -6.1817792]]}}, {"type": "Feature", "properties": {"name": "Jalan Jatibaru Raya", "osm_way": 343918045, "source": "osm_api_0.6"}, "geometry": {"type": "LineString", "coordinates": [[106.8119782, -6.1836295], [106.8127124, -6.1829449], [106.8127882, -6.1828762], [106.8128445, -6.1828362], [106.8128698, -6.182826], [106.8129203, -6.1828055], [106.8130273, -6.1827754]]}}, {"type": "Feature", "properties": {"name": "Jalan Jatibaru Raya", "osm_way": 762058551, "source": "osm_api_0.6"}, "geometry": {"type": "LineString", "coordinates": [[106.8110247, -6.1847642], [106.8110607, -6.1846538], [106.8111303, -6.1844796], [106.8112233, -6.1843239], [106.8112854, -6.1842475], [106.8113191, -6.1842133]]}}, {"type": "Feature", "properties": {"name": "Jalan Jatibaru Raya", "osm_way": 491571677, "source": "osm_api_0.6"}, "geometry": {"type": "LineString", "coordinates": [[106.8128499, -6.1832075], [106.812929, -6.1833522], [106.8129753, -6.1835415], [106.8129605, -6.1836902]]}}, {"type": "Feature", "properties": {"name": "Jalan Penjernihan", "osm_way": 557542327, "source": "osm_api_0.6"}, "geometry": {"type": "LineString", "coordinates": [[106.8059941, -6.202902], [106.8057239, -6.202672], [106.8054798, -6.2024654], [106.8054356, -6.2024127], [106.8053243, -6.2022187], [106.8053122, -6.2021561], [106.8053377, -6.2021181], [106.8059881, -6.2017508]]}}, {"type": "Feature", "properties": {"name": "Jalan Penjernihan 1", "osm_way": 28779908, "source": "osm_api_0.6"}, "geometry": {"type": "LineString", "coordinates": [[106.8066686, -6.2022747], [106.806721, -6.2022141], [106.8068086, -6.202111], [106.8070157, -6.2018878], [106.8070838, -6.2018224], [106.8072836, -6.2016841], [106.8074596, -6.2015924], [106.8076699, -6.2015134], [106.8078898, -6.2014682], [106.8080484, -6.2014498], [106.8082613, -6.2014337], [106.8084257, -6.2014216], [106.8089439, -6.2013962], [106.8091384, -6.2013888], [106.8094452, -6.2013708], [106.8095044, -6.2013688], [106.809532, -6.2013685], [106.8095608, -6.2013681], [106.8095643, -6.201368], [106.8096225, -6.2013658], [106.8102622, -6.2013448], [106.8111531, -6.2013206]]}}, {"type": "Feature", "properties": {"name": "Jalan Penjernihan 1", "osm_way": 169300297, "source": "osm_api_0.6"}, "geometry": {"type": "LineString", "coordinates": [[106.8111446, -6.2014202], [106.8110774, -6.2014214], [106.8107996, -6.2014255], [106.8095652, -6.2014631], [106.8095078, -6.2014648], [106.8089446, -6.2014818], [106.8082682, -6.2015227], [106.8080681, -6.2015377], [106.8079618, -6.2015507], [106.8076719, -6.2016114], [106.8074841, -6.2016841], [106.8073427, -6.2017581], [106.8072098, -6.2018481], [106.8071535, -6.2018908], [106.8070972, -6.2019494], [106.80704, -6.2020105], [106.8067921, -6.2022721], [106.8067351, -6.2023361]]}}, {"type": "Feature", "properties": {"name": "Jalan Penjernihan 1", "osm_way": 28218954, "source": "osm_api_0.6"}, "geometry": {"type": "LineString", "coordinates": [[106.8152907, -6.2013427], [106.8152516, -6.2013364], [106.8146677, -6.2012241], [106.8142964, -6.2011968], [106.8139576, -6.2011962], [106.8137222, -6.2012149], [106.8136646, -6.2012194], [106.8136076, -6.2012239], [106.8128049, -6.2012695], [106.81223, -6.2013032], [106.8119907, -6.2013172], [106.811807, -6.201347], [106.8116543, -6.201382], [106.8114717, -6.2014126]]}}, {"type": "Feature", "properties": {"name": "Jalan Penjernihan 1", "osm_way": 1107861997, "source": "osm_api_0.6"}, "geometry": {"type": "LineString", "coordinates": [[106.8057439, -6.2032054], [106.8052194, -6.2026992], [106.8050855, -6.2026181]]}}, {"type": "Feature", "properties": {"name": "Jalan Penjernihan 1", "osm_way": 691966212, "source": "osm_api_0.6"}, "geometry": {"type": "LineString", "coordinates": [[106.8154208, -6.2012636], [106.8155013, -6.2012759], [106.8156893, -6.2013089], [106.8157362, -6.2013191]]}}, {"type": "Feature", "properties": {"name": "Jalan Letnan Jenderal Siswondo Parman", "osm_way": 320147640, "source": "osm_api_0.6"}, "geometry": {"type": "LineString", "coordinates": [[106.7939936, -6.1772764], [106.7938318, -6.1771323], [106.7933345, -6.1766784], [106.7931895, -6.1765327], [106.7931707, -6.1765143], [106.7929288, -6.1762939], [106.7926819, -6.1760688], [106.7926484, -6.1760383], [106.7922054, -6.1756402], [106.7917765, -6.1752597], [106.7915152, -6.1750345], [106.7913554, -6.1748903], [106.7912449, -6.1748003]]}}, {"type": "Feature", "properties": {"name": "Jalan Letnan Jenderal Siswondo Parman", "osm_way": 687482120, "source": "osm_api_0.6"}, "geometry": {"type": "LineString", "coordinates": [[106.7926565, -6.175323], [106.7928345, -6.1754879], [106.7931125, -6.1757509], [106.7932085, -6.1758481], [106.7933701, -6.1760032], [106.7935586, -6.1761867], [106.7937981, -6.1764287]]}}, {"type": "Feature", "properties": {"name": "Jalan Letnan Jenderal Siswondo Parman", "osm_way": 762961764, "source": "osm_api_0.6"}, "geometry": {"type": "LineString", "coordinates": [[106.7878276, -6.1692932], [106.7878395, -6.1688651], [106.7878571, -6.1686327], [106.7878853, -6.1684086], [106.7879832, -6.1678726], [106.7880667, -6.1674746]]}}, {"type": "Feature", "properties": {"name": "Jalan Letnan Jenderal Siswondo Parman", "osm_way": 688117575, "source": "osm_api_0.6"}, "geometry": {"type": "LineString", "coordinates": [[106.7963678, -6.1794593], [106.7965454, -6.1798003], [106.7966136, -6.1799607], [106.7966817, -6.1801496], [106.7967178, -6.1802541], [106.7967819, -6.1804558]]}}, {"type": "Feature", "properties": {"name": "Jalan Letnan Jenderal Siswondo Parman", "osm_way": 687482125, "source": "osm_api_0.6"}, "geometry": {"type": "LineString", "coordinates": [[106.7884026, -6.1693843], [106.7884145, -6.1694476], [106.7885524, -6.170185], [106.7886571, -6.1705029]]}}, {"type": "Feature", "properties": {"name": "Jalan Letnan Jenderal Siswondo Parman", "osm_way": 761850310, "source": "osm_api_0.6"}, "geometry": {"type": "LineString", "coordinates": [[106.7988612, -6.1993784], [106.7989899, -6.1996576], [106.7991794, -6.2001134], [106.7992028, -6.2001612]]}}, {"type": "Feature", "properties": {"name": "Jalan Letnan Jenderal Siswondo Parman", "osm_way": 688117572, "source": "osm_api_0.6"}, "geometry": {"type": "LineString", "coordinates": [[106.7972373, -6.1872633], [106.7972607, -6.1876598], [106.7972799, -6.1886354], [106.797293, -6.1889782], [106.7973052, -6.1892034]]}}, {"type": "Feature", "properties": {"name": "Jalan Letnan Jenderal Siswondo Parman", "osm_way": 688087388, "source": "osm_api_0.6"}, "geometry": {"type": "LineString", "coordinates": [[106.796418, -6.1812379], [106.7963643, -6.1810869], [106.7963184, -6.1809231]]}}, {"type": "Feature", "properties": {"name": "Jalan Jenderal Sudirman", "osm_way": 652742499, "source": "osm_api_0.6"}, "geometry": {"type": "LineString", "coordinates": [[106.7999188, -6.2286172], [106.8000482, -6.2285006], [106.8002756, -6.2282956], [106.8005197, -6.2280862], [106.8007674, -6.2278898], [106.8008203, -6.2278478], [106.8008813, -6.2278013], [106.8009476, -6.2277532], [106.8016823, -6.2272084], [106.8017603, -6.2271496], [106.8022834, -6.2267557], [106.8025684, -6.2265312], [106.8031338, -6.2260993], [106.8036738, -6.2256802], [106.8038271, -6.2255587], [106.804026, -6.2254009]]}}, {"type": "Feature", "properties": {"name": "Jalan Jenderal Sudirman", "osm_way": 812423078, "source": "osm_api_0.6"}, "geometry": {"type": "LineString", "coordinates": [[106.8179511, -6.2148627], [106.8180433, -6.2148085], [106.8181472, -6.2147105], [106.8185753, -6.2142997], [106.8186977, -6.2141766], [106.8187341, -6.2141193]]}}, {"type": "Feature", "properties": {"name": "Jalan Jenderal Sudirman", "osm_way": 535178029, "source": "osm_api_0.6"}, "geometry": {"type": "LineString", "coordinates": [[106.8221933, -6.2052006], [106.8222272, -6.2049366], [106.8222496, -6.2047329], [106.8222542, -6.2046906], [106.8223201, -6.2042347], [106.8223953, -6.2038782]]}}, {"type": "Feature", "properties": {"name": "Jalan Jenderal Sudirman", "osm_way": 453253826, "source": "osm_api_0.6"}, "geometry": {"type": "LineString", "coordinates": [[106.8228871, -6.2016752], [106.8229985, -6.2011175], [106.8230014, -6.2010968], [106.8230392, -6.2008239]]}}, {"type": "Feature", "properties": {"name": "Jalan Jenderal Sudirman", "osm_way": 652543131, "source": "osm_api_0.6"}, "geometry": {"type": "LineString", "coordinates": [[106.8127392, -6.2190465], [106.8129789, -6.2188611], [106.813007, -6.2188393]]}}, {"type": "Feature", "properties": {"name": "Jalan Jenderal Sudirman", "osm_way": 453253807, "source": "osm_api_0.6"}, "geometry": {"type": "LineString", "coordinates": [[106.8223953, -6.2038782], [106.8224415, -6.2035865]]}}, {"type": "Feature", "properties": {"name": "Jalan Suryopranoto", "osm_way": 497546915, "source": "osm_api_0.6"}, "geometry": {"type": "LineString", "coordinates": [[106.819217, -6.1695237], [106.8191189, -6.1695835], [106.8189991, -6.1696327], [106.8187494, -6.1697067], [106.8182235, -6.1698375], [106.8180069, -6.1698813], [106.8176701, -6.1699438]]}}, {"type": "Feature", "properties": {"name": "Jalan Suryopranoto", "osm_way": 749310656, "source": "osm_api_0.6"}, "geometry": {"type": "LineString", "coordinates": [[106.8176701, -6.1699438], [106.817341, -6.1700026], [106.8170827, -6.1700505], [106.8167168, -6.1701227], [106.8159706, -6.1702521]]}}, {"type": "Feature", "properties": {"name": "Jalan Suryopranoto", "osm_way": 1116757145, "source": "osm_api_0.6"}, "geometry": {"type": "LineString", "coordinates": [[106.8148095, -6.1702511], [106.8152927, -6.1701782], [106.8153875, -6.1701639], [106.8159404, -6.1700805]]}}, {"type": "Feature", "properties": {"name": "Jalan Suryopranoto", "osm_way": 1226244434, "source": "osm_api_0.6"}, "geometry": {"type": "LineString", "coordinates": [[106.8206923, -6.1676608], [106.8207028, -6.1676472], [106.8207955, -6.1675115]]}}, {"type": "Feature", "properties": {"name": "Jalan Suryopranoto", "osm_way": 28706691, "source": "osm_api_0.6"}, "geometry": {"type": "LineString", "coordinates": [[106.8194442, -6.1690622], [106.8195323, -6.1689483]]}}, {"type": "Feature", "properties": {"name": "Jalan Suryopranoto", "osm_way": 1502544631, "source": "osm_api_0.6"}, "geometry": {"type": "LineString", "coordinates": [[106.8147574, -6.170259], [106.8148095, -6.1702511]]}}, {"type": "Feature", "properties": {"name": "Jalan Suryopranoto", "osm_way": 1502544633, "source": "osm_api_0.6"}, "geometry": {"type": "LineString", "coordinates": [[106.8148427, -6.1704257], [106.8148005, -6.1704322]]}}, {"type": "Feature", "properties": {"name": "Jalan Cideng Timur", "osm_way": 452354253, "source": "osm_api_0.6"}, "geometry": {"type": "LineString", "coordinates": [[106.8121431, -6.1756101], [106.8121679, -6.175711], [106.812316, -6.1763159], [106.8127328, -6.1779033], [106.8127903, -6.1781049], [106.8128655, -6.1783625], [106.8130507, -6.1791275], [106.8131295, -6.1794496], [106.813173, -6.1795955], [106.8132707, -6.1800436]]}}, {"type": "Feature", "properties": {"name": "Jalan Cideng Timur", "osm_way": 765634131, "source": "osm_api_0.6"}, "geometry": {"type": "LineString", "coordinates": [[106.8111316, -6.1711083], [106.811137, -6.1711532], [106.8112037, -6.1717356], [106.8113029, -6.1722717], [106.8113756, -6.1725631], [106.8114013, -6.172666], [106.8114053, -6.1726821], [106.8115292, -6.1731714], [106.811581, -6.1734046], [106.8117414, -6.1739713], [106.8119495, -6.1748775], [106.8121196, -6.1755233]]}}, {"type": "Feature", "properties": {"name": "Jalan Cideng Timur", "osm_way": 690361041, "source": "osm_api_0.6"}, "geometry": {"type": "LineString", "coordinates": [[106.8108203, -6.167691], [106.8108209, -6.1676973], [106.8108367, -6.1678568], [106.8108502, -6.1679926], [106.8108645, -6.1681365], [106.8108746, -6.1682379], [106.810878, -6.1682684], [106.8108831, -6.1683252], [106.8108967, -6.1684582], [106.8109067, -6.1685708], [106.8109226, -6.1687559], [106.8109367, -6.1689203], [106.8109499, -6.1690734], [106.8109566, -6.1691501], [106.810991, -6.1695453], [106.8110045, -6.1697002], [106.8110094, -6.1697564], [106.8110127, -6.1697945], [106.8110278, -6.1699935], [106.8110555, -6.1703571], [106.8111017, -6.1708143]]}}, {"type": "Feature", "properties": {"name": "Jalan Cideng Timur", "osm_way": 31295141, "source": "osm_api_0.6"}, "geometry": {"type": "LineString", "coordinates": [[106.8108824, -6.160839], [106.8108519, -6.161381], [106.8108248, -6.1618737], [106.8107955, -6.162391], [106.8107883, -6.1628795], [106.8107881, -6.1628908], [106.8107669, -6.1631509], [106.8107632, -6.1631966], [106.8107587, -6.1632522], [106.8107456, -6.1634125], [106.8107286, -6.163621]]}}, {"type": "Feature", "properties": {"name": "Jalan Cideng Timur", "osm_way": 829450321, "source": "osm_api_0.6"}, "geometry": {"type": "LineString", "coordinates": [[106.8135951, -6.1817218], [106.8136223, -6.1818629], [106.813678, -6.1820942], [106.8137122, -6.1822229]]}}, {"type": "Feature", "properties": {"name": "Jalan Cideng Timur", "osm_way": 761796427, "source": "osm_api_0.6"}, "geometry": {"type": "LineString", "coordinates": [[106.8106806, -6.1657249], [106.8106847, -6.1657963], [106.8107154, -6.1662564]]}}, {"type": "Feature", "properties": {"name": "Jalan Cideng Timur", "osm_way": 765634130, "source": "osm_api_0.6"}, "geometry": {"type": "LineString", "coordinates": [[106.8121196, -6.1755233], [106.8121297, -6.1755637], [106.8121431, -6.1756101]]}}, {"type": "Feature", "properties": {"name": "Jalan Cideng Timur", "osm_way": 1239781907, "source": "osm_api_0.6"}, "geometry": {"type": "LineString", "coordinates": [[106.8106707, -6.1655826], [106.8106747, -6.1656303]]}}]}