{"type": "FeatureCollection", "features": [{"type": "Feature", "properties": {"name": "Jalan Raya Kutabumi - Kutajaya", "query": "Jalan Raya Kutabumi, Tangerang", "source": "nominatim_west", "osm_id": 431727981}, "geometry": {"type": "LineString", "coordinates": [[106.5626026, -6.1638198], [106.5625508, -6.1636829], [106.5625206, -6.1635329], [106.5624938, -6.1633449], [106.5624536, -6.1630123], [106.5624033, -6.1628176], [106.5623389, -6.1625469], [106.5622813, -6.1623076], [106.5622484, -6.1621749], [106.5622249, -6.1621202], [106.5621968, -6.1620742], [106.5621499, -6.1619856], [106.5620673, -6.1617482], [106.5620331, -6.1615582], [106.5619936, -6.1612529], [106.5619835, -6.1610502], [106.5619912, -6.1609475], [106.5619917, -6.1608953], [106.562032, -6.1606566], [106.5620943, -6.1604003], [106.5621678, -6.160098], [106.5622779, -6.1596434], [106.5623519, -6.1593378], [106.5624915, -6.1586064], [106.5625079, -6.1585203], [106.5625207, -6.1584534], [106.5625456, -6.1583352], [106.5626361, -6.1580304], [106.5627936, -6.1574427], [106.562868, -6.1571922], [106.5628951, -6.1570741], [106.5629528, -6.1567929], [106.5630625, -6.1563373], [106.5630832, -6.1562501], [106.5631042, -6.156162], [106.5632555, -6.1555879], [106.5632657, -6.1555536], [106.5632839, -6.1554864], [106.5633649, -6.1551268], [106.5633941, -6.1549668], [106.5634688, -6.1545581], [106.5635003, -6.1543881], [106.5635768, -6.1540674], [106.5637155, -6.1535312], [106.5637415, -6.1534212], [106.5638136, -6.1530845], [106.5638903, -6.1528208], [106.5639269, -6.1525658], [106.5639838, -6.1518738], [106.563996, -6.1517525], [106.5639798, -6.1517006], [106.5639503, -6.1516325], [106.5638424, -6.1515573], [106.563813, -6.1514751], [106.5637687, -6.1512931], [106.5637284, -6.1510492], [106.563714, -6.1509854], [106.5637036, -6.1508412], [106.5636937, -6.1507471], [106.5636914, -6.1505413], [106.5636866, -6.1504039], [106.5636855, -6.1503738], [106.563668, -6.1501926], [106.56367, -6.1500251], [106.5636607, -6.1497038], [106.563642, -6.1495304], [106.5636111, -6.1494031], [106.5635669, -6.1493384], [106.5635199, -6.1492871], [106.5634743, -6.1492165], [106.563436, -6.1490851], [106.563418, -6.1488638], [106.563424, -6.1487431], [106.5634321, -6.1486444], [106.5634494, -6.1483896], [106.563451, -6.1483664], [106.563442, -6.1480806], [106.5634457, -6.1480042], [106.563454, -6.1477233], [106.5634547, -6.1476992], [106.5634553, -6.1476798], [106.5634618, -6.1474831], [106.5634605, -6.1472985], [106.5634603, -6.1472678], [106.5634586, -6.1470159], [106.5634793, -6.146591]]}}, {"type": "Feature", "properties": {"name": "Jalan Raya Kutabumi - Kutajaya", "query": "Jalan Raya Kutabumi, Tangerang", "source": "nominatim_west", "osm_id": 563514461}, "geometry": {"type": "LineString", "coordinates": [[106.5629923, -6.1640023], [106.5628961, -6.163979], [106.5627379, -6.1639314]]}}, {"type": "Feature", "properties": {"name": "Jalan Raya Kutabumi - Kutajaya", "query": "Jalan Raya Kutabumi, Tangerang", "source": "nominatim_west", "osm_id": 566558414}, "geometry": {"type": "LineString", "coordinates": [[106.5634836, -6.1465311], [106.5634869, -6.1463818]]}}, {"type": "Feature", "properties": {"name": "Jalan Raya Rajeg", "query": "Jalan Raya Rajeg, Tangerang", "source": "nominatim_west", "osm_id": 674577900}, "geometry": {"type": "LineString", "coordinates": [[106.5266756, -6.1298827], [106.5266628, -6.1299621]]}}, {"type": "Feature", "properties": {"name": "Jalan Raya Rajeg", "query": "Jalan Raya Rajeg, Tangerang", "source": "nominatim_west", "osm_id": 674424012}, "geometry": {"type": "LineString", "coordinates": [[106.5176005, -6.087117], [106.5176096, -6.0871976]]}}, {"type": "Feature", "properties": {"name": "Jalan Raya Rajeg", "query": "Jalan Raya Rajeg, Tangerang", "source": "nominatim_west", "osm_id": 674424013}, "geometry": {"type": "LineString", "coordinates": [[106.5103194, -6.0609236], [106.5103979, -6.0610363], [106.5106154, -6.0613522], [106.5108489, -6.0616605], [106.5110079, -6.0618562], [106.5111838, -6.0620805], [106.5113736, -6.062352], [106.5114795, -6.0625006], [106.5115386, -6.062594], [106.5117439, -6.0629741], [106.5118758, -6.0632228], [106.5121399, -6.0638315], [106.5123237, -6.0642437], [106.5123953, -6.0644056], [106.5125719, -6.0647904], [106.5126463, -6.0649548], [106.5127135, -6.0651034], [106.5128241, -6.0653121], [106.5130792, -6.0657557], [106.513156, -6.0658715], [106.513335, -6.06616], [106.5134288, -6.066304], [106.5135043, -6.066448], [106.513574, -6.0665713], [106.5137574, -6.0669048], [106.5138279, -6.0670301], [106.5140274, -6.0674314], [106.5141531, -6.0676763], [106.5142345, -6.0678211], [106.5144114, -6.0681895], [106.5144368, -6.0682408], [106.5145033, -6.0683885], [106.5145342, -6.0684429], [106.5147257, -6.0688394], [106.5147792, -6.0689587], [106.5148609, -6.0692033], [106.514908, -6.0694052], [106.5149223, -6.0694905], [106.5149748, -6.0699006], [106.5150395, -6.0704002], [106.515099, -6.0709476], [106.5151335, -6.0713245], [106.5151905, -6.0717524], [106.5152541, -6.0724105], [106.5152729, -6.0725919], [106.5153047, -6.0729073], [106.5153218, -6.0732402], [106.51539, -6.0740803], [106.5154062, -6.07428], [106.5154261, -6.0745252], [106.5154354, -6.074633], [106.5154566, -6.0749536], [106.5154472, -6.0750783], [106.5154324, -6.0751657], [106.5153784, -6.0753278], [106.5153654, -6.075407], [106.5153573, -6.0754791], [106.5153588, -6.075627], [106.5153667, -6.0756805], [106.5153796, -6.0757966], [106.5154143, -6.0759512], [106.5154519, -6.0761339], [106.5155184, -6.0765436], [106.5155389, -6.076669], [106.5156991, -6.0775636], [106.5157785, -6.0779905], [106.5158462, -6.0783425], [106.5160194, -6.0791329], [106.5161044, -6.0795365], [106.5162062, -6.0800517], [106.516331, -6.0805307], [106.5164194, -6.0807851], [106.5165377, -6.0811884], [106.5168503, -6.0821001], [106.5170292, -6.0826168], [106.5170728, -6.0827541], [106.5171179, -6.0829473], [106.5171362, -6.0830692], [106.517163, -6.0832106], [106.5171996, -6.0834725], [106.5172475, -6.08395], [106.5173586, -6.0849614], [106.5175205, -6.0863954], [106.5176005, -6.087117]]}}, {"type": "Feature", "properties": {"name": "Jalan Raya Rajeg", "query": "Jalan Raya Rajeg, Tangerang", "source": "nominatim_west", "osm_id": 556903737}, "geometry": {"type": "LineString", "coordinates": [[106.5266628, -6.1299621], [106.5266897, -6.1300954], [106.5267396, -6.1304223], [106.5267554, -6.1305901], [106.526805, -6.1308142], [106.5268841, -6.1312248], [106.5269396, -6.1315786], [106.5269659, -6.1316489], [106.5271197, -6.1323151], [106.527199, -6.1326922], [106.5273437, -6.1333797], [106.5273992, -6.1336497], [106.5274854, -6.134173], [106.5275667, -6.1344866], [106.5275951, -6.1346392], [106.5278401, -6.1355041], [106.5279898, -6.1359868], [106.528038, -6.1361786], [106.5280416, -6.1362075], [106.5280509, -6.1362826], [106.5280555, -6.1363707], [106.5280535, -6.1365292], [106.5280485, -6.1366039], [106.5280379, -6.1367464], [106.5280036, -6.1371189], [106.5278887, -6.1377806], [106.5278244, -6.1382221], [106.5276273, -6.1397896], [106.5275911, -6.1402481], [106.5275747, -6.1404551], [106.5275694, -6.1405228], [106.527533, -6.1409471], [106.5274812, -6.1416698], [106.5274586, -6.1421294], [106.5274259, -6.1424936], [106.5274057, -6.1430808], [106.5273656, -6.1434616], [106.5273227, -6.1438217], [106.5272905, -6.1441102], [106.5272103, -6.1448501], [106.5272058, -6.1448924], [106.5271698, -6.1452327], [106.527121, -6.1455738], [106.5270559, -6.1462509], [106.5269994, -6.1467662], [106.5269083, -6.1474738], [106.5268877, -6.1476594], [106.526814, -6.1483541], [106.526794, -6.1491329], [106.5268372, -6.1493366], [106.5269069, -6.1494907], [106.5269713, -6.1495926], [106.5270574, -6.1496582], [106.5273514, -6.1497911], [106.5274243, -6.1498241], [106.5278402, -6.1500122], [106.5282671, -6.1501936], [106.5295059, -6.15072], [106.5297152, -6.1508111], [106.5299741, -6.150911], [106.5305183, -6.1511209], [106.5306207, -6.151181], [106.5306483, -6.1512387], [106.5306899, -6.1513207], [106.5307639, -6.1514739], [106.5310873, -6.1521354], [106.5313704, -6.1526607], [106.531485, -6.1528732], [106.5315414, -6.1529681], [106.5317864, -6.1535584], [106.5319456, -6.1539802], [106.5320762, -6.1544506], [106.5321614, -6.1547341], [106.532206, -6.1548542], [106.5322322, -6.1549394], [106.5322473, -6.1551376], [106.5322251, -6.1552072], [106.5322147, -6.1554698], [106.5322102, -6.1555832], [106.5321929, -6.155875], [106.5321884, -6.1559216], [106.5321325, -6.1566177], [106.5321304, -6.1569218], [106.532089, -6.1575365], [106.5320625, -6.1579732], [106.5320375, -6.1582941], [106.531988, -6.1588489], [106.5319645, -6.1591122], [106.5319585, -6.1592033], [106.5319467, -6.1593802], [106.5319376, -6.1595442], [106.5319276, -6.1597249], [106.5319092, -6.1599981], [106.5318735, -6.1604066], [106.53185, -6.1606947], [106.5318309, -6.1610276], [106.5318048, -6.1614215], [106.5317783, -6.1617924], [106.5317613, -6.1620293], [106.5317319, -6.16244], [106.5317246, -6.1625172], [106.5317114, -6.1628557], [106.5317059, -6.1630134], [106.531682, -6.1633012], [106.5315523, -6.1643795], [106.5314823, -6.1650461], [106.5314761, -6.165089]]}}, {"type": "Feature", "properties": {"name": "Jalan Raya Mauk", "query": "Jalan Raya Mauk, Tangerang", "source": "nominatim_west", "osm_id": 542536774}, "geometry": {"type": "LineString", "coordinates": [[106.5916022, -6.1484314], [106.5923923, -6.1484441], [106.5945773, -6.1485085], [106.5950652, -6.1485447], [106.5967243, -6.1486995], [106.5969141, -6.1487172], [106.5971393, -6.1487596]]}}, {"type": "Feature", "properties": {"name": "Jalan Raya Mauk", "query": "Jalan Raya Mauk, Tangerang", "source": "nominatim_west", "osm_id": 72536915}, "geometry": {"type": "LineString", "coordinates": [[106.591356, -6.1482465], [106.5914798, -6.1484001]]}}, {"type": "Feature", "properties": {"name": "Jalan Raya Mauk", "query": "Jalan Raya Mauk, Tangerang", "source": "nominatim_west", "osm_id": 542536773}, "geometry": {"type": "LineString", "coordinates": [[106.5914798, -6.1484001], [106.5915021, -6.1484132], [106.5915175, -6.1484192], [106.5915447, -6.1484265], [106.5915733, -6.1484308], [106.5916022, -6.1484314]]}}, {"type": "Feature", "properties": {"name": "Jalan Raya Mauk", "query": "Jalan Raya Mauk, Tangerang", "source": "nominatim_west", "osm_id": 1308755993}, "geometry": {"type": "LineString", "coordinates": [[106.5521261, -6.0922225], [106.5525286, -6.0925028], [106.5528587, -6.0927459], [106.5535017, -6.0931817], [106.5540952, -6.0935861], [106.5541534, -6.0936258], [106.5541837, -6.0936407], [106.5543057, -6.0937127], [106.5544128, -6.0937975], [106.5545883, -6.0939161], [106.5549177, -6.094071], [106.5550112, -6.0941346], [106.5553815, -6.0943811], [106.5556167, -6.0945536], [106.5558543, -6.0947136], [106.5559603, -6.0948032], [106.5560129, -6.0948289], [106.5564229, -6.0952496], [106.5565217, -6.0953721], [106.5566689, -6.0955491], [106.5567122, -6.0956026], [106.5573509, -6.0963913], [106.5574875, -6.09656], [106.5577475, -6.096881], [106.5578499, -6.0970205], [106.5579079, -6.0970856], [106.558188, -6.0973999], [106.5583144, -6.0975342], [106.5585704, -6.0977892], [106.5592762, -6.0985744], [106.5598392, -6.0992337], [106.5600708, -6.0994849], [106.5603251, -6.0997835], [106.5605527, -6.1000819], [106.5605815, -6.1001197], [106.560854, -6.100477], [106.5611765, -6.1008887], [106.5617123, -6.1017572], [106.5619698, -6.1021092], [106.562356, -6.1025679], [106.5632956, -6.1035997], [106.5636895, -6.1040293], [106.5637811, -6.1041292], [106.5641038, -6.1044595], [106.5645071, -6.1049227], [106.5646986, -6.105127], [106.5656464, -6.1062025], [106.565677, -6.106238], [106.5661337, -6.1067507], [106.5662685, -6.1069132], [106.5666414, -6.1073336]]}}, {"type": "Feature", "properties": {"name": "Jalan Raya Mauk", "query": "Jalan Raya Mauk, Tangerang", "source": "nominatim_west", "osm_id": 696926564}, "geometry": {"type": "LineString", "coordinates": [[106.5510693, -6.0916331], [106.5510861, -6.0916419], [106.5511311, -6.0916654], [106.5515253, -6.0918557], [106.5518367, -6.0920245], [106.5519162, -6.0920789], [106.5521261, -6.0922225]]}}, {"type": "Feature", "properties": {"name": "Jalan Gatot Subroto", "query": "Jalan Gatot Subroto, Tangerang", "source": "nominatim_west", "osm_id": 836032608}, "geometry": {"type": "LineString", "coordinates": [[106.6196135, -6.1830802], [106.6195638, -6.1831775], [106.6193774, -6.1835115], [106.6191588, -6.1839035], [106.6189818, -6.1842008], [106.6188879, -6.1843632], [106.6186532, -6.1847475], [106.6184008, -6.1851103], [106.6183019, -6.1852128], [106.6181584, -6.1853221], [106.6179706, -6.1854301], [106.6176868, -6.1855395], [106.617286, -6.1856388], [106.6169666, -6.1856905], [106.6166644, -6.1857408], [106.6164209, -6.1857565], [106.6161614, -6.1857732], [106.6159536, -6.1857862], [106.6154209, -6.1857979]]}}, {"type": "Feature", "properties": {"name": "Jalan Gatot Subroto", "query": "Jalan Gatot Subroto, Tangerang", "source": "nominatim_west", "osm_id": 674852711}, "geometry": {"type": "LineString", "coordinates": [[106.6074564, -6.1869541], [106.6074134, -6.1870081], [106.6073263, -6.1871081], [106.607183, -6.1872777], [106.6069698, -6.187499], [106.6068858, -6.1875702], [106.6068254, -6.1876214], [106.6067458, -6.1876696], [106.6065205, -6.1877884], [106.606312, -6.1878551], [106.6055308, -6.1879843], [106.6052637, -6.1880209], [106.6048355, -6.1880797], [106.6044564, -6.1881348], [106.6040767, -6.1881747], [106.6039326, -6.1881899], [106.6033887, -6.1882308], [106.6028831, -6.1882638], [106.6020288, -6.1883241], [106.6019937, -6.1883287], [106.6016737, -6.1883718], [106.601567, -6.1883861], [106.6010602, -6.1884409], [106.6010571, -6.1884412], [106.6008269, -6.1884623], [106.6007139, -6.188474], [106.6003157, -6.1884961]]}}, {"type": "Feature", "properties": {"name": "Jalan Gatot Subroto", "query": "Jalan Gatot Subroto, Tangerang", "source": "nominatim_west", "osm_id": 674852709}, "geometry": {"type": "LineString", "coordinates": [[106.607498, -6.1867808], [106.6075198, -6.1867575], [106.6081188, -6.1861117], [106.6084096, -6.185935], [106.6087901, -6.1858375], [106.6091601, -6.1857989], [106.6095753, -6.1857555], [106.6099748, -6.1856982], [106.610368, -6.1856367], [106.6109755, -6.1854901], [106.6117083, -6.1852368], [106.6120423, -6.1851661], [106.6122307, -6.1851794], [106.6131495, -6.1854085]]}}, {"type": "Feature", "properties": {"name": "Jalan Gatot Subroto", "query": "Jalan Gatot Subroto, Tangerang", "source": "nominatim_west", "osm_id": 564487771}, "geometry": {"type": "LineString", "coordinates": [[106.6037589, -6.1881061], [106.6041328, -6.1880606], [106.6044267, -6.1880246], [106.6048275, -6.1879744], [106.6058321, -6.1878515], [106.6063002, -6.187771], [106.6065591, -6.1876902], [106.6067429, -6.1875794], [106.6068931, -6.1874567], [106.6073959, -6.1868907]]}}, {"type": "Feature", "properties": {"name": "Jalan Gatot Subroto", "query": "Jalan Gatot Subroto, Tangerang", "source": "nominatim_west", "osm_id": 1291381003}, "geometry": {"type": "LineString", "coordinates": [[106.6131826, -6.1855205], [106.6131386, -6.1855095]]}}, {"type": "Feature", "properties": {"name": "Jalan Raya Curug", "query": "Jalan Raya Curug, Tangerang", "source": "nominatim_west", "osm_id": 224717193}, "geometry": {"type": "LineString", "coordinates": [[106.5525357, -6.2890979], [106.5524817, -6.2892055], [106.5524485, -6.2893012], [106.5524196, -6.2894272], [106.5523989, -6.2895552], [106.5523815, -6.2896982], [106.5523613, -6.2899112], [106.55234, -6.2901241], [106.5523024, -6.2904191], [106.5522745, -6.2906864], [106.5522561, -6.2908392], [106.5522319, -6.2910079], [106.5522035, -6.2912345], [106.5521747, -6.2914362], [106.5521396, -6.2916192], [106.5520653, -6.2919848], [106.5520147, -6.2922218], [106.5519875, -6.2923536], [106.5519719, -6.2924244], [106.5519568, -6.2924987], [106.5519392, -6.2925883], [106.5519236, -6.2926704], [106.5519061, -6.2927507], [106.551886, -6.2928186], [106.5518591, -6.2928932], [106.5518292, -6.2930216], [106.5517514, -6.2934603], [106.5517213, -6.2936682], [106.5516975, -6.2938362], [106.5516587, -6.2940678], [106.5516124, -6.2943317], [106.5515573, -6.2945757], [106.551506, -6.2948694], [106.5514458, -6.2952056], [106.5514021, -6.2953923], [106.5513143, -6.295767], [106.5512004, -6.2962974], [106.551029, -6.2971169], [106.5508387, -6.2979391], [106.5507307, -6.2983775], [106.5506706, -6.2987285], [106.5506129, -6.2990472], [106.5505593, -6.2993302], [106.5504267, -6.3001292], [106.5503327, -6.3004913], [106.5502322, -6.3009145], [106.5500813, -6.3016483], [106.550035, -6.3018622], [106.5499813, -6.302102], [106.5499016, -6.3025765], [106.5498501, -6.3027986], [106.5498218, -6.3029152], [106.5497829, -6.3031356], [106.5497187, -6.3034745], [106.5496774, -6.3036942], [106.5496491, -6.3038845], [106.5496017, -6.3040878], [106.5494751, -6.3046687], [106.5492953, -6.3053946], [106.5491344, -6.306213], [106.5490311, -6.3066422], [106.5489614, -6.3070101], [106.5488555, -6.3074727], [106.5486315, -6.3087497], [106.5483834, -6.3099626], [106.5480575, -6.3113183], [106.5480089, -6.3116317], [106.5479972, -6.3117075], [106.5478912, -6.3121981], [106.5478, -6.3125846], [106.5476874, -6.3131258], [106.5476237, -6.3135416], [106.5476083, -6.313585], [106.547479, -6.3141806], [106.5473475, -6.3149506], [106.5470677, -6.3162263], [106.5468796, -6.3171307], [106.5467567, -6.3177219], [106.5465649, -6.318743], [106.5464482, -6.3192175], [106.5464039, -6.3194721], [106.5462644, -6.3199966], [106.5461359, -6.3205425], [106.5460554, -6.320929], [106.545987, -6.3212888], [106.5459535, -6.3215102], [106.5459104, -6.3217554], [106.5458541, -6.322038], [106.5457679, -6.3223986], [106.5457056, -6.3226165], [106.5456409, -6.3228205]]}}, {"type": "Feature", "properties": {"name": "Jalan Raya Curug", "query": "Jalan Raya Curug, Tangerang", "source": "nominatim_west", "osm_id": 674371169}, "geometry": {"type": "LineString", "coordinates": [[106.5532978, -6.2861547], [106.5532928, -6.2862418], [106.5532573, -6.2863982], [106.5531294, -6.286965], [106.5530201, -6.2874874], [106.5529349, -6.2878435], [106.5528547, -6.2882244], [106.5527871, -6.2884897], [106.5526819, -6.2887099], [106.5526159, -6.2889158]]}}, {"type": "Feature", "properties": {"name": "Jalan Raya Curug", "query": "Jalan Raya Curug, Tangerang", "source": "nominatim_west", "osm_id": 674371167}, "geometry": {"type": "LineString", "coordinates": [[106.5526159, -6.2889158], [106.5525357, -6.2890979]]}}, {"type": "Feature", "properties": {"name": "Jalan Raya PLP Curug", "query": "Jalan Raya Curug, Tangerang", "source": "nominatim_west", "osm_id": 1515750403}, "geometry": {"type": "LineString", "coordinates": [[106.5581824, -6.2637106], [106.558171, -6.2635617], [106.5581468, -6.2632369], [106.5581253, -6.2629481], [106.5581289, -6.2628531], [106.5581352, -6.2627556], [106.5581466, -6.262625], [106.5581953, -6.2623617], [106.558203, -6.2623198], [106.558447, -6.2612972], [106.5585596, -6.2608853], [106.5586052, -6.2607184], [106.5587158, -6.2603042], [106.558728, -6.2602694], [106.558843, -6.2598544], [106.5590151, -6.2591621], [106.5591227, -6.2588373], [106.5592591, -6.2584511], [106.559291, -6.2583549], [106.5593407, -6.2582213], [106.5594476, -6.2579343], [106.5595833, -6.2575427], [106.5597163, -6.2571648], [106.5598333, -6.256849], [106.5599688, -6.256473], [106.5600697, -6.2562226], [106.5601607, -6.2559966], [106.5602312, -6.2558215], [106.56031, -6.2556259], [106.5603489, -6.2555319], [106.5604254, -6.2553392], [106.5608897, -6.2542246], [106.5609434, -6.2540855], [106.561034, -6.2538445], [106.561175, -6.2535319], [106.5612938, -6.253301], [106.5615657, -6.2527725], [106.5616318, -6.2526416], [106.561655, -6.252596], [106.5617716, -6.2523667], [106.5618029, -6.2523097], [106.5618733, -6.2521816], [106.5620089, -6.2519348], [106.5624063, -6.2512318], [106.5625074, -6.2510418], [106.5625489, -6.2509626], [106.5626175, -6.2508232], [106.5627786, -6.2504848], [106.5628408, -6.2503492], [106.5628515, -6.2503157], [106.5629595, -6.2501032], [106.5630064, -6.250004], [106.5630674, -6.249881], [106.5631406, -6.249701], [106.5632297, -6.2495418], [106.5633789, -6.2492137], [106.5635022, -6.2489356], [106.5635124, -6.2489176], [106.5635459, -6.2488652], [106.5635718, -6.2487975], [106.5638268, -6.2482649], [106.5638697, -6.2481768], [106.5639873, -6.2479234], [106.5640909, -6.2477191], [106.5641383, -6.2476183], [106.5646901, -6.2465323], [106.5647457, -6.246412], [106.564779, -6.2463348], [106.5649081, -6.2460938], [106.5649659, -6.2459668], [106.5650356, -6.2458022], [106.5651735, -6.2455271], [106.5653231, -6.2452141], [106.5653518, -6.2451493], [106.5654357, -6.2450004], [106.5655446, -6.2447757], [106.5656476, -6.2445226], [106.5656818, -6.2443352], [106.5656957, -6.2441999], [106.5657006, -6.2440564], [106.5656997, -6.2438678], [106.565697, -6.2437404], [106.5656781, -6.243543], [106.565636, -6.2431647], [106.5656196, -6.2430882], [106.5655773, -6.2429032], [106.565509, -6.2427332], [106.5654963, -6.2427072], [106.5654367, -6.2425852], [106.5652421, -6.2422576], [106.5649863, -6.2418439], [106.5649146, -6.2417373], [106.5646569, -6.2413136], [106.5644753, -6.240999], [106.5643063, -6.240735], [106.5639902, -6.2402311], [106.5638973, -6.2400702], [106.5638044, -6.2399169], [106.5635928, -6.2395458], [106.5633685, -6.2391521], [106.5632627, -6.2389456], [106.563131, -6.2386715], [106.5630157, -6.2384449], [106.5629583, -6.2382971], [106.5629541, -6.2382869], [106.562882, -6.2381273], [106.5628309, -6.2379856], [106.562764, -6.2377727], [106.56268, -6.2374913], [106.562644, -6.2373659], [106.5625296, -6.2369904], [106.5624405, -6.2366599], [106.5623362, -6.236373], [106.5622257, -6.2360012], [106.5621674, -6.2358224], [106.5620975, -6.2356224], [106.5619864, -6.2353742], [106.5618944, -6.2351904], [106.5618371, -6.235079], [106.5616898, -6.2347944], [106.5615052, -6.2344303], [106.56147, -6.2343584], [106.5614425, -6.2343268], [106.5612354, -6.2339204], [106.5612142, -6.2338706], [106.5610755, -6.2335992], [106.5608348, -6.2331114], [106.5606633, -6.2327923], [106.5605278, -6.2325361], [106.5603299, -6.2321845], [106.560169, -6.231816], [106.5601276, -6.2317293], [106.560088, -6.2316434], [106.5600624, -6.2315948], [106.5599879, -6.2314482], [106.5599423, -6.2313412], [106.5597763, -6.2309935], [106.5596797, -6.2307668], [106.5596188, -6.2306137], [106.5596062, -6.2305682], [106.5595095, -6.2303388], [106.5594965, -6.2303061], [106.5594298, -6.2299891], [106.559426, -6.2299707], [106.5594206, -6.2299441], [106.5594017, -6.2298517], [106.5593885, -6.2297669], [106.5593327, -6.2294082], [106.5593272, -6.2293549], [106.5593101, -6.2291895], [106.5593033, -6.2291241], [106.5592919, -6.2288431], [106.5592928, -6.2288123], [106.5593045, -6.2286672], [106.5593241, -6.2284282], [106.5593597, -6.228113], [106.5593777, -6.2279861], [106.5594042, -6.2277176], [106.5594507, -6.227342], [106.5595165, -6.2268265], [106.5595263, -6.2267174], [106.5595613, -6.2264968], [106.5596188, -6.2261845], [106.5596509, -6.2259684], [106.5596809, -6.2254195], [106.5597336, -6.2249304], [106.5597559, -6.2247475], [106.5597663, -6.2246642], [106.5597803, -6.2245528], [106.5597852, -6.2245129], [106.55982, -6.224235], [106.5598434, -6.2240479], [106.5598559, -6.2239477], [106.5598686, -6.2238463], [106.5599135, -6.2233614], [106.5599445, -6.2232164], [106.5599545, -6.2230845], [106.5599597, -6.2229678], [106.5599549, -6.2228728]]}}, {"type": "Feature", "properties": {"name": "Jalan Curug Raya", "query": "Jalan Raya Curug, Tangerang", "source": "nominatim_west", "osm_id": 333373499}, "geometry": {"type": "LineString", "coordinates": [[106.5650719, -6.245187], [106.5649581, -6.2447758], [106.5649367, -6.2447212], [106.5642847, -6.2432359]]}}, {"type": "Feature", "properties": {"name": "Jalan Raya PLP Curug", "query": "Jalan Raya Curug, Tangerang", "source": "nominatim_west", "osm_id": 487246886}, "geometry": {"type": "LineString", "coordinates": [[106.5608469, -6.2558747], [106.5610494, -6.2554434], [106.5611536, -6.2552215], [106.5615602, -6.2543553]]}}, {"type": "Feature", "properties": {"name": "Jalan Raya Legok-Karawaci", "query": "Jalan Raya Legok, Tangerang", "source": "nominatim_west", "osm_id": 838299481}, "geometry": {"type": "LineString", "coordinates": [[106.5883054, -6.2981044], [106.588466, -6.298221]]}}, {"type": "Feature", "properties": {"name": "Jalan Raya Legok - Karawaci", "query": "Jalan Raya Legok, Tangerang", "source": "nominatim_west", "osm_id": 43131910}, "geometry": {"type": "LineString", "coordinates": [[106.588466, -6.298221], [106.5888956, -6.2983206], [106.5891945, -6.2983976], [106.58933, -6.2984322], [106.5894334, -6.2984469], [106.5894496, -6.2984456], [106.5895459, -6.2984429], [106.5896545, -6.2984296], [106.5900715, -6.2983477], [106.5902505, -6.2982997], [106.5904708, -6.298208], [106.5906368, -6.2981255], [106.5906771, -6.2981016], [106.591109, -6.2978396], [106.5912108, -6.297771], [106.5915008, -6.2975767], [106.5916982, -6.2974146], [106.5918371, -6.297248], [106.5919118, -6.297122], [106.592019, -6.2969416], [106.5921171, -6.296703], [106.5921357, -6.2966626], [106.5923307, -6.2960908], [106.5923905, -6.2959064], [106.5925711, -6.2953672], [106.5926594, -6.2950938], [106.5928815, -6.2943179], [106.5931385, -6.2934198], [106.5931719, -6.2932948], [106.5933226, -6.2927306], [106.5933529, -6.2926249], [106.5934298, -6.292347], [106.5934657, -6.2921828], [106.5935349, -6.2918437], [106.5935607, -6.2915109], [106.5935577, -6.2914111], [106.5935435, -6.2909308], [106.5935212, -6.2904433], [106.5935035, -6.2900142], [106.5934749, -6.2894293], [106.5934749, -6.2891504], [106.5934803, -6.288971], [106.5934893, -6.2888779], [106.5935161, -6.2886818], [106.5936489, -6.2880831], [106.5936642, -6.2880081], [106.5937387, -6.2876574], [106.5937698, -6.2875113], [106.5938203, -6.2872217], [106.5938909, -6.2868235], [106.5940402, -6.2860766], [106.5941358, -6.285701], [106.5942371, -6.2853219], [106.5943443, -6.2848786], [106.5943761, -6.2847626], [106.5944456, -6.2844846], [106.5944643, -6.2844099], [106.594579, -6.2839513], [106.5948449, -6.2828679], [106.5949247, -6.2825976], [106.5951996, -6.281521], [106.5952608, -6.2812813], [106.5952833, -6.2811903], [106.5955857, -6.2800372], [106.5956359, -6.2798295], [106.5957525, -6.2793952], [106.5959175, -6.27877], [106.5959396, -6.2787013], [106.5959819, -6.2785607], [106.5960315, -6.2783714], [106.5960704, -6.2782528], [106.5961307, -6.2780808], [106.5961656, -6.2780008], [106.5962233, -6.2778795], [106.5963167, -6.2776479], [106.5964017, -6.277451], [106.5965331, -6.2771596], [106.596572, -6.2770503], [106.5970024, -6.2761384], [106.597151, -6.2758678], [106.5972946, -6.2756099], [106.597437, -6.2753133], [106.597775, -6.2746742], [106.5978172, -6.2745944], [106.5981914, -6.2738883], [106.5983001, -6.2736896], [106.5983993, -6.2735085], [106.5985641, -6.2732074], [106.598616, -6.2731097], [106.5987619, -6.2728178], [106.5989079, -6.2725795], [106.599189, -6.2720548], [106.5992556, -6.2719114], [106.5994084, -6.2716354], [106.5994938, -6.271486], [106.5997665, -6.2709822], [106.5998657, -6.2708288], [106.6004416, -6.2698216], [106.6006314, -6.269515], [106.6009496, -6.2689536], [106.6014303, -6.2681181], [106.6015947, -6.267826], [106.6017462, -6.2675464], [106.6017696, -6.2675077], [106.6026567, -6.2660428], [106.6027151, -6.2659411], [106.6033027, -6.2649174], [106.6034133, -6.2647248], [106.6036977, -6.2642292], [106.6037159, -6.2641975], [106.6037657, -6.2641108], [106.6038073, -6.2640383], [106.6040724, -6.2635768], [106.604089, -6.2635479], [106.6041531, -6.2634358], [106.6045434, -6.262756], [106.6046783, -6.2625209], [106.6048764, -6.2621757], [106.6051403, -6.2617119], [106.6052199, -6.2615818], [106.605382, -6.261298], [106.6054219, -6.2612333], [106.6054465, -6.2611892], [106.6055512, -6.2610018], [106.6055623, -6.260974], [106.6056502, -6.2607535], [106.6056734, -6.2606953], [106.6057755, -6.2604389], [106.6059697, -6.2598585], [106.6062788, -6.2589147], [106.6062851, -6.2588947], [106.6063618, -6.258653], [106.6064089, -6.2585044], [106.6064348, -6.2584289], [106.6064997, -6.2582117], [106.6065125, -6.2581692], [106.6065946, -6.257967], [106.6066236, -6.2578902], [106.6067576, -6.2575459], [106.6068966, -6.257234], [106.6069642, -6.257058], [106.607066, -6.2568401], [106.607104, -6.2567567], [106.6071563, -6.2566335], [106.607221, -6.2564105], [106.6072532, -6.2562985], [106.6073781, -6.2558689], [106.6074125, -6.2557589], [106.60743, -6.2557067], [106.6074893, -6.2555172], [106.607502, -6.2554798], [106.607819, -6.2545503], [106.6079477, -6.2541673], [106.6080933, -6.253734], [106.6082414, -6.2532931], [106.6083783, -6.2528873], [106.6084306, -6.2527321], [106.6085987, -6.2522889], [106.6087507, -6.2518818], [106.6088098, -6.2517212]]}}, {"type": "Feature", "properties": {"name": "Jalan Anggur Raya", "query": "Jalan Raya Parung Panjang, Bogor", "source": "nominatim_west", "osm_id": 1344478456}, "geometry": {"type": "LineString", "coordinates": [[106.5585315, -6.3510301], [106.5590746, -6.3510608], [106.5591283, -6.3510554], [106.5591611, -6.3510491], [106.5591969, -6.3510422], [106.5593504, -6.3510108], [106.5593784, -6.3510055], [106.5594079, -6.3510048], [106.5594943, -6.3510046], [106.5599041, -6.3510224], [106.5605046, -6.3510532], [106.5606667, -6.3510642], [106.5614829, -6.3516513], [106.5624136, -6.3523594], [106.5627137, -6.3525743], [106.5627412, -6.3525883], [106.5627795, -6.352589], [106.5640683, -6.3525035]]}}, {"type": "Feature", "properties": {"name": "Jalan Apel Raya", "query": "Jalan Raya Parung Panjang, Bogor", "source": "nominatim_west", "osm_id": 1344478455}, "geometry": {"type": "LineString", "coordinates": [[106.5623744, -6.3526019], [106.5613309, -6.3518338], [106.5606471, -6.3512948], [106.5605807, -6.3512687], [106.5605056, -6.3512527], [106.5594187, -6.3512142], [106.5591647, -6.351182], [106.5591337, -6.3511781], [106.5585288, -6.3511261]]}}, {"type": "Feature", "properties": {"name": "Jalan Sriwijaya Raya", "query": "Jalan Raya Parung Panjang, Bogor", "source": "nominatim_west", "osm_id": 459201824}, "geometry": {"type": "LineString", "coordinates": [[106.5659312, -6.3480153], [106.5659444, -6.3480369], [106.5659506, -6.348058], [106.5659887, -6.349124], [106.5660078, -6.3504327], [106.5659975, -6.3504943], [106.5659798, -6.3505332], [106.5657684, -6.3509226], [106.5657625, -6.3509334], [106.565479, -6.3514556], [106.5652868, -6.3517861], [106.5648635, -6.3525386]]}}, {"type": "Feature", "properties": {"name": "Jalan Durian Raya", "query": "Jalan Raya Parung Panjang, Bogor", "source": "nominatim_west", "osm_id": 774599132}, "geometry": {"type": "LineString", "coordinates": [[106.5607417, -6.3542623], [106.5607393, -6.3542189], [106.5607365, -6.3538876], [106.560662, -6.3527883], [106.5606652, -6.3527595], [106.5606786, -6.3527362], [106.5610954, -6.3521821], [106.5613309, -6.3518338], [106.5613915, -6.3517676]]}}, {"type": "Feature", "properties": {"name": "Jalan Jati Raya", "query": "Jalan Raya Parung Panjang, Bogor", "source": "nominatim_west", "osm_id": 478825916}, "geometry": {"type": "LineString", "coordinates": [[106.5556816, -6.3509706], [106.555851, -6.3507042], [106.5561423, -6.3501471], [106.5561499, -6.3501195], [106.5561497, -6.3500897], [106.5561356, -6.3500571], [106.5560844, -6.349952], [106.5558828, -6.3494813], [106.5557561, -6.3492423]]}}, {"type": "Feature", "properties": {"name": "Jalan Alpukat Raya", "query": "Jalan Raya Parung Panjang, Bogor", "source": "nominatim_west", "osm_id": 478825972}, "geometry": {"type": "LineString", "coordinates": [[106.5620831, -6.3586706], [106.5615291, -6.3586946], [106.5612343, -6.3587073], [106.5609106, -6.3587213], [106.5605817, -6.3587356], [106.560541, -6.3587373], [106.5602488, -6.35875], [106.5598265, -6.3587439], [106.5595755, -6.3587474], [106.5595212, -6.3587494], [106.5594569, -6.3587479]]}}, {"type": "Feature", "properties": {"name": "Jalan Siliwangi", "query": "Jalan Siliwangi, Pamulang", "source": "nominatim_west", "osm_id": 590926848}, "geometry": {"type": "LineString", "coordinates": [[106.718635, -6.3444211], [106.718471, -6.344438], [106.7183134, -6.344491], [106.7181712, -6.3445745], [106.7179526, -6.3447336], [106.7176015, -6.3450323], [106.7174356, -6.3451548], [106.7171687, -6.345304], [106.7168739, -6.3454247], [106.7165835, -6.3455257], [106.7163747, -6.3455711], [106.7161054, -6.345629], [106.7160156, -6.3456481], [106.7156724, -6.3457164], [106.7148602, -6.3458764], [106.7145426, -6.3459445], [106.7144174, -6.3459697], [106.7141278, -6.3460264], [106.7136965, -6.3461178], [106.7130512, -6.3462515]]}}, {"type": "Feature", "properties": {"name": "Jalan Siliwangi", "query": "Jalan Siliwangi, Pamulang", "source": "nominatim_west", "osm_id": 590913504}, "geometry": {"type": "LineString", "coordinates": [[106.7223785, -6.3433324], [106.7229936, -6.3428137], [106.7233774, -6.3425143], [106.7235169, -6.3424185], [106.7236362, -6.3423617], [106.7237318, -6.3423292], [106.7239737, -6.3422932], [106.7245101, -6.3422212], [106.7256268, -6.3420715], [106.7264234, -6.3419513], [106.7266488, -6.3419256], [106.7268623, -6.3419133], [106.7270862, -6.3419252], [106.7272264, -6.3419445], [106.7273233, -6.3419575]]}}, {"type": "Feature", "properties": {"name": "Jalan Siliwangi", "query": "Jalan Siliwangi, Pamulang", "source": "nominatim_west", "osm_id": 1386017676}, "geometry": {"type": "LineString", "coordinates": [[106.7256359, -6.3421397], [106.7246646, -6.3422898], [106.7245197, -6.3423122], [106.7244942, -6.3423161], [106.7244344, -6.3423239], [106.7241154, -6.3423657], [106.7237426, -6.3424293], [106.7236567, -6.342464], [106.7234824, -6.342568], [106.7230577, -6.342904], [106.7229651, -6.3429773], [106.7228283, -6.3430855], [106.7223907, -6.3434317]]}}, {"type": "Feature", "properties": {"name": "Jalan Siliwangi", "query": "Jalan Siliwangi, Pamulang", "source": "nominatim_west", "osm_id": 590899484}, "geometry": {"type": "LineString", "coordinates": [[106.731362, -6.3432411], [106.731476, -6.3432639], [106.7328211, -6.3435324], [106.7350508, -6.3439896]]}}, {"type": "Feature", "properties": {"name": "Jalan Siliwangi", "query": "Jalan Siliwangi, Pamulang", "source": "nominatim_west", "osm_id": 749352974}, "geometry": {"type": "LineString", "coordinates": [[106.7350508, -6.3439896], [106.7358821, -6.3441374], [106.7359906, -6.3441197]]}}, {"type": "Feature", "properties": {"name": "Jalan Siliwangi", "query": "Jalan Siliwangi, Pamulang", "source": "nominatim_west", "osm_id": 1387972856}, "geometry": {"type": "LineString", "coordinates": [[106.7359906, -6.3441197], [106.7360684, -6.3440997], [106.736161, -6.3440651], [106.7361964, -6.3440539], [106.7362199, -6.3440515], [106.7362663, -6.3440631], [106.7362767, -6.3440701], [106.7363059, -6.3440897], [106.736334, -6.3441281], [106.7363472, -6.3441737], [106.736344, -6.3442211], [106.736327, -6.3442612], [106.7362982, -6.3442939], [106.7362605, -6.344316], [106.7362178, -6.3443254], [106.7361743, -6.3443209], [106.7361344, -6.3443032], [106.7360526, -6.3442637]]}}, {"type": "Feature", "properties": {"name": "Jalan BSD Grand Boulevard", "query": "Jalan BSD Grand Boulevard", "source": "nominatim_west", "osm_id": 46560873}, "geometry": {"type": "LineString", "coordinates": [[106.6710195, -6.2991393], [106.673082, -6.2989401], [106.6732737, -6.2989054], [106.673484, -6.2988443], [106.6737633, -6.2987362], [106.6742474, -6.2984767], [106.6744977, -6.2982798], [106.6747419, -6.2980515], [106.6750023, -6.2977302], [106.6752779, -6.2973139], [106.6755066, -6.2969633], [106.675732, -6.2966793], [106.6759492, -6.2964623], [106.6760418, -6.2963834], [106.6761581, -6.2962909], [106.6764047, -6.2961317], [106.6766048, -6.2960147], [106.676812, -6.2958926], [106.6768445, -6.2958734], [106.6769018, -6.2958396], [106.6769779, -6.2957954], [106.6770019, -6.2957819], [106.677761, -6.2953554], [106.6788625, -6.2947638], [106.6795434, -6.2943708], [106.6797957, -6.2942251], [106.6798205, -6.2942097], [106.679961, -6.294133]]}}, {"type": "Feature", "properties": {"name": "Jalan BSD Grand Boulevard", "query": "Jalan BSD Grand Boulevard", "source": "nominatim_west", "osm_id": 771544256}, "geometry": {"type": "LineString", "coordinates": [[106.6418723, -6.298655], [106.642411, -6.298651], [106.642858, -6.298678], [106.6431651, -6.2987061], [106.6439733, -6.2988281], [106.6445, -6.2989394], [106.6453787, -6.2991495], [106.6465079, -6.2995089], [106.6475111, -6.2998092], [106.6476975, -6.2998546], [106.6478498, -6.2998839], [106.6480046, -6.2998982], [106.6480408, -6.2999079], [106.6481062, -6.2999283]]}}, {"type": "Feature", "properties": {"name": "Jalan BSD Grand Boulevard", "query": "Jalan BSD Grand Boulevard", "source": "nominatim_west", "osm_id": 978400303}, "geometry": {"type": "LineString", "coordinates": [[106.6408418, -6.2988435], [106.6405203, -6.2986986], [106.6393531, -6.2980498], [106.6387886, -6.2977394], [106.6386428, -6.2976593], [106.6382853, -6.2974666], [106.638198, -6.2974195], [106.6379231, -6.297321], [106.6375887, -6.2972787], [106.6373265, -6.2972814], [106.6371674, -6.2973071], [106.6368775, -6.2974167], [106.6365714, -6.2975885], [106.6363419, -6.2977942], [106.6361634, -6.2979885]]}}, {"type": "Feature", "properties": {"name": "Jalan BSD Grand Boulevard", "query": "Jalan BSD Grand Boulevard", "source": "nominatim_west", "osm_id": 359245322}, "geometry": {"type": "LineString", "coordinates": [[106.6544252, -6.2986149], [106.6546773, -6.2985495], [106.6549087, -6.2984936], [106.6551031, -6.2984536], [106.6551826, -6.2984386], [106.6552533, -6.2984296], [106.6553516, -6.2984222], [106.6554793, -6.2984209], [106.655661, -6.2984216], [106.6558159, -6.2984316], [106.6559742, -6.2984496], [106.6561787, -6.2984909], [106.6563316, -6.2985342], [106.6564657, -6.2985815], [106.6566427, -6.2986602], [106.6567269, -6.2987005], [106.6568982, -6.2987908], [106.6569559, -6.2988105], [106.6570175, -6.2988335], [106.6570742, -6.2988591], [106.6571255, -6.2988861], [106.6573086, -6.2990101], [106.6574365, -6.2991074], [106.657505, -6.2991614], [106.6575868, -6.2992214], [106.6576861, -6.2992847], [106.6577961, -6.29935], [106.6579463, -6.299434], [106.6580189, -6.2994743], [106.6580797, -6.299508], [106.6583446, -6.2996306], [106.6584351, -6.2996666], [106.658586, -6.2997199], [106.6588528, -6.2997999], [106.6590077, -6.2998386], [106.6590983, -6.2998572], [106.6593699, -6.2999002]]}}, {"type": "Feature", "properties": {"name": "Jalan BSD Grand Boulevard", "query": "Jalan BSD Grand Boulevard", "source": "nominatim_west", "osm_id": 359245321}, "geometry": {"type": "LineString", "coordinates": [[106.6522909, -6.299168], [106.6533731, -6.2988988], [106.6544252, -6.2986149]]}}, {"type": "Feature", "properties": {"name": "Jalan BSD Grand Boulevard", "query": "Jalan BSD Grand Boulevard", "source": "nominatim_west", "osm_id": 1391885091}, "geometry": {"type": "LineString", "coordinates": [[106.6523094, -6.2992625], [106.6519355, -6.2993561]]}}, {"type": "Feature", "properties": {"name": "Jalan Raya Serpong", "query": "Jalan Raya Serpong, Tangerang Selatan", "source": "nominatim_west", "osm_id": 188798027}, "geometry": {"type": "LineString", "coordinates": [[106.6603743, -6.3127639], [106.6605427, -6.3134397], [106.6605983, -6.313663], [106.6606291, -6.3138083], [106.6606975, -6.3140249], [106.660776, -6.3142102], [106.6608122, -6.3142715], [106.6608471, -6.3143181], [106.6608903, -6.3143685], [106.6609634, -6.3144318], [106.661174, -6.3146041], [106.6612004, -6.3146214], [106.6613637, -6.314756], [106.6614217, -6.314812], [106.6616336, -6.315], [106.6618435, -6.3151752], [106.6623853, -6.3155965], [106.6626488, -6.3158557], [106.6630002, -6.3162083], [106.6630431, -6.3162563], [106.6630894, -6.3163196], [106.6631819, -6.3164556], [106.6637217, -6.3173193], [106.6637807, -6.317416]]}}, {"type": "Feature", "properties": {"name": "Jalan Raya Serpong", "query": "Jalan Raya Serpong, Tangerang Selatan", "source": "nominatim_west", "osm_id": 219064998}, "geometry": {"type": "LineString", "coordinates": [[106.6603257, -6.3122586], [106.660384, -6.3121623], [106.6605309, -6.311862], [106.6606344, -6.3116766], [106.6609061, -6.3111902], [106.6610203, -6.3110005], [106.6610377, -6.3109718], [106.6610655, -6.3109203]]}}, {"type": "Feature", "properties": {"name": "Jalan Raya Serpong", "query": "Jalan Raya Serpong, Tangerang Selatan", "source": "nominatim_west", "osm_id": 563069091}, "geometry": {"type": "LineString", "coordinates": [[106.6737692, -6.3312094], [106.6737485, -6.3309766], [106.6737665, -6.3306968]]}}, {"type": "Feature", "properties": {"name": "Jalan Pahlawan Seribu", "query": "Jalan Raya Serpong, Tangerang Selatan", "source": "nominatim_west", "osm_id": 756050837}, "geometry": {"type": "LineString", "coordinates": [[106.6750256, -6.3104778], [106.6760146, -6.3122888]]}}, {"type": "Feature", "properties": {"name": "Jalan Pahlawan Seribu", "query": "Jalan Raya Serpong, Tangerang Selatan", "source": "nominatim_west", "osm_id": 570104312}, "geometry": {"type": "LineString", "coordinates": [[106.6839931, -6.325459], [106.6840527, -6.3254978], [106.6840964, -6.3255476], [106.6842238, -6.3259567], [106.6842909, -6.3261657], [106.6843818, -6.3264475], [106.6845004, -6.3268162], [106.6846001, -6.3271272]]}}, {"type": "Feature", "properties": {"name": "Jalan Pahlawan Seribu", "query": "Jalan Raya Serpong, Tangerang Selatan", "source": "nominatim_west", "osm_id": 166823572}, "geometry": {"type": "LineString", "coordinates": [[106.6763889, -6.312979], [106.6769499, -6.3139859], [106.6770071, -6.3141002]]}}, {"type": "Feature", "properties": {"name": "Jalan Letnan Sutopo", "query": "Jalan Letnan Sutopo, BSD", "source": "nominatim_west", "osm_id": 717660813}, "geometry": {"type": "LineString", "coordinates": [[106.679961, -6.294133], [106.6798759, -6.2939493], [106.6792577, -6.2927773], [106.6788582, -6.2920195], [106.6788038, -6.2919051], [106.678715, -6.2917581], [106.678641, -6.2916387], [106.6778654, -6.2901716], [106.6776093, -6.2898091], [106.6766264, -6.2883839], [106.6760996, -6.2876199], [106.6760466, -6.2875431], [106.6760163, -6.2874945], [106.675933, -6.2873785], [106.6757244, -6.2870656], [106.6753788, -6.2866599], [106.6751018, -6.2863893], [106.6750844, -6.2863703], [106.6750536, -6.2863387]]}}, {"type": "Feature", "properties": {"name": "Jalan Letnan Sutopo", "query": "Jalan Letnan Sutopo, BSD", "source": "nominatim_west", "osm_id": 765873249}, "geometry": {"type": "LineString", "coordinates": [[106.6857581, -6.3049915], [106.6856374, -6.3047447], [106.6854224, -6.3042949], [106.6852686, -6.3039815]]}}, {"type": "Feature", "properties": {"name": "Jalan Letnan Sutopo", "query": "Jalan Letnan Sutopo, BSD", "source": "nominatim_west", "osm_id": 55679059}, "geometry": {"type": "LineString", "coordinates": [[106.687976, -6.3083551], [106.6883219, -6.3089236], [106.6885111, -6.3092469]]}}, {"type": "Feature", "properties": {"name": "Jalan Letnan Sutopo", "query": "Jalan Letnan Sutopo, BSD", "source": "nominatim_west", "osm_id": 756370395}, "geometry": {"type": "LineString", "coordinates": [[106.6796821, -6.2931746], [106.6798944, -6.2935915], [106.6800344, -6.293863], [106.6800528, -6.2938952], [106.6801336, -6.2940343]]}}, {"type": "Feature", "properties": {"name": "Jalan Imam Bonjol", "query": "Jalan Imam Bonjol, Tangerang", "source": "nominatim_west", "osm_id": 188810864}, "geometry": {"type": "LineString", "coordinates": [[106.6258734, -6.1856517], [106.6256164, -6.1866992], [106.6255447, -6.1870117], [106.625432, -6.1874772], [106.6254135, -6.1875617], [106.6253493, -6.1877925], [106.6252333, -6.1882095], [106.6251254, -6.1886527], [106.6250909, -6.1887844], [106.6250039, -6.1891061], [106.6249824, -6.1891834], [106.6246988, -6.1902042], [106.6246599, -6.190351], [106.6246367, -6.1904276], [106.6245588, -6.1907083], [106.6244218, -6.1912604], [106.6244055, -6.1913156], [106.6243713, -6.1914348], [106.6243516, -6.1915035], [106.6242966, -6.1916946], [106.6242365, -6.1919323], [106.6242121, -6.1920288], [106.6240266, -6.1926995], [106.623876, -6.1932253], [106.6238345, -6.1933703], [106.6238072, -6.1934655], [106.6237082, -6.1937884], [106.6236222, -6.1940691], [106.6235858, -6.1941708], [106.6233998, -6.1947632]]}}, {"type": "Feature", "properties": {"name": "Jalan Imam Bonjol", "query": "Jalan Imam Bonjol, Tangerang", "source": "nominatim_west", "osm_id": 188810866}, "geometry": {"type": "LineString", "coordinates": [[106.6206194, -6.2009307], [106.6206602, -6.2007113], [106.6207223, -6.2003466], [106.6207697, -6.2001127], [106.6208151, -6.1999422], [106.6212876, -6.1988678], [106.6214258, -6.1985599], [106.6214916, -6.1984435], [106.6218422, -6.1977998], [106.6219404, -6.1976106], [106.6225243, -6.1964857], [106.622831, -6.1958889], [106.6228771, -6.1958069], [106.6231082, -6.1953858]]}}, {"type": "Feature", "properties": {"name": "Jalan Imam Bonjol", "query": "Jalan Imam Bonjol, Tangerang", "source": "nominatim_west", "osm_id": 192219955}, "geometry": {"type": "LineString", "coordinates": [[106.6265336, -6.178481], [106.6265429, -6.178547], [106.6265666, -6.1787098], [106.6266077, -6.1790078], [106.6266709, -6.179417], [106.6267307, -6.1797703], [106.6267529, -6.1798992], [106.6267978, -6.1801603], [106.6268331, -6.1804239], [106.6268651, -6.1806621], [106.6268664, -6.1806961], [106.6268936, -6.1808956], [106.6268954, -6.1811847], [106.6268836, -6.1813017], [106.6268593, -6.1814822], [106.626852, -6.1815674], [106.6268091, -6.1818768], [106.6267995, -6.1819342], [106.6267636, -6.1821475], [106.6267425, -6.1822823], [106.6267107, -6.1824386], [106.6266272, -6.1827943], [106.6265771, -6.1829723], [106.6264791, -6.1833331], [106.6263663, -6.1837764], [106.6263629, -6.1837898], [106.6263207, -6.1839636], [106.6262189, -6.1843828], [106.6261112, -6.1847934], [106.6260628, -6.1849555], [106.6259554, -6.1853525], [106.6258734, -6.1856517]]}}, {"type": "Feature", "properties": {"name": "Jalan Imam Bonjol", "query": "Jalan Imam Bonjol, Tangerang", "source": "nominatim_west", "osm_id": 1203862163}, "geometry": {"type": "LineString", "coordinates": [[106.6262643, -6.1774329], [106.6263401, -6.1775175]]}}, {"type": "Feature", "properties": {"name": "Jalan Raya Serang", "query": "Jalan Raya Serang, Cikupa", "source": "nominatim_west", "osm_id": 72519067}, "geometry": {"type": "LineString", "coordinates": [[106.5308816, -6.220113], [106.5306927, -6.220099], [106.5305245, -6.2201031], [106.530436, -6.2201067], [106.5303569, -6.2201134], [106.5302785, -6.2201247], [106.5302349, -6.220136], [106.5301732, -6.2201567], [106.5301215, -6.2201914], [106.5300423, -6.2202492], [106.5299941, -6.2203004], [106.5299298, -6.2203897], [106.5298861, -6.2204562], [106.5298279, -6.2205347], [106.5296889, -6.2207802], [106.5295383, -6.2211107], [106.5294998, -6.2211952], [106.5294403, -6.2212953], [106.5294114, -6.221346], [106.5292502, -6.2216934], [106.5291861, -6.2218372], [106.529158, -6.2218905], [106.5290956, -6.2220212], [106.5290272, -6.2221985], [106.5289823, -6.2222914], [106.5288327, -6.2226194], [106.5287141, -6.2228351], [106.5286792, -6.2229034], [106.5284774, -6.2232924], [106.5284673, -6.2233177], [106.5283131, -6.2236844], [106.5282666, -6.2238095], [106.5282305, -6.2238867], [106.5281327, -6.2241163], [106.5280006, -6.2244043], [106.5279376, -6.2245123], [106.5278323, -6.2247089], [106.5278136, -6.224753], [106.5277357, -6.2249469], [106.527552, -6.2253262], [106.5274286, -6.2255608], [106.5273515, -6.2257255], [106.527267, -6.2258948], [106.5272129, -6.2259871], [106.527147, -6.2260994], [106.527087, -6.2262324], [106.5269653, -6.2264674], [106.5269351, -6.2265154], [106.5268515, -6.2266678], [106.5266072, -6.2271094], [106.5265683, -6.227174], [106.5264724, -6.2273387], [106.5264127, -6.2274033], [106.5262089, -6.227642], [106.5260325, -6.2278673], [106.5259406, -6.2279713], [106.5258717, -6.2280373], [106.5257375, -6.2281472], [106.5255444, -6.2282666], [106.5254612, -6.2283086], [106.5254123, -6.2283312], [106.5252075, -6.2284198], [106.5251096, -6.228449], [106.524955, -6.2285025], [106.5248631, -6.2285352], [106.5246679, -6.2286045], [106.524438, -6.2286678], [106.524426, -6.2286706], [106.5242609, -6.2287098], [106.5240685, -6.2287365], [106.5239598, -6.2287406], [106.5238754, -6.2287418], [106.5238217, -6.2287392], [106.5237597, -6.2287225], [106.5236859, -6.2287007], [106.5235826, -6.2286603]]}}, {"type": "Feature", "properties": {"name": "Jalan Raya Serang", "query": "Jalan Raya Serang, Cikupa", "source": "nominatim_west", "osm_id": 831077792}, "geometry": {"type": "LineString", "coordinates": [[106.5410931, -6.2219065], [106.5409121, -6.2217986], [106.5408217, -6.2217531], [106.54059, -6.2216484], [106.5402892, -6.2215366], [106.5400665, -6.2214733], [106.5399506, -6.2214553], [106.539744, -6.2214259], [106.5395844, -6.2214033], [106.539451, -6.221389], [106.5391321, -6.2213482], [106.5385511, -6.2212546], [106.5385043, -6.2212427], [106.538341, -6.2212128], [106.5379735, -6.2211456], [106.53791, -6.2211394], [106.5376993, -6.2211081], [106.5373964, -6.2210533], [106.5372039, -6.2210173], [106.5370484, -6.2209933], [106.5369511, -6.2209813], [106.5368117, -6.2209586], [106.5365253, -6.2209197], [106.5363362, -6.220894], [106.5362722, -6.2208831], [106.5360023, -6.2208373], [106.535834, -6.2208246], [106.535667, -6.220798], [106.5353843, -6.2207561], [106.53514, -6.2207313], [106.5350613, -6.2207235], [106.534734, -6.2206739]]}}, {"type": "Feature", "properties": {"name": "Jalan Raya Serang", "query": "Jalan Raya Serang, Cikupa", "source": "nominatim_west", "osm_id": 569494547}, "geometry": {"type": "LineString", "coordinates": [[106.526459, -6.2233157], [106.5265113, -6.2231818], [106.5265918, -6.2229764], [106.5266488, -6.2227851], [106.5266615, -6.2227318], [106.5267044, -6.2225478], [106.5267386, -6.2224278], [106.5267554, -6.2223665], [106.5267681, -6.2223412], [106.5268218, -6.2223085], [106.5268734, -6.2222952], [106.5269324, -6.2222765], [106.5270048, -6.2222512], [106.5270746, -6.2222178], [106.5271095, -6.2221945], [106.5271336, -6.2221732], [106.5271852, -6.2221192], [106.5272543, -6.2220139], [106.5272999, -6.2219032], [106.5273341, -6.2217732], [106.5273468, -6.2217139], [106.5273542, -6.2216752], [106.5274192, -6.2216912], [106.5274736, -6.2217052], [106.5289823, -6.2222914]]}}, {"type": "Feature", "properties": {"name": "Jalan Raya Serang", "query": "Jalan Raya Serang, Cikupa", "source": "nominatim_west", "osm_id": 72519066}, "geometry": {"type": "LineString", "coordinates": [[106.5550921, -6.224504], [106.554944, -6.2245387]]}}, {"type": "Feature", "properties": {"name": "Jalan Laksamana RE Martadinata", "query": "Jalan RE Martadinata, Pamulang", "source": "nominatim_west", "osm_id": 988275698}, "geometry": {"type": "LineString", "coordinates": [[106.7496869, -6.344335], [106.7496777, -6.3439486], [106.7496767, -6.343555], [106.7496777, -6.3434123], [106.7496936, -6.3430475], [106.7497032, -6.3428274], [106.7497116, -6.3422957]]}}, {"type": "Feature", "properties": {"name": "Jalan Laksamana RE Martadinata", "query": "Jalan RE Martadinata, Pamulang", "source": "nominatim_west", "osm_id": 749968013}, "geometry": {"type": "LineString", "coordinates": [[106.7497923, -6.3422961], [106.7497927, -6.3428212], [106.7497702, -6.3433805], [106.749771, -6.3434646], [106.7497688, -6.3439488], [106.7497647, -6.344317]]}}, {"type": "Feature", "properties": {"name": "Jalan Laksamana RE Martadinata", "query": "Jalan RE Martadinata, Pamulang", "source": "nominatim_west", "osm_id": 747464964}, "geometry": {"type": "LineString", "coordinates": [[106.7498125, -6.3415419], [106.749806, -6.3420707]]}}, {"type": "Feature", "properties": {"name": "Jalan Laksamana RE Martadinata", "query": "Jalan RE Martadinata, Pamulang", "source": "nominatim_west", "osm_id": 749962076}, "geometry": {"type": "LineString", "coordinates": [[106.7497116, -6.3422957], [106.7497145, -6.3420918], [106.7497134, -6.3420229]]}}, {"type": "Feature", "properties": {"name": "Jalan Laksamana RE Martadinata", "query": "Jalan RE Martadinata, Pamulang", "source": "nominatim_west", "osm_id": 774883038}, "geometry": {"type": "LineString", "coordinates": [[106.7496471, -6.3469275], [106.7496433, -6.3467336], [106.7496429, -6.346617], [106.7496422, -6.3465446], [106.7496416, -6.346489], [106.7496386, -6.3462811], [106.7496381, -6.3461996], [106.7496376, -6.3461131], [106.7496296, -6.3457639], [106.7496298, -6.3456663], [106.7496356, -6.3446749], [106.7496376, -6.344615], [106.7496295, -6.3435467], [106.749629, -6.3434807], [106.7496285, -6.3434156], [106.7496268, -6.3431934], [106.7496349, -6.3431481], [106.749651, -6.3431108], [106.7496936, -6.3430475]]}}, {"type": "Feature", "properties": {"name": "Jalan Laksamana RE Martadinata", "query": "Jalan RE Martadinata, Pamulang", "source": "nominatim_west", "osm_id": 774883039}, "geometry": {"type": "LineString", "coordinates": [[106.749771, -6.3434646], [106.7498045, -6.343598], [106.7498226, -6.3436953], [106.7498262, -6.3439361], [106.7498199, -6.344378], [106.749816, -6.3446576], [106.7498193, -6.3448655], [106.7498177, -6.3449826], [106.7498075, -6.3454413], [106.749806, -6.345757], [106.7498064, -6.3458173], [106.7498066, -6.3458508], [106.749805, -6.3459319], [106.7498105, -6.3461051], [106.7498168, -6.3462972], [106.7498221, -6.3464743], [106.7498253, -6.3465526], [106.749827, -6.3466298], [106.7498308, -6.3467355], [106.7498368, -6.3469021]]}}, {"type": "Feature", "properties": {"name": "Jalan Gatot Subroto", "query": "Jalan Gatot Subroto, Kota Tangerang", "source": "nominatim_west_fix", "osm_id": 674859024}, "geometry": {"type": "LineString", "coordinates": [[106.5788417, -6.1982299], [106.5787227, -6.1982726], [106.5781128, -6.1984734], [106.5770398, -6.1988589], [106.5768298, -6.1989394], [106.5765503, -6.1990353], [106.5765115, -6.1990476], [106.5760649, -6.1991994], [106.5758401, -6.1992784], [106.5756509, -6.199346], [106.5754844, -6.1994056], [106.5753465, -6.1994663], [106.5751617, -6.1995562], [106.5750965, -6.1995898], [106.5749925, -6.1996492], [106.574883, -6.1997071], [106.5747538, -6.1998038], [106.5745691, -6.1999465], [106.5744934, -6.2000188], [106.574361, -6.2001412], [106.5742912, -6.2002296], [106.574285, -6.2002392]]}}, {"type": "Feature", "properties": {"name": "Jalan Gatot Subroto", "query": "Jalan Gatot Subroto, Kota Tangerang", "source": "nominatim_west_fix", "osm_id": 100163230}, "geometry": {"type": "LineString", "coordinates": [[106.6003157, -6.1884961], [106.5995063, -6.18853], [106.5993849, -6.1885487], [106.5991629, -6.1886154], [106.5982269, -6.1889207], [106.5974919, -6.1891753], [106.5973686, -6.189214], [106.5972154, -6.1892539]]}}, {"type": "Feature", "properties": {"name": "Jalan Gatot Subroto", "query": "Jalan Gatot Subroto, Kota Tangerang", "source": "nominatim_west_fix", "osm_id": 564551180}, "geometry": {"type": "LineString", "coordinates": [[106.5972154, -6.1892539], [106.5971784, -6.1892577], [106.5971394, -6.1892603], [106.5970816, -6.189266], [106.5970201, -6.1892736], [106.596599, -6.18932], [106.5964233, -6.1893286], [106.5960328, -6.18934], [106.5954656, -6.189338], [106.5950257, -6.1893473], [106.5948975, -6.1893014]]}}, {"type": "Feature", "properties": {"name": "Jalan Gatot Subroto", "query": "Jalan Gatot Subroto, Kota Tangerang", "source": "nominatim_west_fix", "osm_id": 564551156}, "geometry": {"type": "LineString", "coordinates": [[106.5948975, -6.1893014], [106.5947827, -6.1892858], [106.5944996, -6.1892552], [106.5944191, -6.189246], [106.5938172, -6.1891555], [106.5938056, -6.1891534], [106.5936734, -6.1891266]]}}, {"type": "Feature", "properties": {"name": "Jalan Gatot Subroto", "query": "Jalan Gatot Subroto, Cimone, Tangerang", "source": "nominatim_west_fix", "osm_id": 1291381008}, "geometry": {"type": "LineString", "coordinates": [[106.6131495, -6.1854085], [106.6131928, -6.1854229], [106.6132452, -6.1854373]]}}, {"type": "Feature", "properties": {"name": "Jalan Gatot Subroto", "query": "Jalan Gatot Subroto, Cimone, Tangerang", "source": "nominatim_west_fix", "osm_id": 674852708}, "geometry": {"type": "LineString", "coordinates": [[106.6073959, -6.1868907], [106.607498, -6.1867808]]}}, {"type": "Feature", "properties": {"name": "Jalan Gatot Subroto", "query": "Jalan Gatot Subroto, Cimone, Tangerang", "source": "nominatim_west_fix", "osm_id": 674852710}, "geometry": {"type": "LineString", "coordinates": [[106.6075516, -6.1868447], [106.6074564, -6.1869541]]}}, {"type": "Feature", "properties": {"name": "Jalan Raya Serang", "query": "Jalan Raya Serang, Tangerang", "source": "nominatim_west_fix", "osm_id": 72519086}, "geometry": {"type": "LineString", "coordinates": [[106.5061924, -6.2245702], [106.5059296, -6.2245703], [106.5059153, -6.2245681], [106.5056853, -6.2245383], [106.5054755, -6.2245002], [106.5051694, -6.224453], [106.5047563, -6.2243865], [106.504576, -6.224334], [106.5044783, -6.2243023], [106.5043302, -6.2242446], [106.5042397, -6.2241878], [106.5041591, -6.224133], [106.5040304, -6.2240263], [106.5039016, -6.2239183], [106.5037152, -6.2237304], [106.5034993, -6.2234731], [106.5031794, -6.2231152], [106.5029832, -6.2228957], [106.5027972, -6.2226876], [106.5020415, -6.2218453], [106.5019625, -6.2217571], [106.5019011, -6.2216856], [106.5016029, -6.221341], [106.5014649, -6.2212068], [106.5013956, -6.2211394], [106.5012837, -6.2210305], [106.5009898, -6.2207866], [106.5007514, -6.2205973], [106.5001567, -6.2201588], [106.499885, -6.2199827], [106.4997811, -6.2199054], [106.4994644, -6.2196481], [106.4993725, -6.2195897], [106.4992001, -6.2194678], [106.4989516, -6.2192855], [106.4983013, -6.2188211], [106.4982054, -6.2187612], [106.4979519, -6.218619], [106.4974458, -6.2183554], [106.4972883, -6.2182715], [106.4969976, -6.2181165], [106.4966965, -6.2179734], [106.4965551, -6.2178882], [106.4963023, -6.2177707], [106.496136, -6.2176953], [106.4956116, -6.2174795], [106.495183, -6.2173381], [106.4944844, -6.2170937], [106.4940873, -6.2169699], [106.493701, -6.2168364], [106.4934987, -6.2167483], [106.4933069, -6.2166497], [106.4931634, -6.2165857], [106.4930753, -6.2165258], [106.4929005, -6.216407], [106.4928086, -6.2163144], [106.4927021, -6.2162071], [106.4924446, -6.2158658], [106.4920712, -6.2154295], [106.4918974, -6.2152125], [106.4917553, -6.2150699], [106.4915487, -6.2149058], [106.491217, -6.2146809], [106.4911115, -6.2146165], [106.4906408, -6.2143059], [106.4905259, -6.2142304], [106.4901365, -6.2140526], [106.48982, -6.2138979], [106.4893131, -6.2136859], [106.4891079, -6.2135933], [106.4890221, -6.2135633], [106.4884521, -6.213362], [106.4881115, -6.2132406], [106.4878339, -6.2131433], [106.4875495, -6.2130417], [106.4874047, -6.21299], [106.4871995, -6.212894], [106.4867623, -6.2126847], [106.486297, -6.2124234], [106.4860529, -6.2122847], [106.4854266, -6.2119687], [106.4850605, -6.2118208], [106.4848745, -6.2117222], [106.484474, -6.2115713], [106.4842197, -6.2114892], [106.4839366, -6.2114048], [106.4837877, -6.2113502], [106.4836603, -6.2112861]]}}, {"type": "Feature", "properties": {"name": "Jalan Raya Serang", "query": "Jalan Raya Serang, Tangerang", "source": "nominatim_west_fix", "osm_id": 1291706872}, "geometry": {"type": "LineString", "coordinates": [[106.512379, -6.2275851], [106.5122552, -6.2274468], [106.5121682, -6.2273427], [106.5120475, -6.2271687], [106.5119227, -6.2269874], [106.5118983, -6.2269585], [106.5115258, -6.2263861], [106.5113622, -6.2261501], [106.51133, -6.2260923], [106.511216, -6.2259248], [106.5110832, -6.2257329], [106.5109545, -6.2255635], [106.5108539, -6.225409], [106.5107265, -6.2252382], [106.5105817, -6.2250782], [106.5105146, -6.2249903], [106.5102397, -6.2247983], [106.5101324, -6.2247283], [106.5100477, -6.2246837], [106.5096697, -6.2244796], [106.5095732, -6.2244396], [106.5094283, -6.2243756], [106.5092916, -6.224353], [106.5091129, -6.2243384], [106.5084587, -6.224329], [106.5081839, -6.2243416], [106.5079866, -6.2243503], [106.5076999, -6.2243888], [106.5076322, -6.224392], [106.5074348, -6.2244111], [106.5072986, -6.2244263], [106.5067829, -6.2244979], [106.5067419, -6.2245065], [106.506627, -6.2245548]]}}, {"type": "Feature", "properties": {"name": "Jalan Raya Serang", "query": "Jalan Raya Serang, Tangerang", "source": "nominatim_west_fix", "osm_id": 569494548}, "geometry": {"type": "LineString", "coordinates": [[106.5282305, -6.2238867], [106.5273011, -6.2235767], [106.5271242, -6.2235244], [106.526459, -6.2233157]]}}, {"type": "Feature", "properties": {"name": "Jalan Raya Pekayon", "query": "Jalan Raya Mauk, Mauk, Tangerang", "source": "nominatim_west_fix", "osm_id": 1308762990}, "geometry": {"type": "LineString", "coordinates": [[106.5461866, -6.0806673], [106.5463985, -6.0801906], [106.5466312, -6.0796921], [106.5469162, -6.0790624], [106.5471831, -6.0784929], [106.5475287, -6.077761], [106.5476995, -6.0773994], [106.5477854, -6.0772093]]}}, {"type": "Feature", "properties": {"name": "Jalan Raya Rajeg - Mauk", "query": "Jalan Raya Mauk, Rajeg, Tangerang", "source": "nominatim_west_fix", "osm_id": 438967892}, "geometry": {"type": "LineString", "coordinates": [[106.5176096, -6.0871976], [106.5176149, -6.0872489], [106.5176352, -6.087401], [106.5176851, -6.0878485], [106.5177337, -6.088171], [106.517765, -6.088377], [106.5177706, -6.0884234], [106.5177928, -6.0885999], [106.5178263, -6.088784], [106.5178518, -6.0889293], [106.5178972, -6.0891131], [106.5179533, -6.0894145], [106.5179636, -6.0894922], [106.5179672, -6.0895195], [106.5180526, -6.0902191], [106.5181126, -6.0906134], [106.5181637, -6.0909484], [106.5181922, -6.0910973], [106.5183041, -6.0917598], [106.518312, -6.0917929], [106.5183813, -6.0922515], [106.5184247, -6.0926344], [106.5184593, -6.0929779], [106.5184631, -6.093355], [106.5184534, -6.0938044], [106.5184323, -6.0944167], [106.5184214, -6.0948631], [106.5184173, -6.0950414], [106.5183894, -6.0956461], [106.5183344, -6.096595], [106.5183155, -6.0968326], [106.5182999, -6.0970294], [106.5182937, -6.0971075], [106.518279, -6.0972922], [106.5182733, -6.0975383], [106.5182667, -6.097728], [106.5182463, -6.0983175], [106.5182428, -6.0989117], [106.5182438, -6.0991107], [106.5182444, -6.0992439], [106.5182635, -6.0997065], [106.5182759, -6.1003607], [106.5182555, -6.1006137], [106.5182774, -6.1006977], [106.5182788, -6.1012004], [106.5182793, -6.1013658], [106.5182795, -6.1014284], [106.5182803, -6.1017295], [106.5182871, -6.1021364], [106.5183021, -6.1026863], [106.5183155, -6.1031564], [106.5183399, -6.1037357], [106.5183668, -6.1050382], [106.5183688, -6.1051256], [106.5183721, -6.1052409], [106.5183775, -6.1054969], [106.5183949, -6.1059037], [106.518395, -6.1059084], [106.5183962, -6.1060143], [106.5183976, -6.1061277], [106.5184177, -6.1065464], [106.5184465, -6.1067178], [106.5184479, -6.1069718], [106.5184405, -6.1071371], [106.5184392, -6.1073572], [106.5184405, -6.1076439], [106.5184486, -6.1078812], [106.5184499, -6.1079719], [106.5184566, -6.1081493], [106.518454, -6.1082439], [106.5184553, -6.108424], [106.5184513, -6.108632], [106.5184352, -6.108932], [106.5184258, -6.1093894], [106.5184164, -6.1098161], [106.5184003, -6.1102055], [106.5183668, -6.1109136], [106.5183346, -6.111487], [106.5183306, -6.1117417], [106.518293, -6.1120817], [106.5182327, -6.1127458], [106.5181945, -6.1130999], [106.5181851, -6.1132192], [106.5181699, -6.113526], [106.5181603, -6.1139446], [106.5181267, -6.1143953], [106.5180972, -6.114794], [106.518065, -6.1151207], [106.5180261, -6.1153927], [106.5180074, -6.1155421], [106.5179926, -6.1156754], [106.5179631, -6.1159155], [106.5179443, -6.1161128], [106.5179457, -6.1161815], [106.5179671, -6.1163262], [106.517998, -6.1164489], [106.518065, -6.1167355], [106.518112, -6.1169329], [106.5181468, -6.1170702], [106.5182099, -6.1173103], [106.5182059, -6.1175863], [106.518344, -6.117801], [106.5183896, -6.1179943], [106.51843, -6.1181347], [106.5185335, -6.1184943], [106.5185466, -6.1185397], [106.5186466, -6.1188001], [106.5186444, -6.1188481], [106.5187436, -6.1191531], [106.5188402, -6.1194358], [106.5189019, -6.1195692], [106.5189528, -6.1197158], [106.5189904, -6.1197718], [106.5190253, -6.1198172], [106.5190601, -6.1198599], [106.5191165, -6.1199079], [106.5192077, -6.1199772], [106.5194088, -6.1201079], [106.5195429, -6.1201746], [106.5197307, -6.1202892], [106.5200365, -6.1204732], [106.5205514, -6.1207933], [106.5210772, -6.1210813], [106.5214258, -6.121296], [106.5215841, -6.121396], [106.5218925, -6.121564], [106.5221634, -6.121708], [106.5224606, -6.1218377], [106.522855, -6.1220821], [106.5234026, -6.1223948], [106.5235394, -6.1224774], [106.5236293, -6.1225281], [106.52375, -6.1226081], [106.5239324, -6.1227388], [106.5240249, -6.1228121], [106.5241469, -6.1229028], [106.5242194, -6.1229641], [106.524277, -6.1230122], [106.5243602, -6.1230882], [106.5244755, -6.1232082], [106.524623, -6.1233455], [106.5249234, -6.1236442], [106.5250884, -6.1238042], [106.5251447, -6.1238549], [106.5253969, -6.1241082], [106.5255792, -6.1242683], [106.5256463, -6.1243123], [106.5258032, -6.1244696], [106.5259346, -6.1245936], [106.526062, -6.124723], [106.5261224, -6.1248083], [106.5261626, -6.124887], [106.5262029, -6.1249857], [106.5262297, -6.1250817], [106.5262914, -6.1252977], [106.526337, -6.125551], [106.526403, -6.1258996], [106.5264208, -6.1261418], [106.5264316, -6.126496], [106.526451, -6.1266911], [106.5264756, -6.1269823], [106.526522, -6.1273299], [106.5265676, -6.1278046], [106.5266106, -6.1284659], [106.5266186, -6.1287686], [106.5266213, -6.128838], [106.5266387, -6.129106], [106.5266454, -6.1293753], [106.5266575, -6.1296074], [106.5266703, -6.1296879], [106.5266714, -6.129717]]}}, {"type": "Feature", "properties": {"name": "Jalan Raya PLP Curug", "query": "Jalan Raya Curug, Curug, Tangerang", "source": "nominatim_west_fix", "osm_id": 1291662124}, "geometry": {"type": "LineString", "coordinates": [[106.5599549, -6.2228728], [106.5598876, -6.2226407]]}}, {"type": "Feature", "properties": {"name": "Jalan Raya Curug KM 2", "query": "Jalan Raya Curug, Curug, Tangerang", "source": "nominatim_west_fix", "osm_id": 570165459}, "geometry": {"type": "LineString", "coordinates": [[106.5650506, -6.2366289], [106.5649902, -6.2366209], [106.5648869, -6.2366156], [106.5642339, -6.2366369], [106.564203, -6.2366649], [106.5641776, -6.2370717], [106.5641469, -6.2375675]]}}, {"type": "Feature", "properties": {"name": "Jalan Raya Serang", "query": "Jalan Raya Bitung, Curug", "source": "nominatim_west_fix", "osm_id": 744836709}, "geometry": {"type": "LineString", "coordinates": [[106.5642623, -6.2125483], [106.5641014, -6.213071], [106.564045, -6.2132455], [106.5639922, -6.2134633], [106.5638959, -6.2138633], [106.5638297, -6.214128], [106.5638244, -6.2141528], [106.5637524, -6.2144874], [106.5637193, -6.2146326], [106.5635687, -6.2154019], [106.5635517, -6.2154912], [106.5635164, -6.2156951], [106.5634589, -6.2159681], [106.5632925, -6.2166869]]}}, {"type": "Feature", "properties": {"name": "Jalan Havena Raya", "query": "Jalan Raya Bitung, Curug", "source": "nominatim_west_fix", "osm_id": 1425584727}, "geometry": {"type": "LineString", "coordinates": [[106.5651429, -6.2290146], [106.5646017, -6.2295354], [106.5640562, -6.2300383], [106.5635959, -6.2304626]]}}, {"type": "Feature", "properties": {"name": "Jalan Briza Raya", "query": "Jalan Raya Bitung, Curug", "source": "nominatim_west_fix", "osm_id": 1329266574}, "geometry": {"type": "LineString", "coordinates": [[106.5655606, -6.226779], [106.5676079, -6.2269971]]}}, {"type": "Feature", "properties": {"name": "Jalan Briza Raya", "query": "Jalan Raya Bitung, Curug", "source": "nominatim_west_fix", "osm_id": 1515322366}, "geometry": {"type": "LineString", "coordinates": [[106.5642926, -6.2266467], [106.5655606, -6.226779]]}}, {"type": "Feature", "properties": {"name": "Jalan Siliwangi", "query": "Jalan Siliwangi, Pamulang", "source": "nominatim_west_fix", "osm_id": 590899483}, "geometry": {"type": "LineString", "coordinates": [[106.7360526, -6.3442637], [106.7359279, -6.3442294], [106.7346351, -6.3439982], [106.7340802, -6.3438832], [106.7340199, -6.3438759], [106.7328045, -6.3436276], [106.7322347, -6.3435245], [106.731998, -6.3434792], [106.7316343, -6.3433972], [106.7313455, -6.3433312], [106.7304376, -6.3431219], [106.7302644, -6.3430764], [106.7301182, -6.3430281], [106.7291741, -6.3426811], [106.729093, -6.3426497], [106.7286235, -6.342471], [106.7285188, -6.3424311], [106.7284933, -6.3424217], [106.7278278, -6.342181], [106.7274966, -6.3420542], [106.7272639, -6.3419993], [106.7270926, -6.3419746], [106.7268001, -6.3419754], [106.7266764, -6.3419895], [106.7263686, -6.3420252], [106.7256359, -6.3421397]]}}, {"type": "Feature", "properties": {"name": "Jalan Siliwangi", "query": "Jalan Siliwangi, Pamulang", "source": "nominatim_west_fix", "osm_id": 590926845}, "geometry": {"type": "LineString", "coordinates": [[106.7130512, -6.3462515], [106.712974, -6.346179]]}}, {"type": "Feature", "properties": {"name": "Jalan Raya Serpong", "query": "Jalan Raya Serpong, Serpong", "source": "nominatim_west_fix", "osm_id": 398181550}, "geometry": {"type": "LineString", "coordinates": [[106.6638217, -6.2998532], [106.6639155, -6.2996306], [106.6639609, -6.2993081], [106.6640078, -6.2989858], [106.6641043, -6.2982878], [106.6641659, -6.2977416], [106.6641811, -6.2971945], [106.664182, -6.2971635], [106.6641739, -6.2968358], [106.6641451, -6.2965339], [106.6641343, -6.296421], [106.6641241, -6.2963145], [106.6641068, -6.2961746], [106.6640939, -6.2960715], [106.6640751, -6.2959635], [106.6640478, -6.2957683], [106.6639879, -6.2954213], [106.6639745, -6.2953436], [106.6639016, -6.2948904], [106.6638806, -6.2946225], [106.6638829, -6.2943456], [106.663885, -6.2942997], [106.6638936, -6.2941138], [106.6639061, -6.29402], [106.6639231, -6.2939407], [106.6639767, -6.2937702], [106.664008, -6.293696], [106.6640598, -6.2935917], [106.6642126, -6.2933838], [106.6642857, -6.2932788], [106.6643609, -6.2931915], [106.6644274, -6.2930927], [106.6645152, -6.2930246], [106.6646136, -6.2929978], [106.665106, -6.2929637], [106.66602, -6.2929168]]}}, {"type": "Feature", "properties": {"name": "Jalan Raya Serpong", "query": "Jalan Raya Serpong, Serpong", "source": "nominatim_west_fix", "osm_id": 588529254}, "geometry": {"type": "LineString", "coordinates": [[106.6638961, -6.2998538], [106.6637344, -6.3003445], [106.6635412, -6.3008356], [106.6634093, -6.3011275], [106.6633721, -6.3012151], [106.6633328, -6.3013211], [106.6629983, -6.3021549], [106.662941, -6.302277], [106.6628121, -6.3025619], [106.6627488, -6.3026205]]}}, {"type": "Feature", "properties": {"name": "Jalan Raya Serpong", "query": "Jalan Raya Serpong, Serpong", "source": "nominatim_west_fix", "osm_id": 1060205732}, "geometry": {"type": "LineString", "coordinates": [[106.6625663, -6.3047534], [106.6625612, -6.3047994], [106.6625462, -6.3050275], [106.6625147, -6.3051268]]}}, {"type": "Feature", "properties": {"name": "Jalan Pahlawan Seribu", "query": "Jalan Raya Serpong, Serpong", "source": "nominatim_west_fix", "osm_id": 571585514}, "geometry": {"type": "LineString", "coordinates": [[106.6839931, -6.325459], [106.6838824, -6.3250591], [106.6837871, -6.3247633], [106.6836365, -6.324316], [106.6834849, -6.323884], [106.6833361, -6.3235007], [106.6832483, -6.3232978]]}}, {"type": "Feature", "properties": {"name": "Jalan Pahlawan Seribu", "query": "Jalan Raya Serpong, Serpong", "source": "nominatim_west_fix", "osm_id": 1346687579}, "geometry": {"type": "LineString", "coordinates": [[106.666758, -6.2971765], [106.6666406, -6.2967844], [106.6664573, -6.2961623]]}}, {"type": "Feature", "properties": {"name": "Jalan Pahlawan Seribu", "query": "Jalan Raya Serpong, Serpong", "source": "nominatim_west_fix", "osm_id": 1199935204}, "geometry": {"type": "LineString", "coordinates": [[106.6721717, -6.3073494], [106.6719056, -6.3071341], [106.671568, -6.3068609]]}}, {"type": "Feature", "properties": {"name": "Jalan Pahlawan Seribu", "query": "Jalan Raya Serpong, Serpong", "source": "nominatim_west_fix", "osm_id": 1199935214}, "geometry": {"type": "LineString", "coordinates": [[106.667973, -6.3004993], [106.6679227, -6.3002514], [106.6678312, -6.2998778], [106.6678149, -6.2998222]]}}, {"type": "Feature", "properties": {"name": "Jalan Pahlawan Seribu", "query": "Jalan Raya Serpong, Serpong", "source": "nominatim_west_fix", "osm_id": 1346680822}, "geometry": {"type": "LineString", "coordinates": [[106.6676687, -6.2993956], [106.6676097, -6.2992401], [106.6674718, -6.2988623]]}}, {"type": "Feature", "properties": {"name": "Jalan Raya Serpong", "query": "Jalan Raya Serpong, Tangerang Selatan", "source": "nominatim_west_fix", "osm_id": 168328149}, "geometry": {"type": "LineString", "coordinates": [[106.6660474, -6.2930966], [106.6651879, -6.2930918], [106.6651654, -6.2930917], [106.6651192, -6.2931028], [106.6650848, -6.293115], [106.6648968, -6.2931938], [106.6647634, -6.2932498], [106.6645014, -6.2934055], [106.6643242, -6.2935053], [106.6642293, -6.2935867], [106.6641607, -6.2936651], [106.66411, -6.2937334], [106.6640723, -6.2938143], [106.6640429, -6.2939093], [106.6640218, -6.2939931], [106.6640107, -6.2940653], [106.6640027, -6.2941693], [106.6639937, -6.2942963], [106.6639906, -6.2943812], [106.6639906, -6.2945678], [106.663999, -6.2947464], [106.6640004, -6.2947757], [106.6640865, -6.2954066], [106.664196, -6.2962083], [106.6642381, -6.2966728], [106.6642544, -6.2970624], [106.6642572, -6.297119], [106.6642581, -6.297167], [106.6642573, -6.2971946], [106.664248, -6.2975318], [106.6642459, -6.2976065], [106.6642421, -6.2977425], [106.6641971, -6.2982183], [106.6641894, -6.2983015], [106.6641522, -6.2986615], [106.6641425, -6.2987408], [106.6641225, -6.298928], [106.6641133, -6.2990136], [106.6640784, -6.2992002]]}}, {"type": "Feature", "properties": {"name": "Jalan Raya Serpong", "query": "Jalan Raya Serpong, Tangerang Selatan", "source": "nominatim_west_fix", "osm_id": 818749259}, "geometry": {"type": "LineString", "coordinates": [[106.6613016, -6.3105863], [106.6611937, -6.3107645], [106.6611399, -6.3108351], [106.6610655, -6.3109203]]}}, {"type": "Feature", "properties": {"name": "Jalan Raya Serpong", "query": "Jalan Raya Serpong, Tangerang Selatan", "source": "nominatim_west_fix", "osm_id": 762357228}, "geometry": {"type": "LineString", "coordinates": [[106.6382603, -6.2262393], [106.6384556, -6.2264586], [106.6385236, -6.2265371], [106.6389581, -6.227018], [106.6393006, -6.2273728], [106.6394592, -6.2275726], [106.6396902, -6.2279001], [106.6398671, -6.2281511], [106.6399963, -6.2283461], [106.6402674, -6.2287224], [106.6404671, -6.2290231], [106.6404852, -6.2290531], [106.6406669, -6.229324], [106.6407096, -6.2293867], [106.6409859, -6.2297926], [106.6410622, -6.2299151], [106.641174, -6.2300882], [106.6411994, -6.2301277]]}}, {"type": "Feature", "properties": {"name": "Jalan Pahlawan Seribu", "query": "Jalan Raya Serpong, Tangerang Selatan", "source": "nominatim_west_fix", "osm_id": 1346687580}, "geometry": {"type": "LineString", "coordinates": [[106.6674718, -6.2988623], [106.6673542, -6.2985803], [106.6672197, -6.2983131], [106.6671002, -6.2980199], [106.6670684, -6.297943], [106.6670265, -6.2978523], [106.6669786, -6.2977457], [106.6668715, -6.2974692], [106.666758, -6.2971765]]}}, {"type": "Feature", "properties": {"name": "Jalan Pahlawan Seribu", "query": "Jalan Raya Serpong, Tangerang Selatan", "source": "nominatim_west_fix", "osm_id": 564196371}, "geometry": {"type": "LineString", "coordinates": [[106.6844456, -6.3271295], [106.6841597, -6.3262575], [106.6841013, -6.3260622], [106.6840766, -6.3259869], [106.6839457, -6.3255773], [106.683958, -6.3255292], [106.6839931, -6.325459]]}}, {"type": "Feature", "properties": {"name": "Jalan Pahlawan Seribu", "query": "Jalan Raya Serpong, Tangerang Selatan", "source": "nominatim_west_fix", "osm_id": 1193537807}, "geometry": {"type": "LineString", "coordinates": [[106.6799691, -6.3175309], [106.6797582, -6.3172773], [106.6796559, -6.3171702], [106.6795161, -6.3170297], [106.6793852, -6.3169202], [106.679248, -6.3168206], [106.6791307, -6.316748]]}}, {"type": "Feature", "properties": {"name": "Jalan BSD Grand Boulevard", "query": "Jalan BSD Grand Boulevard, BSD", "source": "nominatim_west_fix", "osm_id": 766136205}, "geometry": {"type": "LineString", "coordinates": [[106.6671844, -6.299591], [106.6671536, -6.2995936], [106.6657112, -6.2997093], [106.6655993, -6.2997185], [106.6650178, -6.2997559], [106.6642028, -6.2998276], [106.6641364, -6.2998304], [106.6638961, -6.2998538]]}}, {"type": "Feature", "properties": {"name": "Jalan BSD Grand Boulevard", "query": "Jalan BSD Grand Boulevard, BSD", "source": "nominatim_west_fix", "osm_id": 766156745}, "geometry": {"type": "LineString", "coordinates": [[106.6695285, -6.2992066], [106.6696411, -6.299195], [106.6701168, -6.2991686], [106.6703784, -6.2991541], [106.670636, -6.2991505], [106.6709329, -6.2991472], [106.6710195, -6.2991393]]}}, {"type": "Feature", "properties": {"name": "Jalan BSD Grand Boulevard", "query": "Jalan BSD Grand Boulevard, BSD", "source": "nominatim_west_fix", "osm_id": 754707683}, "geometry": {"type": "LineString", "coordinates": [[106.6795706, -6.2945865], [106.6792456, -6.2947781]]}}, {"type": "Feature", "properties": {"name": "Jalan Letnan Sutopo", "query": "Jalan Letnan Sutopo, Serpong", "source": "nominatim_west_fix", "osm_id": 28820195}, "geometry": {"type": "LineString", "coordinates": [[106.6802317, -6.2942176], [106.6803053, -6.2943615], [106.6803286, -6.2944011], [106.6804406, -6.2945904], [106.6804738, -6.2946499], [106.6806056, -6.2948871], [106.6807863, -6.2952235], [106.6810032, -6.2956033], [106.6811625, -6.2958823], [106.6812991, -6.2961615], [106.6814397, -6.2964714], [106.6815443, -6.2967286], [106.681653, -6.2970392], [106.681767, -6.2973285], [106.6818367, -6.2974858], [106.6818984, -6.2976018], [106.6825516, -6.2988294], [106.6827349, -6.2991748], [106.6832322, -6.3000576], [106.6834775, -6.3004931], [106.6836983, -6.3008901], [106.6837269, -6.3009415], [106.6837833, -6.3010457]]}}, {"type": "Feature", "properties": {"name": "Jalan Letnan Sutopo", "query": "Jalan Letnan Sutopo, Serpong", "source": "nominatim_west_fix", "osm_id": 357811921}, "geometry": {"type": "LineString", "coordinates": [[106.6893672, -6.3118251], [106.6892984, -6.3116868], [106.6891236, -6.3111224], [106.6889644, -6.3107103], [106.6889246, -6.3106073], [106.6889191, -6.3105931], [106.6888654, -6.3104465], [106.688692, -6.3099245], [106.688373, -6.3092935]]}}, {"type": "Feature", "properties": {"name": "Jalan Letnan Sutopo", "query": "Jalan Letnan Sutopo, Serpong", "source": "nominatim_west_fix", "osm_id": 22232337}, "geometry": {"type": "LineString", "coordinates": [[106.687846, -6.3083898], [106.6878325, -6.3083711], [106.6876783, -6.3080859], [106.6876202, -6.3080157], [106.6873001, -6.3076193], [106.6870533, -6.3073527], [106.6869139, -6.3071501], [106.6867636, -6.3069048], [106.6865748, -6.3065468]]}}, {"type": "Feature", "properties": {"name": "Jalan Letnan Sutopo", "query": "Jalan Letnan Sutopo, Serpong", "source": "nominatim_west_fix", "osm_id": 692969495}, "geometry": {"type": "LineString", "coordinates": [[106.6840501, -6.3015197], [106.6844268, -6.3021686], [106.6846072, -6.3024793]]}}, {"type": "Feature", "properties": {"name": "Jalan Letnan Sutopo", "query": "Jalan Letnan Sutopo, Serpong", "source": "nominatim_west_fix", "osm_id": 55679066}, "geometry": {"type": "LineString", "coordinates": [[106.6891733, -6.310684], [106.6892022, -6.3108559], [106.6892597, -6.3111971]]}}, {"type": "Feature", "properties": {"name": "Jalan Tekno Widya", "query": "Jalan Tekno Widya, BSD", "source": "nominatim_west_fix", "osm_id": 57847255}, "geometry": {"type": "LineString", "coordinates": [[106.6785254, -6.3312868], [106.6791074, -6.3312303], [106.6794017, -6.3311637], [106.6795311, -6.3311129], [106.6798262, -6.3309423], [106.6799925, -6.3308144], [106.6801965, -6.3305101], [106.6802903, -6.3302572], [106.6803386, -6.3299373], [106.6803655, -6.3297584], [106.6803973, -6.3295986], [106.6804218, -6.3294758], [106.680529, -6.3292281], [106.6806899, -6.3289536], [106.6809288, -6.3286973], [106.6811754, -6.3285217], [106.6815296, -6.3283828], [106.681605, -6.32836], [106.6817225, -6.3283275], [106.6818191, -6.3283058]]}}, {"type": "Feature", "properties": {"name": "Jalan Tekno Widya", "query": "Jalan Tekno Widya, BSD", "source": "nominatim_west_fix", "osm_id": 563069088}, "geometry": {"type": "LineString", "coordinates": [[106.6844943, -6.3278902], [106.684122, -6.3279621], [106.6829542, -6.3281927], [106.6827846, -6.3282321], [106.682186, -6.3283718]]}}, {"type": "Feature", "properties": {"name": "Jalan Tekno Widya", "query": "Jalan Tekno Widya, BSD", "source": "nominatim_west_fix", "osm_id": 1545305366}, "geometry": {"type": "LineString", "coordinates": [[106.6785336, -6.3314192], [106.6774573, -6.3314888], [106.6770508, -6.3315262], [106.6769479, -6.3315256], [106.6767962, -6.3315233], [106.6740259, -6.3313341]]}}, {"type": "Feature", "properties": {"name": "Jalan Tekno Widya", "query": "Jalan Tekno Widya, BSD", "source": "nominatim_west_fix", "osm_id": 563069085}, "geometry": {"type": "LineString", "coordinates": [[106.682186, -6.3283718], [106.6818354, -6.3284467]]}}, {"type": "Feature", "properties": {"name": "Jalan Tekno Widya", "query": "Jalan Tekno Widya, BSD", "source": "nominatim_west_fix", "osm_id": 563069056}, "geometry": {"type": "LineString", "coordinates": [[106.6843856, -6.3277341], [106.6844394, -6.3276901], [106.6844877, -6.3276211], [106.6845138, -6.3275393], [106.6845313, -6.3274048]]}}, {"type": "Feature", "properties": {"name": "Jalan Tekno Widya", "query": "Jalan Tekno Widya, BSD", "source": "nominatim_west_fix", "osm_id": 1545305365}, "geometry": {"type": "LineString", "coordinates": [[106.6847904, -6.3277323], [106.6844943, -6.3278902]]}}, {"type": "Feature", "properties": {"name": "Jalan BSD Raya Utama", "query": "Jalan BSD Raya Utama, BSD", "source": "nominatim_west_fix", "osm_id": 359405287}, "geometry": {"type": "LineString", "coordinates": [[106.6348681, -6.2766571], [106.6351422, -6.2770926], [106.6353035, -6.2773899], [106.6354228, -6.2776446], [106.6355267, -6.2778884], [106.6355481, -6.2779428], [106.6356022, -6.2780917], [106.6356503, -6.2782242], [106.6358274, -6.2787187], [106.6360817, -6.2794287], [106.6361757, -6.2796912], [106.6362542, -6.2799367], [106.6362775, -6.2800071], [106.6364743, -6.2806254], [106.6365351, -6.2808723], [106.636644, -6.2813147], [106.6367866, -6.2818862], [106.6368046, -6.2819583], [106.6368306, -6.2820626], [106.6368758, -6.2821821], [106.6369595, -6.2823683], [106.6370724, -6.2825547], [106.6372832, -6.2828294], [106.6375103, -6.2831119], [106.637577, -6.2831948], [106.6380107, -6.2837574], [106.6382922, -6.2841226], [106.6383417, -6.2841969], [106.6385966, -6.2845798], [106.6387599, -6.2849506], [106.6388758, -6.2852673], [106.6389706, -6.2855853]]}}, {"type": "Feature", "properties": {"name": "Jalan BSD Raya Utama", "query": "Jalan BSD Raya Utama, BSD", "source": "nominatim_west_fix", "osm_id": 894425582}, "geometry": {"type": "LineString", "coordinates": [[106.6437159, -6.314773], [106.6437735, -6.3149613], [106.6438199, -6.3151472], [106.6438727, -6.3154612], [106.6438982, -6.3156184], [106.6439104, -6.3157779], [106.6439037, -6.3163423], [106.6439029, -6.3164142], [106.6439014, -6.3165379], [106.6439152, -6.3168209], [106.6439188, -6.3168938], [106.6439773, -6.3172752], [106.6439832, -6.3173027], [106.6440953, -6.3178228], [106.6441387, -6.3180242]]}}, {"type": "Feature", "properties": {"name": "Jalan BSD Raya Utama", "query": "Jalan BSD Raya Utama, BSD", "source": "nominatim_west_fix", "osm_id": 1498353274}, "geometry": {"type": "LineString", "coordinates": [[106.6412256, -6.2996619], [106.6412723, -6.2998159], [106.641322, -6.2999736], [106.641429, -6.3002517], [106.6414672, -6.300351], [106.641539, -6.3005236], [106.6417073, -6.3009265], [106.6417417, -6.3010089]]}}, {"type": "Feature", "properties": {"name": "Jalan BSD Raya Utama", "query": "Jalan BSD Raya Utama, BSD", "source": "nominatim_west_fix", "osm_id": 978400260}, "geometry": {"type": "LineString", "coordinates": [[106.6417417, -6.3010089], [106.6417919, -6.3011343], [106.6418326, -6.3012667], [106.6418775, -6.30145], [106.6419073, -6.3015897], [106.6419373, -6.3017302], [106.6419863, -6.3020798], [106.6419993, -6.3024173], [106.6419958, -6.3025719], [106.6419801, -6.3027262], [106.6419656, -6.3028702], [106.641959, -6.3029153], [106.6419442, -6.3030556], [106.6419345, -6.3031048], [106.6418949, -6.3032586]]}}, {"type": "Feature", "properties": {"name": "Jalan Ciater Raya", "query": "Jalan Ciater Raya, Serpong", "source": "nominatim_west_fix", "osm_id": 564196708}, "geometry": {"type": "LineString", "coordinates": [[106.6892597, -6.3111971], [106.6894615, -6.3117337], [106.6895344, -6.3118136], [106.6896169, -6.3118461], [106.6897246, -6.3118385], [106.6897513, -6.311833], [106.6901123, -6.3117564], [106.6901757, -6.3117535], [106.6902369, -6.3117577], [106.6902892, -6.31177], [106.6903411, -6.3117936], [106.6903829, -6.3118235], [106.6904178, -6.3118628], [106.6904387, -6.3118928], [106.6904756, -6.3119613], [106.6907444, -6.3124605], [106.6907886, -6.312534], [106.6908465, -6.3126088], [106.6908835, -6.3126425], [106.6908959, -6.3126539], [106.6909591, -6.3127036], [106.6910521, -6.3127606], [106.6911654, -6.3128152], [106.6912886, -6.3128715], [106.6915838, -6.3129918], [106.6917019, -6.3130245], [106.6918405, -6.3130505], [106.6922815, -6.3130885], [106.6923878, -6.3131155], [106.692882, -6.3132844], [106.6929885, -6.3133144], [106.6930052, -6.313318], [106.6930979, -6.3133378], [106.693214, -6.3133532], [106.6937892, -6.3134171], [106.6939314, -6.3134365], [106.6940957, -6.3134646], [106.6941434, -6.313476], [106.6945756, -6.3135792], [106.6948615, -6.3136377], [106.6951939, -6.3136976], [106.6955535, -6.3137616], [106.6959317, -6.3138283], [106.6964052, -6.3139103], [106.6965586, -6.3139369], [106.697344, -6.3140699], [106.6980684, -6.3141923], [106.6985459, -6.3142666], [106.6986419, -6.3142813], [106.6993561, -6.3143903], [106.6994708, -6.3144105], [106.6998123, -6.3144889], [106.6999009, -6.3145092], [106.7000386, -6.3145479], [106.7001508, -6.3145794], [106.7002931, -6.3146214], [106.7008403, -6.3147731], [106.7010847, -6.3148397], [106.7012055, -6.3148797], [106.7013603, -6.3149253], [106.7015113, -6.3149697], [106.7019234, -6.3150836]]}}, {"type": "Feature", "properties": {"name": "Jalan Ciater Raya", "query": "Jalan Ciater Raya, Serpong", "source": "nominatim_west_fix", "osm_id": 749681186}, "geometry": {"type": "LineString", "coordinates": [[106.7000717, -6.314672], [106.699481, -6.3145241], [106.6992041, -6.3144705], [106.6985299, -6.3143572], [106.6983477, -6.3143266], [106.6980992, -6.3142609], [106.6970143, -6.3141075], [106.6965555, -6.3140328], [106.6963908, -6.314006], [106.6963371, -6.3139962], [106.6951768, -6.3137922], [106.6948461, -6.313735], [106.6945826, -6.3136776], [106.6941568, -6.313577], [106.694125, -6.3135709], [106.6938369, -6.3135137], [106.6937103, -6.3134947], [106.6933154, -6.3134443], [106.6930517, -6.3134191], [106.6929493, -6.3133993], [106.6928592, -6.3133739], [106.6924414, -6.3132259], [106.6923632, -6.3131978], [106.6922592, -6.3131737]]}}, {"type": "Feature", "properties": {"name": "Jalan Ciater Raya", "query": "Jalan Ciater Raya, Serpong", "source": "nominatim_west_fix", "osm_id": 590038953}, "geometry": {"type": "LineString", "coordinates": [[106.7019234, -6.3150836], [106.7021892, -6.3151557], [106.7023955, -6.3152116], [106.7033909, -6.3155185], [106.7036046, -6.3155685], [106.7038144, -6.3156176], [106.7040934, -6.3156619], [106.7043259, -6.3156723], [106.704558, -6.3156581], [106.7048906, -6.3156302], [106.7049509, -6.3156252], [106.7050801, -6.3156223], [106.7053999, -6.3156256]]}}, {"type": "Feature", "properties": {"name": "Jalan Ciater Raya", "query": "Jalan Ciater Raya, Serpong", "source": "nominatim_west_fix", "osm_id": 749681182}, "geometry": {"type": "LineString", "coordinates": [[106.6922592, -6.3131737], [106.6921815, -6.3131628]]}}, {"type": "Feature", "properties": {"name": "Jalan Ciater Raya", "query": "Jalan Ciater Raya, Serpong", "source": "nominatim_west_fix", "osm_id": 569249181}, "geometry": {"type": "LineString", "coordinates": [[106.7053999, -6.3156256], [106.7056015, -6.3156312]]}}, {"type": "Feature", "properties": {"name": "Jalan Buaran Raya", "query": "Jalan Buaran Raya, Serpong", "source": "nominatim_west_fix", "osm_id": 696084202}, "geometry": {"type": "LineString", "coordinates": [[106.6859901, -6.3315072], [106.6860199, -6.331578], [106.6861298, -6.3318505], [106.6861486, -6.331896], [106.6862347, -6.3321112], [106.6863669, -6.3324389], [106.6863978, -6.3325188], [106.6866043, -6.3330373], [106.6867716, -6.3334379], [106.6867876, -6.3334793], [106.6868521, -6.3336633], [106.6869311, -6.3338989], [106.6869758, -6.3340909], [106.6869881, -6.3342088], [106.6869996, -6.3343295], [106.6870005, -6.3346185], [106.6869529, -6.3354125], [106.6869436, -6.3358569], [106.6869405, -6.3360077], [106.6868909, -6.3366418], [106.6868873, -6.3366878], [106.6868683, -6.3368738], [106.686843, -6.3372243], [106.6868288, -6.3374135], [106.6867869, -6.3379452], [106.6867748, -6.338261], [106.6867695, -6.338637], [106.6867655, -6.3388756], [106.6867609, -6.3391474], [106.6867689, -6.339714], [106.6867684, -6.3398017], [106.6867857, -6.3402257], [106.6867954, -6.3404348], [106.6868522, -6.3408511], [106.6868927, -6.3411434], [106.686948, -6.3414906], [106.6870067, -6.3419172], [106.687177, -6.3428962], [106.6871868, -6.3429695], [106.6871949, -6.3430099], [106.6873231, -6.3437282], [106.6873925, -6.3441232], [106.6874073, -6.3442327], [106.6874579, -6.344608], [106.687469, -6.3446944], [106.6875159, -6.3449993], [106.6875234, -6.3450478], [106.6875947, -6.345554], [106.6876331, -6.3458311]]}}, {"type": "Feature", "properties": {"name": "Jalan Buaran Raya", "query": "Jalan Buaran Raya, Serpong", "source": "nominatim_west_fix", "osm_id": 780863194}, "geometry": {"type": "LineString", "coordinates": [[106.6859901, -6.3315072], [106.6858864, -6.3311658], [106.6855879, -6.3302831], [106.6855499, -6.3301729], [106.6852723, -6.3293718], [106.6849291, -6.3283141], [106.6849274, -6.3283091], [106.6848035, -6.3279398]]}}, {"type": "Feature", "properties": {"name": "Jalan Buaran Raya", "query": "Jalan Buaran Raya, Serpong", "source": "nominatim_west_fix", "osm_id": 975861336}, "geometry": {"type": "LineString", "coordinates": [[106.6877433, -6.3458612], [106.6879253, -6.3458933], [106.6880525, -6.345896], [106.6881383, -6.3459084], [106.6881848, -6.34592], [106.6882536, -6.3459565], [106.6883522, -6.3460352], [106.6884121, -6.3461036], [106.6884366, -6.3461644], [106.6884462, -6.3462309], [106.6884513, -6.3467799], [106.6884472, -6.3469262]]}}, {"type": "Feature", "properties": {"name": "Jalan Imam Bonjol", "query": "Jalan Imam Bonjol, Kota Tangerang", "source": "nominatim_west_fix", "osm_id": 588525590}, "geometry": {"type": "LineString", "coordinates": [[106.6206194, -6.2009307], [106.6205611, -6.2012527], [106.6205382, -6.2014041], [106.6204926, -6.2016828], [106.6203645, -6.2023407], [106.620329, -6.2025661], [106.6202693, -6.202926], [106.6202266, -6.2032207], [106.6201653, -6.2036253], [106.6201356, -6.2037918], [106.6201271, -6.2038393], [106.620105, -6.2039506], [106.6200111, -6.2043506], [106.6199373, -6.2047146], [106.6198622, -6.2050459], [106.6197984, -6.2053333], [106.6195735, -6.2061839], [106.6194879, -6.2065365], [106.6194579, -6.2066536], [106.6193431, -6.2070596], [106.6193059, -6.2072003], [106.6192485, -6.2074123], [106.6192259, -6.2075124], [106.6192118, -6.207593], [106.6191957, -6.2077644], [106.6191881, -6.208044], [106.6191908, -6.208248], [106.6191961, -6.2084482], [106.6192082, -6.2087118], [106.619216, -6.2090796], [106.6192174, -6.2093664], [106.6192315, -6.209663]]}}, {"type": "Feature", "properties": {"name": "Jalan Imam Bonjol", "query": "Jalan Imam Bonjol, Kota Tangerang", "source": "nominatim_west_fix", "osm_id": 40720913}, "geometry": {"type": "LineString", "coordinates": [[106.6193971, -6.2110389], [106.6194049, -6.2112881], [106.6194063, -6.2116634], [106.6194037, -6.2124551], [106.6192956, -6.2136033], [106.6192279, -6.2142272], [106.6191949, -6.214486], [106.6191805, -6.2145986], [106.6191657, -6.2146879], [106.6191564, -6.214756], [106.6191472, -6.2148388], [106.6190992, -6.2152725], [106.6190788, -6.2154655], [106.6190569, -6.2156018], [106.6190234, -6.2158017], [106.6190065, -6.2159143], [106.6189854, -6.2160522], [106.6189673, -6.2162117], [106.618892, -6.2167279], [106.6187995, -6.2171395], [106.6187746, -6.2172533], [106.6187609, -6.2173006], [106.6187245, -6.2174348], [106.6186291, -6.2176949], [106.6185703, -6.2178333], [106.6184947, -6.2179706], [106.6182388, -6.2184353], [106.6181929, -6.2185033], [106.6181482, -6.2185694]]}}, {"type": "Feature", "properties": {"name": "Jalan Imam Bonjol", "query": "Jalan Imam Bonjol, Kota Tangerang", "source": "nominatim_west_fix", "osm_id": 192223861}, "geometry": {"type": "LineString", "coordinates": [[106.620225, -6.2222778], [106.6200479, -6.2223771], [106.619913, -6.2224462], [106.6198656, -6.2224678], [106.6197652, -6.2224994], [106.6194085, -6.2225527], [106.6191001, -6.2225741], [106.6187903, -6.2225767], [106.6186816, -6.2225741], [106.6181774, -6.2225421], [106.6177788, -6.2224868], [106.6172547, -6.2224141], [106.6167759, -6.2223045]]}}, {"type": "Feature", "properties": {"name": "Jalan Imam Bonjol", "query": "Jalan Imam Bonjol, Kota Tangerang", "source": "nominatim_west_fix", "osm_id": 674842519}, "geometry": {"type": "LineString", "coordinates": [[106.6263401, -6.1775175], [106.6263569, -6.177545], [106.6264315, -6.1778256], [106.6265009, -6.178241]]}}, {"type": "Feature", "properties": {"name": "Jalan Imam Bonjol", "query": "Jalan Imam Bonjol, Kota Tangerang", "source": "nominatim_west_fix", "osm_id": 1096384981}, "geometry": {"type": "LineString", "coordinates": [[106.6231082, -6.1953858], [106.6231191, -6.1953671], [106.6232273, -6.1951824]]}}]}