{"type": "FeatureCollection", "features": [{"type": "Feature", "properties": {"name": "Jalan Kelapa Dua Raya", "query": "Jalan Kelapa Dua Raya, Depok", "source": "nominatim_mrt_east", "osm_id": 173903185}, "geometry": {"type": "LineString", "coordinates": [[106.843081, -6.363635], [106.8430831, -6.3637116], [106.8430931, -6.3640548], [106.8430945, -6.3641254], [106.8430871, -6.364506], [106.8430877, -6.3645893], [106.8430897, -6.3647326], [106.8430911, -6.3647932], [106.8430938, -6.3648712], [106.8431012, -6.3649645], [106.8431119, -6.3650771], [106.8431287, -6.3652324], [106.8431407, -6.3653277], [106.8431555, -6.365457], [106.8431675, -6.3655709], [106.8431736, -6.3656822], [106.8431722, -6.3657662], [106.8431696, -6.3658841], [106.8431582, -6.3660354], [106.843138, -6.366154], [106.8431139, -6.366282], [106.843071, -6.3664919], [106.8430078, -6.3668971], [106.8429516, -6.3671603], [106.8429382, -6.367199], [106.842896, -6.3673176], [106.8428611, -6.3674102], [106.8428349, -6.3674762], [106.8428123, -6.3675401], [106.8428021, -6.3675688], [106.8427833, -6.3676288], [106.8427625, -6.3677441], [106.8427531, -6.3678027], [106.8427442, -6.367918], [106.8427159, -6.3685226], [106.8427048, -6.368789], [106.8427011, -6.368881], [106.8426814, -6.3693761], [106.8426754, -6.3695281], [106.8426543, -6.370003], [106.8426498, -6.3701019], [106.8426311, -6.3705857], [106.8426315, -6.3705993], [106.8426219, -6.3708485], [106.8426085, -6.3711979], [106.8425904, -6.3716683], [106.8425627, -6.3724015], [106.8425663, -6.3724468], [106.8425728, -6.3724834], [106.842594, -6.3725247], [106.8426105, -6.3725432], [106.84263, -6.3725584], [106.8426592, -6.3725729], [106.8426887, -6.3725801], [106.8427263, -6.3725801], [106.843071, -6.3725724], [106.8436118, -6.3725594], [106.8436453, -6.3725586], [106.8437523, -6.3725561], [106.8440505, -6.3725489], [106.844307, -6.3725428], [106.8446119, -6.3725354], [106.8447165, -6.3725329], [106.8447775, -6.3725315], [106.8454099, -6.3725163], [106.8455923, -6.3725063], [106.8458974, -6.3724909], [106.8460948, -6.3724872]]}}, {"type": "Feature", "properties": {"name": "Jalan Kelapa Dua Raya", "query": "Jalan Kelapa Dua Raya, Depok", "source": "nominatim_mrt_east", "osm_id": 1232233411}, "geometry": {"type": "LineString", "coordinates": [[106.8428638, -6.3548555], [106.8428584, -6.3549381], [106.8428495, -6.3551256], [106.8428474, -6.3551846], [106.842846, -6.3557861], [106.8428598, -6.3560957], [106.8428671, -6.356183], [106.8428839, -6.3563109], [106.8428899, -6.3564356], [106.8428799, -6.3565855], [106.8428752, -6.3566781], [106.8428712, -6.3567861], [106.8428727, -6.3568441], [106.8428745, -6.3569147], [106.8429067, -6.3571053], [106.8430046, -6.3575958], [106.8430147, -6.3576565], [106.8430254, -6.3577198], [106.8430354, -6.3577944], [106.8430415, -6.3578711], [106.843077, -6.3582962], [106.8431143, -6.3588214], [106.8431313, -6.3589993], [106.8431327, -6.35908], [106.84313, -6.3591526], [106.8431219, -6.3593679], [106.8431066, -6.359635], [106.8431012, -6.359883], [106.8431032, -6.3601122], [106.8431037, -6.3601986], [106.8431042, -6.3603042], [106.8430978, -6.3604268], [106.8430911, -6.3605401], [106.843073, -6.36072], [106.8430596, -6.3608466], [106.8430482, -6.3609706], [106.8430375, -6.3610972], [106.8430314, -6.3611825], [106.8430274, -6.3612618], [106.8430247, -6.3613685], [106.8430261, -6.3614804], [106.8430287, -6.3616084], [106.8430292, -6.3616271], [106.8430328, -6.3617683], [106.8430395, -6.3618956], [106.8430703, -6.3624034], [106.8430763, -6.3624927], [106.843079, -6.362592], [106.8430777, -6.362726], [106.843073, -6.3628373], [106.8430707, -6.3629115], [106.8430696, -6.3629459], [106.8430723, -6.3630758], [106.8430717, -6.3631731], [106.843079, -6.363475], [106.843079, -6.3635437]]}}, {"type": "Feature", "properties": {"name": "Jalan Kelapa Dua Raya", "query": "Jalan Kelapa Dua Raya, Depok", "source": "nominatim_mrt_east", "osm_id": 1232233410}, "geometry": {"type": "LineString", "coordinates": [[106.843079, -6.3635437], [106.843081, -6.363635]]}}, {"type": "Feature", "properties": {"name": "Jalan Akses UI", "query": "Jalan Akses UI, Depok", "source": "nominatim_mrt_east", "osm_id": 1245626664}, "geometry": {"type": "LineString", "coordinates": [[106.8626578, -6.3592297], [106.8626609, -6.3592412], [106.8626625, -6.3592593], [106.8626477, -6.3594832], [106.8626437, -6.3596198], [106.8626397, -6.3597267]]}}, {"type": "Feature", "properties": {"name": "Jalan Akses UI", "query": "Jalan Akses UI, Depok", "source": "nominatim_mrt_east", "osm_id": 593562222}, "geometry": {"type": "LineString", "coordinates": [[106.8626444, -6.359869], [106.8626404, -6.3597577]]}}, {"type": "Feature", "properties": {"name": "Jalan Komjen Pol. M. Jasin", "query": "Jalan Komjen Pol M Jasin, Depok", "source": "nominatim_mrt_east", "osm_id": 553193760}, "geometry": {"type": "LineString", "coordinates": [[106.8590469, -6.3576271], [106.8589074, -6.3575738], [106.8586915, -6.3574692], [106.858514, -6.3573795], [106.8581678, -6.3572046], [106.8579643, -6.3571013], [106.8573504, -6.3567758], [106.8572545, -6.3567255], [106.8564784, -6.3562804], [106.8563427, -6.3562022], [106.856244, -6.3561522], [106.8561452, -6.3561074], [106.8560585, -6.3560714], [106.8559644, -6.3560358], [106.8558218, -6.3559908], [106.8557062, -6.3559584], [106.855548, -6.3559178], [106.8553699, -6.3558771], [106.8551945, -6.3558421], [106.8549612, -6.3557951], [106.854697, -6.3557445], [106.8542193, -6.3556715], [106.8540727, -6.3556491], [106.8538365, -6.3556131], [106.8535276, -6.3555659], [106.8533532, -6.3555339], [106.8532029, -6.355505], [106.8530527, -6.3554792]]}}, {"type": "Feature", "properties": {"name": "Jalan Komjen Pol. M. Jasin", "query": "Jalan Komjen Pol M Jasin, Depok", "source": "nominatim_mrt_east", "osm_id": 506583931}, "geometry": {"type": "LineString", "coordinates": [[106.8591803, -6.3576768], [106.8590469, -6.3576271]]}}, {"type": "Feature", "properties": {"name": "Jalan RA. Fadillah", "query": "Jalan RA Fadillah, Jakarta Timur", "source": "nominatim_mrt_east", "osm_id": 155964688}, "geometry": {"type": "LineString", "coordinates": [[106.8555023, -6.3175271], [106.8546842, -6.3177787], [106.8545093, -6.3178325], [106.8541195, -6.317944], [106.8538152, -6.3180348], [106.8536661, -6.3180695], [106.8532332, -6.3181704], [106.8530689, -6.3182111], [106.8529234, -6.3182533], [106.8525769, -6.3183688], [106.8524706, -6.3184139], [106.8523919, -6.318457], [106.8521108, -6.3186702], [106.8517951, -6.3189096], [106.8513932, -6.3192527], [106.8510278, -6.3195767], [106.850695, -6.3198764], [106.850529, -6.320026], [106.850489, -6.320062], [106.8503458, -6.320191], [106.8501476, -6.3203695], [106.8500942, -6.3204183], [106.8499814, -6.3205197], [106.849556, -6.3209024], [106.8495375, -6.3209217], [106.8491179, -6.3213002], [106.8486419, -6.3217315]]}}, {"type": "Feature", "properties": {"name": "Jalan RA. Fadillah", "query": "Jalan RA Fadillah, Jakarta Timur", "source": "nominatim_mrt_east", "osm_id": 509784194}, "geometry": {"type": "LineString", "coordinates": [[106.8485696, -6.3216563], [106.8494614, -6.3208366], [106.8500182, -6.3203331], [106.8506114, -6.3197845], [106.8509104, -6.3195086], [106.8509504, -6.3194721], [106.8513025, -6.319153], [106.8515901, -6.3188911], [106.8517533, -6.3187562], [106.8519491, -6.3186096], [106.8521328, -6.318479], [106.8523372, -6.3183471], [106.8524466, -6.318295], [106.8525754, -6.3182431], [106.8528751, -6.3181324], [106.8531427, -6.3180531], [106.8534109, -6.3179805], [106.8537683, -6.3178938], [106.854461, -6.3176959], [106.8549619, -6.3175393], [106.8551838, -6.3174653]]}}, {"type": "Feature", "properties": {"name": "Jalan RA. Fadillah", "query": "Jalan RA Fadillah, Jakarta Timur", "source": "nominatim_mrt_east", "osm_id": 509783617}, "geometry": {"type": "LineString", "coordinates": [[106.8472205, -6.3228781], [106.8467361, -6.3233033], [106.8467082, -6.3233278], [106.8466767, -6.3233559], [106.8465631, -6.3234573], [106.8464131, -6.3235923], [106.8462777, -6.3237254], [106.8461328, -6.3238678], [106.8459333, -6.3240638], [106.8458333, -6.3241621], [106.8457566, -6.3242394], [106.8457038, -6.3242963], [106.8456747, -6.3243303], [106.8455094, -6.3245237], [106.8453442, -6.3248119], [106.8451839, -6.3251284], [106.845027, -6.3255236], [106.8449552, -6.3257415], [106.844917, -6.3258575], [106.8448013, -6.3263244], [106.8447777, -6.326466], [106.8447484, -6.3266606], [106.8447366, -6.3268472], [106.844744, -6.3270805], [106.844756, -6.3272517], [106.8447796, -6.3275003], [106.8448067, -6.327695], [106.8448308, -6.3278686], [106.844852, -6.3280533], [106.844864, -6.3281035], [106.8448925, -6.3281745], [106.8449767, -6.3284781], [106.8451108, -6.3288897], [106.8454001, -6.329882], [106.8454873, -6.3301713], [106.845562, -6.3303942], [106.8455743, -6.3304309], [106.8455925, -6.3304872], [106.8456707, -6.3307294], [106.8456933, -6.3308074], [106.8457146, -6.3309057], [106.8457252, -6.3309718], [106.8457334, -6.3310493], [106.8457441, -6.3311653], [106.8457468, -6.3313343], [106.8457505, -6.3317877], [106.8457505, -6.3319897], [106.8457505, -6.3324285], [106.8457404, -6.3329841], [106.8457365, -6.3332726], [106.8457307, -6.3337031], [106.8457292, -6.3338142]]}}, {"type": "Feature", "properties": {"name": "Jalan RA. Fadillah", "query": "Jalan RA Fadillah, Jakarta Timur", "source": "nominatim_mrt_east", "osm_id": 1032789900}, "geometry": {"type": "LineString", "coordinates": [[106.8438659, -6.3370261], [106.8438864, -6.3370088], [106.8439132, -6.3369924], [106.843939, -6.3369818], [106.8439682, -6.3369778], [106.8442873, -6.3369747], [106.8447399, -6.3369703], [106.8449264, -6.3369685], [106.8451502, -6.3369663], [106.845195, -6.3369654], [106.8452219, -6.3369628], [106.8452452, -6.3369588], [106.845257, -6.3369551], [106.8452682, -6.33695], [106.8452771, -6.3369426], [106.8452892, -6.3369276], [106.8452954, -6.3369151], [106.8453001, -6.3368973], [106.8453027, -6.3368801], [106.8453044, -6.3368595], [106.8453036, -6.3368402], [106.8452865, -6.3366535], [106.8452758, -6.3365889], [106.8452684, -6.3365243], [106.8452664, -6.3364829], [106.8452691, -6.336433], [106.8452791, -6.3363743], [106.8455656, -6.3354615], [106.8456908, -6.3350627], [106.8457056, -6.3350014], [106.8457143, -6.3349234], [106.845726, -6.3340555], [106.8457292, -6.3338142]]}}, {"type": "Feature", "properties": {"name": "Jalan RA. Fadillah", "query": "Jalan RA Fadillah, Jakarta Timur", "source": "nominatim_mrt_east", "osm_id": 158664729}, "geometry": {"type": "LineString", "coordinates": [[106.8585173, -6.3154436], [106.8590042, -6.3150686], [106.8592662, -6.31486], [106.8594687, -6.3146908], [106.8595726, -6.3145828], [106.8597052, -6.3144331], [106.8598911, -6.3142016], [106.8605472, -6.3132717], [106.8606254, -6.313126]]}}, {"type": "Feature", "properties": {"name": "Jalan RA. Fadillah", "query": "Jalan RA Fadillah, Jakarta Timur", "source": "nominatim_mrt_east", "osm_id": 1259596881}, "geometry": {"type": "LineString", "coordinates": [[106.8472205, -6.3228781], [106.8473088, -6.3227724], [106.8473377, -6.3227391], [106.84738, -6.3226977], [106.8474416, -6.3226422], [106.847442, -6.322642], [106.8475407, -6.3225487], [106.847589, -6.3225074], [106.8485696, -6.3216563]]}}, {"type": "Feature", "properties": {"name": "Jalan Kesehatan", "query": "Jalan Kesehatan, Pasar Rebo", "source": "nominatim_mrt_east", "osm_id": 406643134}, "geometry": {"type": "LineString", "coordinates": [[106.8591582, -6.3053412], [106.8591602, -6.3051719], [106.8591623, -6.3051103], [106.8591696, -6.3048839], [106.859175, -6.304764], [106.8591924, -6.3045507], [106.8591937, -6.3044188], [106.8591865, -6.3042681], [106.8591378, -6.303413], [106.8590722, -6.3028422], [106.8590247, -6.302391]]}}, {"type": "Feature", "properties": {"name": "Jalan Kesehatan", "query": "Jalan Kesehatan, Pasar Rebo", "source": "nominatim_mrt_east", "osm_id": 516441523}, "geometry": {"type": "LineString", "coordinates": [[106.8590247, -6.302391], [106.8589685, -6.3023073]]}}, {"type": "Feature", "properties": {"name": "Jalan Kesehatan", "query": "Jalan Kesehatan, Pasar Rebo", "source": "nominatim_mrt_east", "osm_id": 406643133}, "geometry": {"type": "LineString", "coordinates": [[106.8591582, -6.3053412], [106.8591535, -6.3058717]]}}, {"type": "Feature", "properties": {"name": "Jalan Raya Condet", "query": "Jalan Raya Condet, Jakarta", "source": "nominatim_mrt_east", "osm_id": 1240886181}, "geometry": {"type": "LineString", "coordinates": [[106.8563459, -6.3024755], [106.856352, -6.3025612]]}}, {"type": "Feature", "properties": {"name": "Jalan Condet Raya", "query": "Jalan Condet Raya, Jakarta", "source": "nominatim_mrt_east", "osm_id": 759922863}, "geometry": {"type": "LineString", "coordinates": [[106.8644879, -6.2633758], [106.864396, -6.2634091], [106.8642738, -6.2634509], [106.8638591, -6.2634682], [106.8635462, -6.263498], [106.8633756, -6.2635079], [106.8630099, -6.2635194], [106.8628102, -6.2635476], [106.8625962, -6.2636187], [106.8623618, -6.2637658], [106.8622971, -6.2638471], [106.8622909, -6.2638566], [106.8622642, -6.263901], [106.8618785, -6.2645426], [106.8616771, -6.2648956], [106.8613318, -6.2654261], [106.8613155, -6.265454], [106.8611004, -6.2658216], [106.8610668, -6.2658825], [106.8606179, -6.2665816], [106.8605342, -6.2667155], [106.860392, -6.2669677], [106.8601817, -6.267293], [106.8601418, -6.2673523], [106.860084, -6.2674343], [106.8600349, -6.2675068], [106.8600107, -6.2675404], [106.8599663, -6.2676015], [106.8598665, -6.2677445], [106.8596046, -6.2682225], [106.8595458, -6.268333], [106.8593929, -6.2686433], [106.859273, -6.2688792], [106.8592586, -6.2689075], [106.8591219, -6.2691751], [106.8590927, -6.2692399], [106.8589282, -6.2696052], [106.8588489, -6.2697526], [106.8588061, -6.2698484], [106.8586572, -6.2701332], [106.8585979, -6.2702496], [106.8584741, -6.2704926], [106.8584169, -6.2706018], [106.8582283, -6.2709946], [106.8580505, -6.2713388], [106.8579932, -6.2714554], [106.8579344, -6.2715677], [106.8578538, -6.2717275], [106.857389, -6.2726955], [106.857249, -6.2729837], [106.8570444, -6.2733642], [106.8568039, -6.2738546], [106.8567605, -6.2739475]]}}, {"type": "Feature", "properties": {"name": "Jalan Condet Raya", "query": "Jalan Condet Raya, Jakarta", "source": "nominatim_mrt_east", "osm_id": 1295602635}, "geometry": {"type": "LineString", "coordinates": [[106.8552714, -6.2841366], [106.8552916, -6.2845656], [106.8552991, -6.284716], [106.8553142, -6.2850233], [106.8553271, -6.2851313], [106.8553463, -6.2853679], [106.8553547, -6.2854986], [106.8553578, -6.2855798], [106.855358, -6.2856488], [106.8553578, -6.2856859], [106.8553599, -6.2857812], [106.8553721, -6.2859933], [106.8553761, -6.2860393], [106.8553915, -6.2862156], [106.8554129, -6.2864759], [106.8554267, -6.2866962], [106.8554306, -6.2868158], [106.8554425, -6.2869518], [106.8554609, -6.287251], [106.8554748, -6.2874545], [106.8554802, -6.287533], [106.8555153, -6.2881847], [106.8555197, -6.2883385], [106.8555209, -6.2884121], [106.8555357, -6.288659], [106.8555608, -6.2892778], [106.8555611, -6.2892969], [106.8555617, -6.2893566], [106.8555631, -6.2894428], [106.855567, -6.2895547], [106.8555684, -6.28966], [106.8555815, -6.2899587], [106.8555857, -6.2900229], [106.8556006, -6.2903068], [106.8556132, -6.2905892], [106.8556239, -6.2907131], [106.8556322, -6.2909004], [106.8556359, -6.2909849], [106.8556378, -6.291089], [106.8556445, -6.2911751], [106.8556516, -6.2914704], [106.8556644, -6.29171], [106.8556792, -6.2919893], [106.8556866, -6.2920925], [106.8556994, -6.2924225], [106.8557199, -6.2928169], [106.8557514, -6.2933291], [106.8557665, -6.293562], [106.8557798, -6.2937255], [106.8557843, -6.2937682], [106.8557936, -6.2938611], [106.8558082, -6.294013], [106.8558275, -6.2941683], [106.8558394, -6.2942812], [106.8558454, -6.2943424], [106.8558526, -6.2944149], [106.8558743, -6.2946893], [106.8558954, -6.294848], [106.855912, -6.2950718], [106.8559262, -6.2952041], [106.8559378, -6.2952776], [106.8559489, -6.2956064], [106.8559556, -6.2958435], [106.8559625, -6.295969], [106.8559691, -6.29615], [106.8559818, -6.2964527], [106.8560063, -6.2968578], [106.8560326, -6.2971969], [106.8560311, -6.297238], [106.8560478, -6.2974856], [106.8560565, -6.297753], [106.8560681, -6.2979521], [106.8561073, -6.2983353], [106.8561241, -6.2987215], [106.856127, -6.2987875], [106.8561292, -6.2988291], [106.85614, -6.2990628], [106.8561519, -6.2993107], [106.8561789, -6.2998897], [106.8561957, -6.3004114], [106.8562058, -6.3005657], [106.856228, -6.3008976], [106.8562441, -6.3010946], [106.85625, -6.3012513], [106.8562524, -6.3012834], [106.8562572, -6.3013506], [106.8562675, -6.3015516], [106.856313, -6.3019487], [106.8563459, -6.3024755]]}}, {"type": "Feature", "properties": {"name": "Jalan Condet Raya", "query": "Jalan Condet Raya, Jakarta", "source": "nominatim_mrt_east", "osm_id": 1295602637}, "geometry": {"type": "LineString", "coordinates": [[106.8567605, -6.2739475], [106.8565963, -6.2743063], [106.8565586, -6.2743776], [106.8565099, -6.2744661], [106.856443, -6.2746052], [106.8560827, -6.2753649], [106.8560539, -6.275414], [106.8559081, -6.275704], [106.8557229, -6.2760855], [106.85566, -6.2762178], [106.8554409, -6.276662], [106.8552244, -6.2771364], [106.8552013, -6.277187], [106.8550379, -6.2775694], [106.8549865, -6.2778894], [106.8549886, -6.2779647], [106.8549953, -6.2782058], [106.8549964, -6.2782472], [106.8550068, -6.2784834], [106.8550135, -6.2786832], [106.8550226, -6.2788956], [106.8550291, -6.2790833], [106.855033, -6.2792232], [106.8550487, -6.2795021], [106.855069, -6.2797531], [106.8550792, -6.2798604], [106.8550833, -6.2799696], [106.8550914, -6.2801169], [106.8550993, -6.280347], [106.8551055, -6.2805283], [106.8551064, -6.280554], [106.8551143, -6.2806655], [106.8551296, -6.2808802], [106.8551373, -6.2809885]]}}, {"type": "Feature", "properties": {"name": "Jalan Condet Raya", "query": "Jalan Condet Raya, Jakarta", "source": "nominatim_mrt_east", "osm_id": 1295602638}, "geometry": {"type": "LineString", "coordinates": [[106.8551373, -6.2809885], [106.8551551, -6.2812406], [106.8551745, -6.2816567], [106.8551764, -6.281698], [106.8551907, -6.2820387], [106.855218, -6.2823439], [106.8552224, -6.282393], [106.8552228, -6.2824143], [106.8552275, -6.2826641], [106.8552325, -6.2828651], [106.85524, -6.2833446], [106.8552427, -6.2834315], [106.8552504, -6.2838188], [106.8552551, -6.2839453]]}}, {"type": "Feature", "properties": {"name": "Jalan Condet Raya", "query": "Jalan Condet Raya, Jakarta", "source": "nominatim_mrt_east", "osm_id": 107937592}, "geometry": {"type": "LineString", "coordinates": [[106.8644705, -6.2622809], [106.864381, -6.2624679], [106.8643931, -6.2625532], [106.8644372, -6.2626704], [106.8646751, -6.2630579], [106.864711, -6.2631396]]}}, {"type": "Feature", "properties": {"name": "Jalan Condet Raya", "query": "Jalan Condet Raya, Jakarta", "source": "nominatim_mrt_east", "osm_id": 676311652}, "geometry": {"type": "LineString", "coordinates": [[106.864711, -6.2631396], [106.8646795, -6.2632356], [106.8646152, -6.263302]]}}, {"type": "Feature", "properties": {"name": "Jalan Dewi Sartika", "query": "Jalan Dewi Sartika, Cililitan", "source": "nominatim_mrt_east", "osm_id": 693552630}, "geometry": {"type": "LineString", "coordinates": [[106.8650768, -6.2630718], [106.8648988, -6.2629213], [106.864758, -6.2627381], [106.8644705, -6.2622809], [106.8642563, -6.261892], [106.8641548, -6.2617076], [106.8638927, -6.2612404], [106.8638603, -6.2611758], [106.86384, -6.2611226], [106.8638265, -6.2610676], [106.8638257, -6.2610647], [106.8638175, -6.2609977], [106.8638198, -6.2609263], [106.8638307, -6.2608531], [106.8641772, -6.259533], [106.8641873, -6.2594622], [106.86419, -6.2593989], [106.8641865, -6.2593446], [106.8641694, -6.2592716], [106.8640881, -6.2590475], [106.863969, -6.2587191], [106.8637543, -6.2580787]]}}, {"type": "Feature", "properties": {"name": "Jalan Dewi Sartika", "query": "Jalan Dewi Sartika, Cililitan", "source": "nominatim_mrt_east", "osm_id": 693546077}, "geometry": {"type": "LineString", "coordinates": [[106.8638249, -6.258058], [106.8639488, -6.25842], [106.8640422, -6.2586939], [106.8641112, -6.2588908], [106.864204, -6.2591557], [106.8642462, -6.2592663], [106.8642624, -6.2593323], [106.8642685, -6.2593992], [106.8642645, -6.2594636], [106.8642542, -6.2595334], [106.864242, -6.2595923], [106.8640031, -6.2604346], [106.8639332, -6.2606813], [106.8639074, -6.2607926], [106.8638943, -6.2608743], [106.8638896, -6.2609427], [106.8638948, -6.2610111], [106.8639201, -6.2611066], [106.863959, -6.2611974], [106.8640917, -6.2614552], [106.8642673, -6.2617597], [106.8643139, -6.2618392]]}}, {"type": "Feature", "properties": {"name": "Jalan Dewi Sartika", "query": "Jalan Dewi Sartika, Cililitan", "source": "nominatim_mrt_east", "osm_id": 768557185}, "geometry": {"type": "LineString", "coordinates": [[106.8645921, -6.2623099], [106.8646599, -6.2624172], [106.8647863, -6.2626172], [106.8649306, -6.2627893], [106.8650045, -6.2628826], [106.8651581, -6.2630049]]}}, {"type": "Feature", "properties": {"name": "Jalan Dewi Sartika", "query": "Jalan Dewi Sartika, Cililitan", "source": "nominatim_mrt_east", "osm_id": 307001659}, "geometry": {"type": "LineString", "coordinates": [[106.8662143, -6.2491802], [106.8661749, -6.2492634], [106.8661312, -6.24936], [106.8660122, -6.2496226], [106.8658888, -6.2499069], [106.8657902, -6.2501211], [106.8657457, -6.2502191], [106.8656276, -6.2504958], [106.8654245, -6.2509776], [106.8648276, -6.25238], [106.8647979, -6.2524539], [106.8647605, -6.2525452], [106.8645632, -6.253031], [106.8644977, -6.2531914], [106.8643361, -6.2535582], [106.8643162, -6.2536004], [106.8641711, -6.2538874], [106.8640476, -6.2541614], [106.863667, -6.2550082], [106.8636165, -6.2552069], [106.8635952, -6.2553373], [106.8635897, -6.2554001], [106.8635833, -6.2554729], [106.8635814, -6.2555642], [106.8635721, -6.2558965], [106.8635637, -6.2561517], [106.8635612, -6.2562305], [106.863555, -6.2564181], [106.8635566, -6.2566903], [106.8635752, -6.2569469], [106.8635852, -6.2570176], [106.8635991, -6.2571155], [106.8636354, -6.2573005], [106.8637245, -6.2576569], [106.8638004, -6.2579602], [106.8638056, -6.2579809]]}}, {"type": "Feature", "properties": {"name": "Jalan Dewi Sartika", "query": "Jalan Dewi Sartika, Cililitan", "source": "nominatim_mrt_east", "osm_id": 976869319}, "geometry": {"type": "LineString", "coordinates": [[106.8637543, -6.2580787], [106.8637288, -6.258004]]}}, {"type": "Feature", "properties": {"name": "Jalan Otto Iskandar Dinata", "query": "Jalan Otto Iskandar Dinata, Jakarta", "source": "nominatim_mrt_east", "osm_id": 1253365472}, "geometry": {"type": "LineString", "coordinates": [[106.8686963, -6.23729], [106.8686765, -6.2372327], [106.8686002, -6.2370431], [106.8684981, -6.2368298], [106.868427, -6.2366784], [106.8683054, -6.2364148], [106.8682667, -6.2363334], [106.8681876, -6.2361684], [106.8681206, -6.2360157], [106.8679521, -6.2356386], [106.8679113, -6.2355528], [106.8678705, -6.2354669], [106.8677999, -6.2352928], [106.8677376, -6.2351329], [106.867724, -6.2351055], [106.8675977, -6.2347249], [106.8675052, -6.234352], [106.8674637, -6.2340552], [106.8674544, -6.2339633], [106.8673069, -6.2328995], [106.8672603, -6.2324728], [106.867235, -6.2321141], [106.8672288, -6.2320175], [106.867221, -6.2318985]]}}, {"type": "Feature", "properties": {"name": "Jalan Otto Iskandar Dinata", "query": "Jalan Otto Iskandar Dinata, Jakarta", "source": "nominatim_mrt_east", "osm_id": 791643154}, "geometry": {"type": "LineString", "coordinates": [[106.8671286, -6.2299346], [106.8671299, -6.2298558], [106.8671315, -6.229717], [106.8671423, -6.2289684], [106.8671436, -6.2289032], [106.8671476, -6.2287204], [106.8671538, -6.2283149], [106.8671504, -6.2277628], [106.8671499, -6.2275685], [106.8671503, -6.2273815], [106.8671411, -6.2271465], [106.8671293, -6.2269348], [106.8671071, -6.2267967], [106.8670443, -6.2264521], [106.8669515, -6.2260076], [106.8669225, -6.2259008], [106.8668901, -6.2257722], [106.8668333, -6.2256104], [106.8668092, -6.2255369]]}}, {"type": "Feature", "properties": {"name": "Jalan Otto Iskandar Dinata", "query": "Jalan Otto Iskandar Dinata, Jakarta", "source": "nominatim_mrt_east", "osm_id": 691253233}, "geometry": {"type": "LineString", "coordinates": [[106.8671988, -6.2264354], [106.8672281, -6.2265826], [106.8672828, -6.2268396], [106.8673075, -6.2271014], [106.8673065, -6.2276713], [106.8673037, -6.2280003]]}}, {"type": "Feature", "properties": {"name": "Jalan Otto Iskandar Dinata", "query": "Jalan Otto Iskandar Dinata, Jakarta", "source": "nominatim_mrt_east", "osm_id": 691253232}, "geometry": {"type": "LineString", "coordinates": [[106.8673037, -6.2280003], [106.8672999, -6.2283001], [106.8673024, -6.2288033], [106.8673113, -6.2292236], [106.8673163, -6.2294642], [106.867318, -6.2295897], [106.8673192, -6.2296694], [106.8673206, -6.2297658], [106.8673217, -6.2298164], [106.8673251, -6.2299519], [106.8673291, -6.2301131], [106.8673279, -6.2301508], [106.8673158, -6.2305347], [106.8673235, -6.230971]]}}, {"type": "Feature", "properties": {"name": "Jalan Otto Iskandar Dinata", "query": "Jalan Otto Iskandar Dinata, Jakarta", "source": "nominatim_mrt_east", "osm_id": 768013542}, "geometry": {"type": "LineString", "coordinates": [[106.8686744, -6.2443367], [106.8685596, -6.2446194], [106.8685112, -6.2447414]]}}, {"type": "Feature", "properties": {"name": "Jalan Otto Iskandar Dinata", "query": "Jalan Otto Iskandar Dinata, Jakarta", "source": "nominatim_mrt_east", "osm_id": 691253234}, "geometry": {"type": "LineString", "coordinates": [[106.8670838, -6.2259259], [106.8671434, -6.2261768], [106.8671988, -6.2264354]]}}, {"type": "Feature", "properties": {"name": "Jalan K. Haji Abdul Syafi'ie", "query": "Jalan Jatinegara Barat, Jakarta", "source": "nominatim_mrt_east", "osm_id": 752838486}, "geometry": {"type": "LineString", "coordinates": [[106.8639423, -6.2249398], [106.863987, -6.2249357], [106.8641038, -6.2249251], [106.8643629, -6.2248828], [106.8650463, -6.2247449], [106.8654186, -6.224687]]}}, {"type": "Feature", "properties": {"name": "Jalan K. Haji Abdul Syafi'ie", "query": "Jalan Jatinegara Barat, Jakarta", "source": "nominatim_mrt_east", "osm_id": 1282308961}, "geometry": {"type": "LineString", "coordinates": [[106.8662832, -6.2244983], [106.8662996, -6.2244696], [106.866307, -6.2244343], [106.8663172, -6.2243642]]}}, {"type": "Feature", "properties": {"name": "Jalan K. Haji Abdul Syafi'ie", "query": "Jalan Jatinegara Barat, Jakarta", "source": "nominatim_mrt_east", "osm_id": 484661358}, "geometry": {"type": "LineString", "coordinates": [[106.8627374, -6.2250342], [106.8630298, -6.2250071], [106.863091, -6.2249982], [106.863177, -6.224992], [106.8633068, -6.2249812], [106.8634232, -6.2249716]]}}, {"type": "Feature", "properties": {"name": "Jalan Jatinegara Barat Raya", "query": "Jalan Jatinegara Barat Raya, Jakarta", "source": "nominatim_mrt_east", "osm_id": 28765422}, "geometry": {"type": "LineString", "coordinates": [[106.8661095, -6.2237014], [106.8659823, -6.2233057], [106.8659261, -6.2231099], [106.8659214, -6.2230933], [106.8659133, -6.2230666], [106.8658193, -6.2227854], [106.8656373, -6.2221507], [106.8656109, -6.2220633], [106.8655625, -6.2218969], [106.8654813, -6.2216339], [106.8653932, -6.2213923], [106.8653161, -6.2211843], [106.8652811, -6.2210992], [106.8651841, -6.2208929], [106.8650629, -6.2206351], [106.8650441, -6.2205995], [106.8650194, -6.2205531], [106.8649947, -6.2205067], [106.8648265, -6.2201264], [106.8647076, -6.2198753], [106.8646823, -6.2198219], [106.8645488, -6.219528], [106.8645236, -6.2194651], [106.8645124, -6.2194395], [106.8644901, -6.2193862], [106.8643564, -6.2190734], [106.8641946, -6.2185841], [106.8641783, -6.218534], [106.8641203, -6.2181478], [106.8640595, -6.2177845], [106.8640304, -6.2175662], [106.8640206, -6.2174894], [106.8639872, -6.2172268], [106.8639519, -6.2167416], [106.8639387, -6.2166337], [106.863923, -6.2165024], [106.8638796, -6.2163897], [106.8638713, -6.216376], [106.8636058, -6.2160374], [106.8631545, -6.2156365], [106.8629472, -6.2154637], [106.862926, -6.2154449], [106.8628644, -6.2153919], [106.8628435, -6.2153744], [106.8626187, -6.2151584], [106.8622481, -6.2148312], [106.8619712, -6.2145227], [106.8619087, -6.2144354], [106.8618403, -6.2143165], [106.8615688, -6.2137799], [106.8615212, -6.2136973], [106.8614975, -6.2136249]]}}, {"type": "Feature", "properties": {"name": "Jalan Jatinegara Barat Raya", "query": "Jalan Jatinegara Barat Raya, Jakarta", "source": "nominatim_mrt_east", "osm_id": 28850975}, "geometry": {"type": "LineString", "coordinates": [[106.8646202, -6.2194054], [106.864299, -6.2185545], [106.8642557, -6.2183072], [106.8642164, -6.2180372], [106.8641577, -6.2176397], [106.8641422, -6.2174748], [106.8641291, -6.2173352], [106.8640577, -6.2167232], [106.8640544, -6.2166833], [106.8640408, -6.2165372], [106.8640063, -6.2164211], [106.863942, -6.2162827], [106.8638601, -6.216164], [106.8637651, -6.2160535], [106.8636582, -6.2159287], [106.863549, -6.2158307], [106.8632373, -6.2155899], [106.8629345, -6.2153217], [106.8627779, -6.2151765], [106.8625002, -6.214913], [106.8621475, -6.2145693], [106.8620785, -6.2144846], [106.861984, -6.2143392], [106.8619181, -6.2142172], [106.8616275, -6.21375], [106.8615695, -6.2136793], [106.8614975, -6.2136249]]}}, {"type": "Feature", "properties": {"name": "Jalan Jatinegara Barat Raya", "query": "Jalan Jatinegara Barat Raya, Jakarta", "source": "nominatim_mrt_east", "osm_id": 688702205}, "geometry": {"type": "LineString", "coordinates": [[106.8664257, -6.224337], [106.8663633, -6.224267], [106.8663365, -6.22422], [106.8663197, -6.2241803], [106.8663097, -6.2241449], [106.8662071, -6.2237334], [106.8660942, -6.2233392], [106.8660202, -6.2230737], [106.8659363, -6.2227653], [106.8659188, -6.2227063], [106.8658083, -6.2223216], [106.8657353, -6.2221062], [106.8655147, -6.2213777]]}}, {"type": "Feature", "properties": {"name": "Jalan Jatinegara Barat Raya", "query": "Jalan Jatinegara Barat Raya, Jakarta", "source": "nominatim_mrt_east", "osm_id": 1186136757}, "geometry": {"type": "LineString", "coordinates": [[106.86651, -6.2249606], [106.86646, -6.2248222]]}}, {"type": "Feature", "properties": {"name": "Jalan Pramuka", "query": "Jalan Pramuka, Jakarta", "source": "nominatim_mrt_east", "osm_id": 428431664}, "geometry": {"type": "LineString", "coordinates": [[106.8614849, -6.1939442], [106.8615905, -6.1939014], [106.8616723, -6.1938683], [106.8617799, -6.1938066], [106.8620895, -6.1936289], [106.8622803, -6.1935194], [106.8623867, -6.1934675], [106.8626432, -6.1933423], [106.8628218, -6.1932552], [106.8629322, -6.1932101], [106.8630899, -6.1931456], [106.8632807, -6.1930676], [106.8634721, -6.1930032], [106.8637149, -6.1929216], [106.8640879, -6.1927964], [106.8642916, -6.1927378], [106.8644011, -6.1927115], [106.8648436, -6.1926055], [106.8651772, -6.1925356], [106.8654598, -6.1924984]]}}, {"type": "Feature", "properties": {"name": "Jalan Pramuka", "query": "Jalan Pramuka, Jakarta", "source": "nominatim_mrt_east", "osm_id": 688702617}, "geometry": {"type": "LineString", "coordinates": [[106.8654598, -6.1924984], [106.8661971, -6.1924068], [106.8664424, -6.1923763], [106.8668403, -6.1923364], [106.8674259, -6.1922777], [106.8678023, -6.1922399], [106.8678504, -6.1922352], [106.8684089, -6.1921803], [106.8689259, -6.1921295], [106.8696798, -6.192052]]}}, {"type": "Feature", "properties": {"name": "Jalan Pramuka", "query": "Jalan Pramuka, Jakarta", "source": "nominatim_mrt_east", "osm_id": 594397287}, "geometry": {"type": "LineString", "coordinates": [[106.8562615, -6.1974785], [106.8563482, -6.1973874], [106.8564021, -6.1973308], [106.8566518, -6.1971558], [106.8568921, -6.1969873], [106.8571618, -6.1968078], [106.8571849, -6.1967925], [106.8572914, -6.1967216], [106.8574354, -6.1966332], [106.857469, -6.1966112], [106.8575124, -6.1965827]]}}, {"type": "Feature", "properties": {"name": "Jalan Pramuka", "query": "Jalan Pramuka, Jakarta", "source": "nominatim_mrt_east", "osm_id": 485064952}, "geometry": {"type": "LineString", "coordinates": [[106.8712799, -6.1918948], [106.8714178, -6.1918893], [106.8715647, -6.1918834], [106.8718996, -6.1918796], [106.8720984, -6.1918852], [106.8722318, -6.191889], [106.8723606, -6.1918987], [106.8726737, -6.1919221], [106.8729099, -6.1919398], [106.8735393, -6.1920265], [106.8738472, -6.1920761], [106.8739901, -6.1920992], [106.874186, -6.1921259], [106.8743972, -6.1921499], [106.8744669, -6.1921579], [106.8745892, -6.1921481]]}}, {"type": "Feature", "properties": {"name": "Jalan Pramuka", "query": "Jalan Pramuka, Jakarta", "source": "nominatim_mrt_east", "osm_id": 766119045}, "geometry": {"type": "LineString", "coordinates": [[106.8592913, -6.1955983], [106.8584966, -6.1961269]]}}, {"type": "Feature", "properties": {"name": "Jalan Pramuka", "query": "Jalan Pramuka, Jakarta", "source": "nominatim_mrt_east", "osm_id": 1001338161}, "geometry": {"type": "LineString", "coordinates": [[106.8718246, -6.1920925], [106.8717425, -6.1920959], [106.8713129, -6.1921138], [106.871079, -6.1921341], [106.8706375, -6.1921725], [106.8704211, -6.1921913], [106.8701875, -6.1922135], [106.8701598, -6.1922161], [106.8701185, -6.1922221]]}}, {"type": "Feature", "properties": {"name": "LRT Jakarta", "query": "Jalan Pramuka Raya, Jakarta", "source": "nominatim_mrt_east", "osm_id": 1557828821}, "geometry": {"type": "LineString", "coordinates": [[106.8506833, -6.201802], [106.8505881, -6.2018502], [106.8504529, -6.2019303], [106.8500067, -6.2022315], [106.8498506, -6.2023369], [106.8497765, -6.2023864]]}}, {"type": "Feature", "properties": {"name": "LRT Jakarta", "query": "Jalan Pramuka Raya, Jakarta", "source": "nominatim_mrt_east", "osm_id": 1547732769}, "geometry": {"type": "LineString", "coordinates": [[106.8585273, -6.196097], [106.8590504, -6.1957417], [106.8592816, -6.1955845]]}}, {"type": "Feature", "properties": {"name": "LRT Jakarta", "query": "Jalan Pramuka Raya, Jakarta", "source": "nominatim_mrt_east", "osm_id": 1547732759}, "geometry": {"type": "LineString", "coordinates": [[106.871275, -6.1919496], [106.8710826, -6.1919619], [106.8707091, -6.1919948], [106.8701838, -6.1920495]]}}, {"type": "Feature", "properties": {"name": "Jalan Kramat Raya", "query": "Jalan Kramat Raya, Jakarta", "source": "nominatim_mrt_east", "osm_id": 560887460}, "geometry": {"type": "LineString", "coordinates": [[106.8415952, -6.175817], [106.8421762, -6.1786489], [106.8425594, -6.1804972], [106.8428042, -6.1815197], [106.8428886, -6.1818682], [106.8428988, -6.1819105]]}}, {"type": "Feature", "properties": {"name": "Jalan Kramat Raya", "query": "Jalan Kramat Raya, Jakarta", "source": "nominatim_mrt_east", "osm_id": 754643164}, "geometry": {"type": "LineString", "coordinates": [[106.8421092, -6.178751], [106.8415008, -6.1757491]]}}, {"type": "Feature", "properties": {"name": "Jalan Kramat Raya", "query": "Jalan Kramat Raya, Jakarta", "source": "nominatim_mrt_east", "osm_id": 711243633}, "geometry": {"type": "LineString", "coordinates": [[106.8436083, -6.1841571], [106.8435421, -6.1840592], [106.8433695, -6.1837835], [106.8432683, -6.1836218], [106.8432005, -6.1835134], [106.8431489, -6.1834035], [106.8430536, -6.1832008]]}}, {"type": "Feature", "properties": {"name": "Jalan Kramat Raya", "query": "Jalan Kramat Raya, Jakarta", "source": "nominatim_mrt_east", "osm_id": 830694366}, "geometry": {"type": "LineString", "coordinates": [[106.8446965, -6.1859901], [106.8446205, -6.1858519], [106.844525, -6.1856716], [106.8445151, -6.1856529], [106.8442541, -6.1852112], [106.8441841, -6.1850888]]}}, {"type": "Feature", "properties": {"name": "Jalan Kramat Raya", "query": "Jalan Kramat Raya, Jakarta", "source": "nominatim_mrt_east", "osm_id": 713583503}, "geometry": {"type": "LineString", "coordinates": [[106.8463184, -6.1883526], [106.8464721, -6.1886168], [106.8466172, -6.1888659]]}}, {"type": "Feature", "properties": {"name": "Jalan Kramat Raya", "query": "Jalan Kramat Raya, Jakarta", "source": "nominatim_mrt_east", "osm_id": 724007433}, "geometry": {"type": "LineString", "coordinates": [[106.8428988, -6.1819105], [106.8429658, -6.1822847], [106.843073, -6.1825622], [106.8431119, -6.1826184]]}}, {"type": "Feature", "properties": {"name": "Jalan Pasar Senen", "query": "Jalan Pasar Senen, Jakarta", "source": "nominatim_mrt_east", "osm_id": 4705040}, "geometry": {"type": "LineString", "coordinates": [[106.8418183, -6.1781352], [106.8418283, -6.1780203], [106.841842, -6.1778717], [106.8416256, -6.1768967], [106.8415625, -6.1765852], [106.8415057, -6.1762812], [106.8414962, -6.1762251], [106.8414346, -6.1758629], [106.8414181, -6.1757875], [106.8414094, -6.1757466], [106.8413462, -6.1754511], [106.8413377, -6.1754148], [106.8413017, -6.175261], [106.8412131, -6.1748822], [106.8411724, -6.1747033], [106.8411641, -6.1745764]]}}, {"type": "Feature", "properties": {"name": "Jalan Pasar Senen", "query": "Jalan Pasar Senen, Jakarta", "source": "nominatim_mrt_east", "osm_id": 11671364}, "geometry": {"type": "LineString", "coordinates": [[106.8412273, -6.1741798], [106.8414054, -6.1748118], [106.8414223, -6.1748826], [106.8414616, -6.1750418], [106.8414783, -6.1751094], [106.8415169, -6.1752688], [106.841556, -6.1754306], [106.8415779, -6.1755214], [106.8415808, -6.1755434]]}}, {"type": "Feature", "properties": {"name": "Jalan Pasar Senen", "query": "Jalan Pasar Senen, Jakarta", "source": "nominatim_mrt_east", "osm_id": 630898980}, "geometry": {"type": "LineString", "coordinates": [[106.8438381, -6.1768177], [106.8437536, -6.1767356], [106.8436973, -6.1766623], [106.843649, -6.176573], [106.8436221, -6.1765023], [106.8436086, -6.1764667], [106.8435377, -6.1762483], [106.8435154, -6.1761706], [106.8434957, -6.1760956]]}}, {"type": "Feature", "properties": {"name": "Jalan Pasar Senen", "query": "Jalan Pasar Senen, Jakarta", "source": "nominatim_mrt_east", "osm_id": 779815862}, "geometry": {"type": "LineString", "coordinates": [[106.8411056, -6.1736779], [106.8411458, -6.1738435], [106.8412273, -6.1741798]]}}, {"type": "Feature", "properties": {"name": "Jalan Gunung Sahari Raya", "query": "Jalan Gunung Sahari Raya, Jakarta", "source": "nominatim_mrt_east", "osm_id": 1490370110}, "geometry": {"type": "LineString", "coordinates": [[106.8405039, -6.1719817], [106.8403324, -6.1713004], [106.8402746, -6.1710786], [106.8401742, -6.1706931], [106.8401231, -6.1704971], [106.8400552, -6.1702313]]}}, {"type": "Feature", "properties": {"name": "Jalan Gunung Sahari Raya", "query": "Jalan Gunung Sahari Raya, Jakarta", "source": "nominatim_mrt_east", "osm_id": 711241499}, "geometry": {"type": "LineString", "coordinates": [[106.8354236, -6.1517489], [106.8352577, -6.1510986], [106.835247, -6.1510556], [106.8351156, -6.1505273]]}}, {"type": "Feature", "properties": {"name": "Jalan Gunung Sahari Raya", "query": "Jalan Gunung Sahari Raya, Jakarta", "source": "nominatim_mrt_east", "osm_id": 1001445850}, "geometry": {"type": "LineString", "coordinates": [[106.8372453, -6.1582628], [106.8372585, -6.1583134], [106.8373422, -6.1586424], [106.8374149, -6.1589279]]}}, {"type": "Feature", "properties": {"name": "Jalan Gunung Sahari Raya", "query": "Jalan Gunung Sahari Raya, Jakarta", "source": "nominatim_mrt_east", "osm_id": 692790057}, "geometry": {"type": "LineString", "coordinates": [[106.8388016, -6.1652742], [106.8387523, -6.1650333], [106.8387311, -6.1649409], [106.8387207, -6.164896], [106.8386588, -6.1646265]]}}, {"type": "Feature", "properties": {"name": "Jalan Gunung Sahari Raya", "query": "Jalan Gunung Sahari Raya, Jakarta", "source": "nominatim_mrt_east", "osm_id": 591948690}, "geometry": {"type": "LineString", "coordinates": [[106.830821, -6.1299411], [106.8307922, -6.1298814]]}}, {"type": "Feature", "properties": {"name": "Jalan Gunung Sahari XI", "query": "Jalan Gunung Sahari, Jakarta", "source": "nominatim_mrt_east", "osm_id": 155104960}, "geometry": {"type": "LineString", "coordinates": [[106.8354555, -6.1512353], [106.8356265, -6.1510939], [106.8357593, -6.1508913], [106.8358226, -6.1507843], [106.8359698, -6.1505353], [106.8360769, -6.1503587], [106.8360808, -6.1503482], [106.8362853, -6.1500283], [106.8363222, -6.1499762], [106.8364184, -6.1498343], [106.8366258, -6.1495184], [106.8367329, -6.1493545], [106.8368314, -6.1492107], [106.8372371, -6.1486152], [106.8374075, -6.1483719], [106.8374697, -6.1482411], [106.837482, -6.1481385]]}}, {"type": "Feature", "properties": {"name": "Jalan Gunung Sahari Raya", "query": "Jalan Gunung Sahari, Jakarta", "source": "nominatim_mrt_east", "osm_id": 560879497}, "geometry": {"type": "LineString", "coordinates": [[106.8323633, -6.1363899], [106.832426, -6.1366653], [106.8324612, -6.1368215], [106.8324887, -6.1369414], [106.8325448, -6.1371861], [106.8326215, -6.1375007]]}}, {"type": "Feature", "properties": {"name": "Jalan Gunung Sahari Raya", "query": "Jalan Gunung Sahari, Jakarta", "source": "nominatim_mrt_east", "osm_id": 754359763}, "geometry": {"type": "LineString", "coordinates": [[106.8312639, -6.1322222], [106.8312479, -6.1321578], [106.831221, -6.1320496], [106.8311851, -6.1319109], [106.8311613, -6.1317915], [106.8311228, -6.1315629], [106.8311084, -6.131539]]}}, {"type": "Feature", "properties": {"name": "Jalan Gunung Sahari Raya", "query": "Jalan Gunung Sahari, Jakarta", "source": "nominatim_mrt_east", "osm_id": 1265458800}, "geometry": {"type": "LineString", "coordinates": [[106.8386569, -6.163959], [106.8386935, -6.1640813], [106.8388213, -6.1645861]]}}, {"type": "Feature", "properties": {"name": "Jalan Gunung Sahari Raya", "query": "Jalan Gunung Sahari, Jakarta", "source": "nominatim_mrt_east", "osm_id": 711241491}, "geometry": {"type": "LineString", "coordinates": [[106.8410148, -6.1733354], [106.8411056, -6.1736779]]}}, {"type": "Feature", "properties": {"name": "Jalan Gunung Sahari VII", "query": "Jalan Gunung Sahari, Jakarta", "source": "nominatim_mrt_east", "osm_id": 761474362}, "geometry": {"type": "LineString", "coordinates": [[106.8367198, -6.1557516], [106.8366128, -6.155784]]}}, {"type": "Feature", "properties": {"name": "Jalan Letnan Jenderal Suprapto", "query": "Jalan Letnan Jenderal Suprapto, Jakarta", "source": "nominatim_mrt_east", "osm_id": 754104525}, "geometry": {"type": "LineString", "coordinates": [[106.867155, -6.1700307], [106.8673163, -6.1699546], [106.8684648, -6.1694125], [106.8696173, -6.1688753]]}}, {"type": "Feature", "properties": {"name": "Jalan Letnan Jenderal Suprapto", "query": "Jalan Letnan Jenderal Suprapto, Jakarta", "source": "nominatim_mrt_east", "osm_id": 755342160}, "geometry": {"type": "LineString", "coordinates": [[106.8621495, -6.1723515], [106.8622741, -6.1722933], [106.8637031, -6.1716316]]}}, {"type": "Feature", "properties": {"name": "Jalan Letnan Jenderal Suprapto", "query": "Jalan Letnan Jenderal Suprapto, Jakarta", "source": "nominatim_mrt_east", "osm_id": 1055746247}, "geometry": {"type": "LineString", "coordinates": [[106.8441003, -6.1766625], [106.8445169, -6.1761128]]}}, {"type": "Feature", "properties": {"name": "Jalan Letnan Jenderal Suprapto", "query": "Jalan Letnan Jenderal Suprapto, Jakarta", "source": "nominatim_mrt_east", "osm_id": 1152339584}, "geometry": {"type": "LineString", "coordinates": [[106.8583108, -6.1739342], [106.8581724, -6.1739629], [106.8578693, -6.1740229], [106.8577167, -6.1740531], [106.8574664, -6.1740849]]}}, {"type": "Feature", "properties": {"name": "Jalan Letnan Jenderal Suprapto", "query": "Jalan Letnan Jenderal Suprapto, Jakarta", "source": "nominatim_mrt_east", "osm_id": 458897449}, "geometry": {"type": "LineString", "coordinates": [[106.8469102, -6.1749438], [106.8471915, -6.1749119], [106.8475031, -6.17486]]}}, {"type": "Feature", "properties": {"name": "Jalan Letnan Jenderal Suprapto", "query": "Jalan Letnan Jenderal Suprapto, Jakarta", "source": "nominatim_mrt_east", "osm_id": 765501045}, "geometry": {"type": "LineString", "coordinates": [[106.8710815, -6.1681306], [106.8713958, -6.1679828]]}}, {"type": "Feature", "properties": {"name": "Jalan Lodan Raya", "query": "Jalan Lodan Raya, Jakarta", "source": "nominatim_mrt_east", "osm_id": 30063496}, "geometry": {"type": "LineString", "coordinates": [[106.8097953, -6.1261128], [106.8098129, -6.1260578], [106.8098465, -6.1260191], [106.8098907, -6.1259897], [106.809947, -6.125971], [106.8103346, -6.1259097], [106.8106002, -6.1258987], [106.810805, -6.1258903], [106.8109157, -6.1258914], [106.8111241, -6.1259014], [106.8112989, -6.1259191], [106.8115483, -6.1259668], [106.8117446, -6.1260238], [106.8118796, -6.1260671], [106.8121358, -6.1261786], [106.8122698, -6.1262617], [106.8124452, -6.1264], [106.8125398, -6.1264982], [106.8127805, -6.126748], [106.8130007, -6.1269978], [106.8130423, -6.1270418], [106.8130812, -6.1270765], [106.8131452, -6.1271175], [106.8132321, -6.1271618], [106.8132644, -6.1271744], [106.8133075, -6.1271912], [106.8133672, -6.1272092], [106.8135224, -6.1272551], [106.8136562, -6.1272669], [106.8137269, -6.1272742], [106.8138071, -6.1272792], [106.8139053, -6.1272819], [106.8145235, -6.1272985], [106.8146887, -6.1273123], [106.8147086, -6.1273171], [106.8147291, -6.1273229], [106.8147529, -6.1273432], [106.8147754, -6.1273789], [106.8147925, -6.1274269], [106.8148079, -6.1274572], [106.8148193, -6.1274855], [106.8148591, -6.1276687], [106.8149724, -6.1281911], [106.8150312, -6.1284626], [106.8151011, -6.1288364], [106.8151607, -6.1290964], [106.8151769, -6.1291596], [106.8152104, -6.1292269], [106.8152527, -6.1292842], [106.815333, -6.1293443], [106.8154544, -6.1294148], [106.8164735, -6.1300196], [106.8166933, -6.1301604], [106.8176735, -6.1307921], [106.8183255, -6.1312035], [106.8185408, -6.1313335], [106.8186314, -6.1313782], [106.8187628, -6.1314382], [106.8188888, -6.1314869], [106.8190545, -6.1315502], [106.8193817, -6.1316595], [106.8194473, -6.1316755]]}}, {"type": "Feature", "properties": {"name": "Jalan Lodan Raya", "query": "Jalan Lodan Raya, Jakarta", "source": "nominatim_mrt_east", "osm_id": 30063590}, "geometry": {"type": "LineString", "coordinates": [[106.8223242, -6.1313963], [106.8232235, -6.1312062], [106.8232849, -6.1311992], [106.8241535, -6.1310346], [106.824776, -6.1309176]]}}, {"type": "Feature", "properties": {"name": "Jalan Lodan Raya", "query": "Jalan Lodan Raya, Jakarta", "source": "nominatim_mrt_east", "osm_id": 690618811}, "geometry": {"type": "LineString", "coordinates": [[106.8398577, -6.1283126], [106.8405579, -6.1281793], [106.8406414, -6.1281625], [106.8406717, -6.1281582], [106.8413041, -6.1280584]]}}, {"type": "Feature", "properties": {"name": "Jalan Lodan Raya", "query": "Jalan Lodan Raya, Jakarta", "source": "nominatim_mrt_east", "osm_id": 557844016}, "geometry": {"type": "LineString", "coordinates": [[106.8294959, -6.1300562], [106.8295919, -6.130036], [106.8298355, -6.1299846], [106.8299349, -6.1299847], [106.8300524, -6.129998]]}}, {"type": "Feature", "properties": {"name": "Jalan Lodan Raya", "query": "Jalan Lodan Raya, Jakarta", "source": "nominatim_mrt_east", "osm_id": 557844021}, "geometry": {"type": "LineString", "coordinates": [[106.8222336, -6.1313029], [106.8223274, -6.1312848]]}}, {"type": "Feature", "properties": {"name": "Jalan Lodan Raya", "query": "Jalan Lodan Raya, Jakarta", "source": "nominatim_mrt_east", "osm_id": 756927746}, "geometry": {"type": "LineString", "coordinates": [[106.8951487, -6.1955151], [106.8950522, -6.1955204]]}}, {"type": "Feature", "properties": {"name": "Jalan Benyamin Sueb", "query": "Jalan Benyamin Sueb, Jakarta", "source": "nominatim_mrt_east", "osm_id": 101695344}, "geometry": {"type": "LineString", "coordinates": [[106.8484984, -6.1420695], [106.848603, -6.1426322], [106.8487771, -6.1435326], [106.8488743, -6.1440562], [106.8491521, -6.1456614], [106.8491787, -6.1458153], [106.8492796, -6.1463624], [106.8493101, -6.1465274], [106.8494488, -6.1473171], [106.8496382, -6.1483806]]}}, {"type": "Feature", "properties": {"name": "Jalan Benyamin Sueb", "query": "Jalan Benyamin Sueb, Jakarta", "source": "nominatim_mrt_east", "osm_id": 461101938}, "geometry": {"type": "LineString", "coordinates": [[106.8516011, -6.1598183], [106.8515973, -6.1596813], [106.8515783, -6.1595733], [106.8513573, -6.1584567], [106.8512619, -6.1579449], [106.851133, -6.157253]]}}, {"type": "Feature", "properties": {"name": "Jalan Benyamin Sueb", "query": "Jalan Benyamin Sueb, Jakarta", "source": "nominatim_mrt_east", "osm_id": 33769331}, "geometry": {"type": "LineString", "coordinates": [[106.8458958, -6.12938], [106.8456851, -6.1286509], [106.8456291, -6.1283875], [106.8455971, -6.128102], [106.8456106, -6.1278609], [106.8456631, -6.1272807], [106.8456588, -6.1271747], [106.8456359, -6.1270283], [106.8455969, -6.1268597], [106.8455179, -6.1265848]]}}, {"type": "Feature", "properties": {"name": "Jalan Benyamin Sueb", "query": "Jalan Benyamin Sueb, Jakarta", "source": "nominatim_mrt_east", "osm_id": 100992865}, "geometry": {"type": "LineString", "coordinates": [[106.8514229, -6.1577944], [106.8514422, -6.1579064], [106.8516614, -6.1591762]]}}, {"type": "Feature", "properties": {"name": "Jalan Benyamin Sueb", "query": "Jalan Benyamin Sueb, Jakarta", "source": "nominatim_mrt_east", "osm_id": 754648103}, "geometry": {"type": "LineString", "coordinates": [[106.8520563, -6.1606505], [106.8522526, -6.1617891]]}}, {"type": "Feature", "properties": {"name": "Jalan Benyamin Sueb", "query": "Jalan Benyamin Sueb, Jakarta", "source": "nominatim_mrt_east", "osm_id": 754984310}, "geometry": {"type": "LineString", "coordinates": [[106.8515588, -6.1602957], [106.8514663, -6.1601249], [106.8514475, -6.1600449], [106.8514435, -6.1599822], [106.8514609, -6.1598542], [106.8514697, -6.1597895], [106.851471, -6.1597495], [106.8514701, -6.1597233]]}}]}