{
"type": "FeatureCollection",
"name": "TREKMRT",
"crs": { "type": "name", "properties": { "name": "urn:ogc:def:crs:OGC:1.3:CRS84" } },
"features": [
{ "type": "Feature", "properties": { "id": 1 }, "geometry": { "type": "MultiLineString", "coordinates": [ [ [ 106.818448452614646, -6.400069990379774 ], [ 106.819472698978657, -6.400273562946887 ], [ 106.825823026435458, -6.390094835254853 ], [ 106.830329710437098, -6.382358866747913 ], [ 106.832378203165092, -6.375233529230056 ], [ 106.834221846620324, -6.367904507350932 ], [ 106.832787901710702, -6.357317957733918 ], [ 106.83360729880188, -6.355282057811004 ], [ 106.836884887166704, -6.353856923070709 ], [ 106.840572174077124, -6.354874876859461 ], [ 106.843030365350756, -6.354874876859461 ], [ 106.843030365350756, -6.349785087780032 ] ] ] } },
{ "type": "Feature", "properties": { "id": 1 }, "geometry": { "type": "MultiLineString", "coordinates": [ [ [ 106.842620666805146, -6.34937790247953 ], [ 106.841596420441149, -6.347749158057735 ], [ 106.841596420441149, -6.345713220287512 ], [ 106.843440063896338, -6.343473679447948 ], [ 106.844054611714768, -6.340012551737559 ], [ 106.843644913169157, -6.337976583408387 ], [ 106.844259460987544, -6.337162193826573 ], [ 106.844874008805945, -6.335329812567424 ], [ 106.845488556624346, -6.333904622645382 ], [ 106.845693405897165, -6.331054230997107 ], [ 106.84528370735157, -6.328611025633185 ], [ 106.845078858078764, -6.326167808714624 ], [ 106.846103104442733, -6.323520977352185 ], [ 106.849995240625958, -6.320670528423945 ], [ 106.852453431899576, -6.318023668925597 ], [ 106.855526170991567, -6.317616458570237 ], [ 106.859418307174778, -6.314155157615034 ], [ 106.860442553538789, -6.313137123518456 ], [ 106.859213457902001, -6.311101049322049 ], [ 106.859213457902001, -6.309268575703319 ], [ 106.859213457902001, -6.307232486304875 ], [ 106.859418307174778, -6.305399999008442 ], [ 106.859213457902001, -6.302956672539682 ], [ 106.859213457902001, -6.302345839124109 ], [ 106.8585989100836, -6.30132778183326 ], [ 106.857369814446798, -6.299088048762624 ], [ 106.856345568082801, -6.29684830602744 ], [ 106.855731020264386, -6.292572406708141 ], [ 106.855218897082395, -6.281068026770071 ], [ 106.855014047809604, -6.278115534264695 ], [ 106.856038294173615, -6.275570268670308 ], [ 106.85880375935642, -6.270683323877802 ], [ 106.862081347721201, -6.264472765452586 ], [ 106.863617717267203, -6.26182561972341 ], [ 106.864027415812828, -6.260298414159473 ], [ 106.863617717267203, -6.256836731683604 ], [ 106.863924991176418, -6.254494992299425 ], [ 106.866690456359194, -6.249098770311074 ], [ 106.868841373723612, -6.243906126798795 ], [ 106.869558346178437, -6.239426157687658 ], [ 106.868329250541606, -6.235557062634027 ], [ 106.8672025795412, -6.231484300157936 ], [ 106.8672025795412, -6.227004224923752 ], [ 106.866383182450022, -6.224865993721948 ], [ 106.864949237540444, -6.21977493202411 ], [ 106.864232265085619, -6.217738493538304 ], [ 106.864027415812828, -6.216414804293659 ], [ 106.862593470903207, -6.214989289074222 ], [ 106.860954676720809, -6.212545539712732 ], [ 106.8585989100836, -6.206639765255661 ], [ 106.857369814446812, -6.203177728756505 ], [ 106.853989801445593, -6.199512018269042 ], [ 106.850404939171568, -6.195948108648444 ], [ 106.848151597170755, -6.19187503961343 ], [ 106.844976433442341, -6.186070861966526 ], [ 106.842723091441528, -6.182608690565119 ], [ 106.842210968259536, -6.178739178062631 ], [ 106.840674598713548, -6.17191654763906 ], [ 106.838523681349145, -6.163871840697406 ], [ 106.834324271256747, -6.146254524962756 ], [ 106.832070929255934, -6.135154298044366 ], [ 106.831046682891937, -6.129756856449323 ], [ 106.831046682891923, -6.127312713988401 ], [ 106.832890326347112, -6.125886959050337 ], [ 106.836065490075526, -6.125479599797174 ] ] ] } },
{ "type": "Feature", "properties": { "id": 1 }, "geometry": { "type": "MultiLineString", "coordinates": [ [ [ 106.818141178705474, -6.399764631376986 ], [ 106.811176303430273, -6.398746766716074 ], [ 106.805645373064621, -6.397321752784039 ], [ 106.802367784699811, -6.395286011702362 ], [ 106.800319291971832, -6.394878862513084 ], [ 106.79540290942461, -6.394471712999539 ], [ 106.78884773269499, -6.394064563161745 ], [ 106.787004089239801, -6.394064563161745 ], [ 106.783111953056576, -6.395489586175395 ], [ 106.779424666146156, -6.396303883256758 ], [ 106.776147077781346, -6.396507457324394 ], [ 106.773279187962146, -6.394878862513084 ], [ 106.771640393779734, -6.398136046946126 ], [ 106.771230695234109, -6.40180035461391 ], [ 106.769182202506144, -6.403225356051297 ], [ 106.765904614141334, -6.403836069735522 ], [ 106.760988231594112, -6.405668206404288 ], [ 106.758325191047689, -6.405057494912087 ], [ 106.756276698319681, -6.407296766810447 ], [ 106.749721521590061, -6.406686057267229 ], [ 106.744190591224438, -6.405057494912087 ], [ 106.742142098496458, -6.404650353511313 ], [ 106.742551797042026, -6.399357485755987 ], [ 106.743576043406037, -6.394064563161745 ], [ 106.745419686861268, -6.388364431398069 ], [ 106.746853631770847, -6.384292869833383 ], [ 106.74623908395246, -6.379814114721102 ], [ 106.745829385406836, -6.37167082333676 ], [ 106.745624536134059, -6.366174028579132 ], [ 106.747673028862067, -6.361898703087768 ], [ 106.748902124498869, -6.356605393677579 ], [ 106.74951667231727, -6.349886884054847 ], [ 106.749721521590061, -6.342761096230754 ], [ 106.749311823044479, -6.334820816618471 ], [ 106.747877878134858, -6.329120027703668 ], [ 106.746239083952446, -6.322401160004127 ], [ 106.746648782498056, -6.316293022702567 ], [ 106.747673028862025, -6.311813676201172 ], [ 106.749516672317256, -6.311813676201172 ], [ 106.754433054864478, -6.312017283700856 ], [ 106.756071849046876, -6.309166771423373 ], [ 106.756891246138068, -6.306519853125907 ], [ 106.760373683775668, -6.303262088977739 ], [ 106.76467551850449, -6.298782629867747 ], [ 106.765904614141292, -6.295728431036697 ], [ 106.765904614141292, -6.29328505903892 ], [ 106.766928860505288, -6.290638059740656 ] ] ] } },
{ "type": "Feature", "properties": { "id": 2 }, "geometry": { "type": "MultiLineString", "coordinates": [ [ [ 106.842927940714361, -6.354976672127564 ], [ 106.846615227624795, -6.354976672127564 ], [ 106.850712213080826, -6.355791033547207 ], [ 106.853989801445593, -6.355383852998535 ], [ 106.859315882538439, -6.357826931455396 ], [ 106.859725581084049, -6.365766856255914 ], [ 106.861774073812029, -6.371670823336762 ], [ 106.864641963631257, -6.372892325287689 ], [ 106.870787441815281, -6.372892325287689 ], [ 106.874679577998492, -6.371670823336762 ], [ 106.877342618544901, -6.37187440719721 ], [ 106.879595960545672, -6.372892325287689 ], [ 106.882463850364914, -6.371670823336762 ], [ 106.884717192365713, -6.369634980289957 ], [ 106.888199630003314, -6.370042149545414 ], [ 106.889633574912935, -6.368413470585609 ], [ 106.894959656005739, -6.37126365537354 ], [ 106.895779053096945, -6.374520990031101 ] ] ] } },
{ "type": "Feature", "properties": { "id": 3 }, "geometry": { "type": "MultiLineString", "coordinates": [ [ [ 106.74675120713438, -6.317972767648703 ], [ 106.745112412951997, -6.323266473622401 ], [ 106.744702714406387, -6.325098897680483 ], [ 106.742449372405574, -6.325913306287958 ], [ 106.740605728950385, -6.326727713612128 ], [ 106.740400879677566, -6.332021329927289 ], [ 106.739171784040764, -6.33751848942681 ], [ 106.738147537676767, -6.340979633878164 ], [ 106.736508743494355, -6.344033565570305 ], [ 106.732616607311144, -6.344237160373081 ], [ 106.728724471127933, -6.343015590349989 ], [ 106.724627485671931, -6.342404804252738 ], [ 106.720940198761497, -6.343829970687098 ], [ 106.71745776112391, -6.345458727500496 ], [ 106.71090258439429, -6.347087479165048 ], [ 106.701274668572665, -6.346680291731684 ], [ 106.692261300569413, -6.347087479165048 ], [ 106.687959465840606, -6.347087479165048 ], [ 106.686525520930999, -6.341794017431775 ], [ 106.686730370203833, -6.336093305549536 ], [ 106.686525520930999, -6.332224929471261 ], [ 106.684067329657381, -6.326320510110469 ], [ 106.681609138383791, -6.31980521046242 ], [ 106.676283057290959, -6.313086221761095 ], [ 106.671571524016571, -6.306774365088 ], [ 106.668089086378956, -6.302294936307014 ], [ 106.667474538560569, -6.299444370579507 ], [ 106.663992100922925, -6.299647982936468 ], [ 106.655388431465326, -6.298833533029376 ], [ 106.649242953281302, -6.299647982936468 ], [ 106.643097475097292, -6.299037145625959 ], [ 106.64145868091488, -6.301684102112292 ] ] ] } }
]
}
