{"type": "FeatureCollection", "features": [{"type": "Feature", "properties": {"cell_id": "106.840:-6.360", "n": 8, "status": "OK", "median_price_per_m2": 11000000, "median_price": 1300000000.0, "price_class": "SEDANG", "murah_pct": 25.0, "sedang_pct": 37.5, "mahal_pct": 37.5}, "geometry": {"type": "Polygon", "coordinates": [[[106.83, -6.37], [106.85000000000001, -6.37], [106.85000000000001, -6.3500000000000005], [106.83, -6.3500000000000005], [106.83, -6.37]]]}}, {"type": "Feature", "properties": {"cell_id": "106.840:-6.380", "n": 1, "status": "INSUFFICIENT DATA", "price_class": null, "median_price_per_m2": null}, "geometry": {"type": "Polygon", "coordinates": [[[106.83, -6.39], [106.85000000000001, -6.39], [106.85000000000001, -6.37], [106.83, -6.37], [106.83, -6.39]]]}}, {"type": "Feature", "properties": {"cell_id": "106.740:-6.320", "n": 6, "status": "OK", "median_price_per_m2": 15116279.069767442, "median_price": 650000000, "price_class": "MURAH", "murah_pct": 33.3, "sedang_pct": 33.3, "mahal_pct": 33.3}, "geometry": {"type": "Polygon", "coordinates": [[[106.72999999999999, -6.33], [106.75, -6.33], [106.75, -6.3100000000000005], [106.72999999999999, -6.3100000000000005], [106.72999999999999, -6.33]]]}}, {"type": "Feature", "properties": {"cell_id": "106.800:-6.300", "n": 6, "status": "OK", "median_price_per_m2": 40000000.0, "median_price": 2500000000, "price_class": "MURAH", "murah_pct": 33.3, "sedang_pct": 33.3, "mahal_pct": 33.3}, "geometry": {"type": "Polygon", "coordinates": [[[106.78999999999999, -6.31], [106.81, -6.31], [106.81, -6.29], [106.78999999999999, -6.29], [106.78999999999999, -6.31]]]}}, {"type": "Feature", "properties": {"cell_id": "106.780:-6.280", "n": 2, "status": "INSUFFICIENT DATA", "price_class": null, "median_price_per_m2": null}, "geometry": {"type": "Polygon", "coordinates": [[[106.77, -6.29], [106.79, -6.29], [106.79, -6.2700000000000005], [106.77, -6.2700000000000005], [106.77, -6.29]]]}}, {"type": "Feature", "properties": {"cell_id": "106.780:-6.300", "n": 1, "status": "INSUFFICIENT DATA", "price_class": null, "median_price_per_m2": null}, "geometry": {"type": "Polygon", "coordinates": [[[106.77, -6.31], [106.79, -6.31], [106.79, -6.29], [106.77, -6.29], [106.77, -6.31]]]}}, {"type": "Feature", "properties": {"cell_id": "106.740:-6.340", "n": 3, "status": "INSUFFICIENT DATA", "price_class": null, "median_price_per_m2": null}, "geometry": {"type": "Polygon", "coordinates": [[[106.72999999999999, -6.35], [106.75, -6.35], [106.75, -6.33], [106.72999999999999, -6.33], [106.72999999999999, -6.35]]]}}, {"type": "Feature", "properties": {"cell_id": "106.640:-6.300", "n": 6, "status": "OK", "median_price_per_m2": 18000000, "median_price": 3000000000.0, "price_class": "MURAH", "murah_pct": 33.3, "sedang_pct": 33.3, "mahal_pct": 33.3}, "geometry": {"type": "Polygon", "coordinates": [[[106.63, -6.31], [106.65, -6.31], [106.65, -6.29], [106.63, -6.29], [106.63, -6.31]]]}}, {"type": "Feature", "properties": {"cell_id": "106.740:-6.400", "n": 3, "status": "INSUFFICIENT DATA", "price_class": null, "median_price_per_m2": null}, "geometry": {"type": "Polygon", "coordinates": [[[106.72999999999999, -6.41], [106.75, -6.41], [106.75, -6.390000000000001], [106.72999999999999, -6.390000000000001], [106.72999999999999, -6.41]]]}}, {"type": "Feature", "properties": {"cell_id": "106.760:-6.400", "n": 3, "status": "INSUFFICIENT DATA", "price_class": null, "median_price_per_m2": null}, "geometry": {"type": "Polygon", "coordinates": [[[106.75, -6.41], [106.77000000000001, -6.41], [106.77000000000001, -6.390000000000001], [106.75, -6.390000000000001], [106.75, -6.41]]]}}, {"type": "Feature", "properties": {"cell_id": "106.820:-6.400", "n": 3, "status": "INSUFFICIENT DATA", "price_class": null, "median_price_per_m2": null}, "geometry": {"type": "Polygon", "coordinates": [[[106.80999999999999, -6.41], [106.83, -6.41], [106.83, -6.390000000000001], [106.80999999999999, -6.390000000000001], [106.80999999999999, -6.41]]]}}, {"type": "Feature", "properties": {"cell_id": "106.860:-6.320", "n": 3, "status": "INSUFFICIENT DATA", "price_class": null, "median_price_per_m2": null}, "geometry": {"type": "Polygon", "coordinates": [[[106.85, -6.33], [106.87, -6.33], [106.87, -6.3100000000000005], [106.85, -6.3100000000000005], [106.85, -6.33]]]}}, {"type": "Feature", "properties": {"cell_id": "106.860:-6.280", "n": 3, "status": "INSUFFICIENT DATA", "price_class": null, "median_price_per_m2": null}, "geometry": {"type": "Polygon", "coordinates": [[[106.85, -6.29], [106.87, -6.29], [106.87, -6.2700000000000005], [106.85, -6.2700000000000005], [106.85, -6.29]]]}}, {"type": "Feature", "properties": {"cell_id": "106.860:-6.260", "n": 3, "status": "INSUFFICIENT DATA", "price_class": null, "median_price_per_m2": null}, "geometry": {"type": "Polygon", "coordinates": [[[106.85, -6.27], [106.87, -6.27], [106.87, -6.25], [106.85, -6.25], [106.85, -6.27]]]}}, {"type": "Feature", "properties": {"cell_id": "106.860:-6.220", "n": 6, "status": "OK", "median_price_per_m2": 22050000, "median_price": 2500000000, "price_class": "MURAH", "murah_pct": 33.3, "sedang_pct": 33.3, "mahal_pct": 33.3}, "geometry": {"type": "Polygon", "coordinates": [[[106.85, -6.2299999999999995], [106.87, -6.2299999999999995], [106.87, -6.21], [106.85, -6.21], [106.85, -6.2299999999999995]]]}}, {"type": "Feature", "properties": {"cell_id": "106.860:-6.200", "n": 3, "status": "INSUFFICIENT DATA", "price_class": null, "median_price_per_m2": null}, "geometry": {"type": "Polygon", "coordinates": [[[106.85, -6.21], [106.87, -6.21], [106.87, -6.19], [106.85, -6.19], [106.85, -6.21]]]}}, {"type": "Feature", "properties": {"cell_id": "106.840:-6.180", "n": 3, "status": "INSUFFICIENT DATA", "price_class": null, "median_price_per_m2": null}, "geometry": {"type": "Polygon", "coordinates": [[[106.83, -6.1899999999999995], [106.85000000000001, -6.1899999999999995], [106.85000000000001, -6.17], [106.83, -6.17], [106.83, -6.1899999999999995]]]}}, {"type": "Feature", "properties": {"cell_id": "106.840:-6.160", "n": 2, "status": "INSUFFICIENT DATA", "price_class": null, "median_price_per_m2": null}, "geometry": {"type": "Polygon", "coordinates": [[[106.83, -6.17], [106.85000000000001, -6.17], [106.85000000000001, -6.15], [106.83, -6.15], [106.83, -6.17]]]}}, {"type": "Feature", "properties": {"cell_id": "106.840:-6.140", "n": 1, "status": "INSUFFICIENT DATA", "price_class": null, "median_price_per_m2": null}, "geometry": {"type": "Polygon", "coordinates": [[[106.83, -6.1499999999999995], [106.85000000000001, -6.1499999999999995], [106.85000000000001, -6.13], [106.83, -6.13], [106.83, -6.1499999999999995]]]}}, {"type": "Feature", "properties": {"cell_id": "106.840:-6.120", "n": 3, "status": "INSUFFICIENT DATA", "price_class": null, "median_price_per_m2": null}, "geometry": {"type": "Polygon", "coordinates": [[[106.83, -6.13], [106.85000000000001, -6.13], [106.85000000000001, -6.11], [106.83, -6.11], [106.83, -6.13]]]}}, {"type": "Feature", "properties": {"cell_id": "106.780:-6.340", "n": 3, "status": "INSUFFICIENT DATA", "price_class": null, "median_price_per_m2": null}, "geometry": {"type": "Polygon", "coordinates": [[[106.77, -6.35], [106.79, -6.35], [106.79, -6.33], [106.77, -6.33], [106.77, -6.35]]]}}, {"type": "Feature", "properties": {"cell_id": "106.640:-6.180", "n": 2, "status": "INSUFFICIENT DATA", "price_class": null, "median_price_per_m2": null}, "geometry": {"type": "Polygon", "coordinates": [[[106.63, -6.1899999999999995], [106.65, -6.1899999999999995], [106.65, -6.17], [106.63, -6.17], [106.63, -6.1899999999999995]]]}}, {"type": "Feature", "properties": {"cell_id": "106.620:-6.180", "n": 1, "status": "INSUFFICIENT DATA", "price_class": null, "median_price_per_m2": null}, "geometry": {"type": "Polygon", "coordinates": [[[106.61, -6.1899999999999995], [106.63000000000001, -6.1899999999999995], [106.63000000000001, -6.17], [106.61, -6.17], [106.61, -6.1899999999999995]]]}}, {"type": "Feature", "properties": {"cell_id": "106.880:-6.360", "n": 3, "status": "INSUFFICIENT DATA", "price_class": null, "median_price_per_m2": null}, "geometry": {"type": "Polygon", "coordinates": [[[106.86999999999999, -6.37], [106.89, -6.37], [106.89, -6.3500000000000005], [106.86999999999999, -6.3500000000000005], [106.86999999999999, -6.37]]]}}, {"type": "Feature", "properties": {"cell_id": "106.820:-6.200", "n": 4, "status": "OK", "median_price_per_m2": 53440000, "median_price": 10000000000.0, "price_class": "MURAH", "murah_pct": 75.0, "sedang_pct": 25.0, "mahal_pct": 0.0}, "geometry": {"type": "Polygon", "coordinates": [[[106.80999999999999, -6.21], [106.83, -6.21], [106.83, -6.19], [106.80999999999999, -6.19], [106.80999999999999, -6.21]]]}}, {"type": "Feature", "properties": {"cell_id": "106.800:-6.200", "n": 3, "status": "INSUFFICIENT DATA", "price_class": null, "median_price_per_m2": null}, "geometry": {"type": "Polygon", "coordinates": [[[106.78999999999999, -6.21], [106.81, -6.21], [106.81, -6.19], [106.78999999999999, -6.19], [106.78999999999999, -6.21]]]}}, {"type": "Feature", "properties": {"cell_id": "106.740:-6.180", "n": 3, "status": "INSUFFICIENT DATA", "price_class": null, "median_price_per_m2": null}, "geometry": {"type": "Polygon", "coordinates": [[[106.72999999999999, -6.1899999999999995], [106.75, -6.1899999999999995], [106.75, -6.17], [106.72999999999999, -6.17], [106.72999999999999, -6.1899999999999995]]]}}, {"type": "Feature", "properties": {"cell_id": "106.700:-6.160", "n": 3, "status": "INSUFFICIENT DATA", "price_class": null, "median_price_per_m2": null}, "geometry": {"type": "Polygon", "coordinates": [[[106.69, -6.17], [106.71000000000001, -6.17], [106.71000000000001, -6.15], [106.69, -6.15], [106.69, -6.17]]]}}, {"type": "Feature", "properties": {"cell_id": "106.900:-6.180", "n": 3, "status": "INSUFFICIENT DATA", "price_class": null, "median_price_per_m2": null}, "geometry": {"type": "Polygon", "coordinates": [[[106.89, -6.1899999999999995], [106.91000000000001, -6.1899999999999995], [106.91000000000001, -6.17], [106.89, -6.17], [106.89, -6.1899999999999995]]]}}, {"type": "Feature", "properties": {"cell_id": "106.860:-6.240", "n": 3, "status": "INSUFFICIENT DATA", "price_class": null, "median_price_per_m2": null}, "geometry": {"type": "Polygon", "coordinates": [[[106.85, -6.25], [106.87, -6.25], [106.87, -6.23], [106.85, -6.23], [106.85, -6.25]]]}}, {"type": "Feature", "properties": {"cell_id": "106.980:-6.240", "n": 3, "status": "INSUFFICIENT DATA", "price_class": null, "median_price_per_m2": null}, "geometry": {"type": "Polygon", "coordinates": [[[106.97, -6.25], [106.99000000000001, -6.25], [106.99000000000001, -6.23], [106.97, -6.23], [106.97, -6.25]]]}}, {"type": "Feature", "properties": {"cell_id": "106.880:-6.300", "n": 8, "status": "OK", "median_price_per_m2": 17500000.0, "median_price": 2000000000.0, "price_class": "SEDANG", "murah_pct": 25.0, "sedang_pct": 37.5, "mahal_pct": 37.5}, "geometry": {"type": "Polygon", "coordinates": [[[106.86999999999999, -6.31], [106.89, -6.31], [106.89, -6.29], [106.86999999999999, -6.29], [106.86999999999999, -6.31]]]}}, {"type": "Feature", "properties": {"cell_id": "106.880:-6.320", "n": 4, "status": "OK", "median_price_per_m2": 16666666.666666666, "median_price": 2000000000, "price_class": "MURAH", "murah_pct": 50.0, "sedang_pct": 0.0, "mahal_pct": 50.0}, "geometry": {"type": "Polygon", "coordinates": [[[106.86999999999999, -6.33], [106.89, -6.33], [106.89, -6.3100000000000005], [106.86999999999999, -6.3100000000000005], [106.86999999999999, -6.33]]]}}, {"type": "Feature", "properties": {"cell_id": "106.660:-6.120", "n": 3, "status": "INSUFFICIENT DATA", "price_class": null, "median_price_per_m2": null}, "geometry": {"type": "Polygon", "coordinates": [[[106.64999999999999, -6.13], [106.67, -6.13], [106.67, -6.11], [106.64999999999999, -6.11], [106.64999999999999, -6.13]]]}}, {"type": "Feature", "properties": {"cell_id": "106.520:-6.060", "n": 3, "status": "INSUFFICIENT DATA", "price_class": null, "median_price_per_m2": null}, "geometry": {"type": "Polygon", "coordinates": [[[106.50999999999999, -6.069999999999999], [106.53, -6.069999999999999], [106.53, -6.05], [106.50999999999999, -6.05], [106.50999999999999, -6.069999999999999]]]}}, {"type": "Feature", "properties": {"cell_id": "106.520:-6.120", "n": 3, "status": "INSUFFICIENT DATA", "price_class": null, "median_price_per_m2": null}, "geometry": {"type": "Polygon", "coordinates": [[[106.50999999999999, -6.13], [106.53, -6.13], [106.53, -6.11], [106.50999999999999, -6.11], [106.50999999999999, -6.13]]]}}, {"type": "Feature", "properties": {"cell_id": "106.560:-6.240", "n": 3, "status": "INSUFFICIENT DATA", "price_class": null, "median_price_per_m2": null}, "geometry": {"type": "Polygon", "coordinates": [[[106.55, -6.25], [106.57000000000001, -6.25], [106.57000000000001, -6.23], [106.55, -6.23], [106.55, -6.25]]]}}, {"type": "Feature", "properties": {"cell_id": "106.580:-6.300", "n": 3, "status": "INSUFFICIENT DATA", "price_class": null, "median_price_per_m2": null}, "geometry": {"type": "Polygon", "coordinates": [[[106.57, -6.31], [106.59, -6.31], [106.59, -6.29], [106.57, -6.29], [106.57, -6.31]]]}}, {"type": "Feature", "properties": {"cell_id": "106.580:-6.200", "n": 3, "status": "INSUFFICIENT DATA", "price_class": null, "median_price_per_m2": null}, "geometry": {"type": "Polygon", "coordinates": [[[106.57, -6.21], [106.59, -6.21], [106.59, -6.19], [106.57, -6.19], [106.57, -6.21]]]}}, {"type": "Feature", "properties": {"cell_id": "106.560:-6.340", "n": 3, "status": "INSUFFICIENT DATA", "price_class": null, "median_price_per_m2": null}, "geometry": {"type": "Polygon", "coordinates": [[[106.55, -6.35], [106.57000000000001, -6.35], [106.57000000000001, -6.33], [106.55, -6.33], [106.55, -6.35]]]}}, {"type": "Feature", "properties": {"cell_id": "106.740:-6.560", "n": 1, "status": "INSUFFICIENT DATA", "price_class": null, "median_price_per_m2": null}, "geometry": {"type": "Polygon", "coordinates": [[[106.72999999999999, -6.569999999999999], [106.75, -6.569999999999999], [106.75, -6.55], [106.72999999999999, -6.55], [106.72999999999999, -6.569999999999999]]]}}, {"type": "Feature", "properties": {"cell_id": "106.720:-6.560", "n": 2, "status": "INSUFFICIENT DATA", "price_class": null, "median_price_per_m2": null}, "geometry": {"type": "Polygon", "coordinates": [[[106.71, -6.569999999999999], [106.73, -6.569999999999999], [106.73, -6.55], [106.71, -6.55], [106.71, -6.569999999999999]]]}}, {"type": "Feature", "properties": {"cell_id": "106.640:-6.560", "n": 3, "status": "INSUFFICIENT DATA", "price_class": null, "median_price_per_m2": null}, "geometry": {"type": "Polygon", "coordinates": [[[106.63, -6.569999999999999], [106.65, -6.569999999999999], [106.65, -6.55], [106.63, -6.55], [106.63, -6.569999999999999]]]}}, {"type": "Feature", "properties": {"cell_id": "106.460:-6.460", "n": 3, "status": "INSUFFICIENT DATA", "price_class": null, "median_price_per_m2": null}, "geometry": {"type": "Polygon", "coordinates": [[[106.44999999999999, -6.47], [106.47, -6.47], [106.47, -6.45], [106.44999999999999, -6.45], [106.44999999999999, -6.47]]]}}, {"type": "Feature", "properties": {"cell_id": "106.400:-6.340", "n": 3, "status": "INSUFFICIENT DATA", "price_class": null, "median_price_per_m2": null}, "geometry": {"type": "Polygon", "coordinates": [[[106.39, -6.35], [106.41000000000001, -6.35], [106.41000000000001, -6.33], [106.39, -6.33], [106.39, -6.35]]]}}, {"type": "Feature", "properties": {"cell_id": "106.860:-6.540", "n": 3, "status": "INSUFFICIENT DATA", "price_class": null, "median_price_per_m2": null}, "geometry": {"type": "Polygon", "coordinates": [[[106.85, -6.55], [106.87, -6.55], [106.87, -6.53], [106.85, -6.53], [106.85, -6.55]]]}}, {"type": "Feature", "properties": {"cell_id": "107.060:-6.460", "n": 3, "status": "INSUFFICIENT DATA", "price_class": null, "median_price_per_m2": null}, "geometry": {"type": "Polygon", "coordinates": [[[107.05, -6.47], [107.07000000000001, -6.47], [107.07000000000001, -6.45], [107.05, -6.45], [107.05, -6.47]]]}}, {"type": "Feature", "properties": {"cell_id": "106.740:-6.100", "n": 3, "status": "INSUFFICIENT DATA", "price_class": null, "median_price_per_m2": null}, "geometry": {"type": "Polygon", "coordinates": [[[106.72999999999999, -6.109999999999999], [106.75, -6.109999999999999], [106.75, -6.09], [106.72999999999999, -6.09], [106.72999999999999, -6.109999999999999]]]}}, {"type": "Feature", "properties": {"cell_id": "106.820:-6.180", "n": 2, "status": "INSUFFICIENT DATA", "price_class": null, "median_price_per_m2": null}, "geometry": {"type": "Polygon", "coordinates": [[[106.80999999999999, -6.1899999999999995], [106.83, -6.1899999999999995], [106.83, -6.17], [106.80999999999999, -6.17], [106.80999999999999, -6.1899999999999995]]]}}, {"type": "Feature", "properties": {"cell_id": "106.800:-6.180", "n": 1, "status": "INSUFFICIENT DATA", "price_class": null, "median_price_per_m2": null}, "geometry": {"type": "Polygon", "coordinates": [[[106.78999999999999, -6.1899999999999995], [106.81, -6.1899999999999995], [106.81, -6.17], [106.78999999999999, -6.17], [106.78999999999999, -6.1899999999999995]]]}}, {"type": "Feature", "properties": {"cell_id": "106.820:-6.300", "n": 3, "status": "INSUFFICIENT DATA", "price_class": null, "median_price_per_m2": null}, "geometry": {"type": "Polygon", "coordinates": [[[106.80999999999999, -6.31], [106.83, -6.31], [106.83, -6.29], [106.80999999999999, -6.29], [106.80999999999999, -6.31]]]}}, {"type": "Feature", "properties": {"cell_id": "106.820:-6.260", "n": 2, "status": "INSUFFICIENT DATA", "price_class": null, "median_price_per_m2": null}, "geometry": {"type": "Polygon", "coordinates": [[[106.80999999999999, -6.27], [106.83, -6.27], [106.83, -6.25], [106.80999999999999, -6.25], [106.80999999999999, -6.27]]]}}, {"type": "Feature", "properties": {"cell_id": "106.800:-6.160", "n": 1, "status": "INSUFFICIENT DATA", "price_class": null, "median_price_per_m2": null}, "geometry": {"type": "Polygon", "coordinates": [[[106.78999999999999, -6.17], [106.81, -6.17], [106.81, -6.15], [106.78999999999999, -6.15], [106.78999999999999, -6.17]]]}}, {"type": "Feature", "properties": {"cell_id": "106.780:-6.160", "n": 2, "status": "INSUFFICIENT DATA", "price_class": null, "median_price_per_m2": null}, "geometry": {"type": "Polygon", "coordinates": [[[106.77, -6.17], [106.79, -6.17], [106.79, -6.15], [106.77, -6.15], [106.77, -6.17]]]}}, {"type": "Feature", "properties": {"cell_id": "106.820:-6.240", "n": 2, "status": "INSUFFICIENT DATA", "price_class": null, "median_price_per_m2": null}, "geometry": {"type": "Polygon", "coordinates": [[[106.80999999999999, -6.25], [106.83, -6.25], [106.83, -6.23], [106.80999999999999, -6.23], [106.80999999999999, -6.25]]]}}, {"type": "Feature", "properties": {"cell_id": "106.920:-6.260", "n": 2, "status": "INSUFFICIENT DATA", "price_class": null, "median_price_per_m2": null}, "geometry": {"type": "Polygon", "coordinates": [[[106.91, -6.27], [106.93, -6.27], [106.93, -6.25], [106.91, -6.25], [106.91, -6.27]]]}}, {"type": "Feature", "properties": {"cell_id": "106.900:-6.260", "n": 1, "status": "INSUFFICIENT DATA", "price_class": null, "median_price_per_m2": null}, "geometry": {"type": "Polygon", "coordinates": [[[106.89, -6.27], [106.91000000000001, -6.27], [106.91000000000001, -6.25], [106.89, -6.25], [106.89, -6.27]]]}}, {"type": "Feature", "properties": {"cell_id": "106.900:-6.100", "n": 3, "status": "INSUFFICIENT DATA", "price_class": null, "median_price_per_m2": null}, "geometry": {"type": "Polygon", "coordinates": [[[106.89, -6.109999999999999], [106.91000000000001, -6.109999999999999], [106.91000000000001, -6.09], [106.89, -6.09], [106.89, -6.109999999999999]]]}}, {"type": "Feature", "properties": {"cell_id": "106.840:-6.280", "n": 3, "status": "INSUFFICIENT DATA", "price_class": null, "median_price_per_m2": null}, "geometry": {"type": "Polygon", "coordinates": [[[106.83, -6.29], [106.85000000000001, -6.29], [106.85000000000001, -6.2700000000000005], [106.83, -6.2700000000000005], [106.83, -6.29]]]}}, {"type": "Feature", "properties": {"cell_id": "106.960:-6.220", "n": 4, "status": "OK", "median_price_per_m2": 15833333.333333334, "median_price": 1800000000.0, "price_class": "MURAH", "murah_pct": 50.0, "sedang_pct": 0.0, "mahal_pct": 50.0}, "geometry": {"type": "Polygon", "coordinates": [[[106.94999999999999, -6.2299999999999995], [106.97, -6.2299999999999995], [106.97, -6.21], [106.94999999999999, -6.21], [106.94999999999999, -6.2299999999999995]]]}}, {"type": "Feature", "properties": {"cell_id": "106.680:-6.320", "n": 3, "status": "INSUFFICIENT DATA", "price_class": null, "median_price_per_m2": null}, "geometry": {"type": "Polygon", "coordinates": [[[106.67, -6.33], [106.69000000000001, -6.33], [106.69000000000001, -6.3100000000000005], [106.67, -6.3100000000000005], [106.67, -6.33]]]}}, {"type": "Feature", "properties": {"cell_id": "106.900:-6.160", "n": 3, "status": "INSUFFICIENT DATA", "price_class": null, "median_price_per_m2": null}, "geometry": {"type": "Polygon", "coordinates": [[[106.89, -6.17], [106.91000000000001, -6.17], [106.91000000000001, -6.15], [106.89, -6.15], [106.89, -6.17]]]}}, {"type": "Feature", "properties": {"cell_id": "106.960:-6.120", "n": 3, "status": "INSUFFICIENT DATA", "price_class": null, "median_price_per_m2": null}, "geometry": {"type": "Polygon", "coordinates": [[[106.94999999999999, -6.13], [106.97, -6.13], [106.97, -6.11], [106.94999999999999, -6.11], [106.94999999999999, -6.13]]]}}, {"type": "Feature", "properties": {"cell_id": "106.960:-6.200", "n": 2, "status": "INSUFFICIENT DATA", "price_class": null, "median_price_per_m2": null}, "geometry": {"type": "Polygon", "coordinates": [[[106.94999999999999, -6.21], [106.97, -6.21], [106.97, -6.19], [106.94999999999999, -6.19], [106.94999999999999, -6.21]]]}}, {"type": "Feature", "properties": {"cell_id": "106.840:-6.220", "n": 1, "status": "INSUFFICIENT DATA", "price_class": null, "median_price_per_m2": null}, "geometry": {"type": "Polygon", "coordinates": [[[106.83, -6.2299999999999995], [106.85000000000001, -6.2299999999999995], [106.85000000000001, -6.21], [106.83, -6.21], [106.83, -6.2299999999999995]]]}}, {"type": "Feature", "properties": {"cell_id": "106.840:-6.240", "n": 1, "status": "INSUFFICIENT DATA", "price_class": null, "median_price_per_m2": null}, "geometry": {"type": "Polygon", "coordinates": [[[106.83, -6.25], [106.85000000000001, -6.25], [106.85000000000001, -6.23], [106.83, -6.23], [106.83, -6.25]]]}}]}